{
"type": "FeatureCollection",
"name": "air",
"crs": { "type": "name", "properties": { "name": "urn:ogc:def:crs:OGC:1.3:CRS84" } },
"features": [
{ "type": "Feature", "properties": { "fid": 5069, "개방서비스명": "대기오염물질배출시설설치사업장", "인허가일자": "2007-04-30", "영업상태명": "영업/정상", "도로명전체주소": "경기도 성남시 분당구 판교로228번길 55, 판교크린타워 (삼평동)", "사업장명": "성남시청(판교환경에너지시설)", "환경업무구분명": null, "업종구분명": null, "종별명": null, "주생산품명": null }, "geometry": { "type": "Point", "coordinates": [ 127.102716571604049, 37.397502730745458 ] } },
{ "type": "Feature", "properties": { "fid": 5071, "개방서비스명": "대기오염물질배출시설설치사업장", "인허가일자": "2008-12-02", "영업상태명": "영업/정상", "도로명전체주소": "경기도 성남시 분당구 판교로255번길 68 (삼평동)", "사업장명": "한국지역난방공사판교지사", "환경업무구분명": null, "업종구분명": null, "종별명": null, "주생산품명": null }, "geometry": { "type": "Point", "coordinates": [ 127.098130876494778, 37.403950250196253 ] } },
{ "type": "Feature", "properties": { "fid": 5100, "개방서비스명": "대기오염물질배출시설설치사업장", "인허가일자": "2024-05-14", "영업상태명": "영업/정상", "도로명전체주소": null, "사업장명": "모트렉스(주)", "환경업무구분명": "대기배출업소관리", "업종구분명": "자동차 부품 제조업", "종별명": "4종", "주생산품명": null }, "geometry": { "type": "Point", "coordinates": [ 127.090302401101823, 37.407323184636539 ] } },
{ "type": "Feature", "properties": { "fid": 5103, "개방서비스명": "대기오염물질배출시설설치사업장", "인허가일자": "2020-01-02", "영업상태명": "영업/정상", "도로명전체주소": "경기도 성남시 분당구 대왕판교로644번길 12, 엔씨소프트 판교R&D센터 (삼평동)", "사업장명": "(주)엔씨소프트(판교알앤디센터지점)", "환경업무구분명": "대기배출업소관리", "업종구분명": "정보처리 및 기타 컴퓨터 운영 관련업", "종별명": "5종", "주생산품명": null }, "geometry": { "type": "Point", "coordinates": [ 127.1080714728283, 37.399385929819232 ] } },
{ "type": "Feature", "properties": { "fid": 5104, "개방서비스명": "대기오염물질배출시설설치사업장", "인허가일자": "2022-03-18", "영업상태명": "영업/정상", "도로명전체주소": null, "사업장명": "슈어소프트테크(주)(슈어소프트테크 지란지교 통합사옥)", "환경업무구분명": "대기배출업소관리", "업종구분명": "소프트웨어 자문, 개발 및 공급업", "종별명": "5종", "주생산품명": null }, "geometry": { "type": "Point", "coordinates": [ 127.088812272312396, 37.406955599605595 ] } },
{ "type": "Feature", "properties": { "fid": 5111, "개방서비스명": "대기오염물질배출시설설치사업장", "인허가일자": "2015-11-03", "영업상태명": "영업/정상", "도로명전체주소": "경기도 성남시 분당구 판교로 332 (삼평동)", "사업장명": "에스케이가스(주)", "환경업무구분명": "대기배출업소관리", "업종구분명": "가스 제조 및 배관공급업", "종별명": "5종", "주생산품명": null }, "geometry": { "type": "Point", "coordinates": [ 127.110171995856092, 37.402769061428714 ] } },
{ "type": "Feature", "properties": { "fid": 5112, "개방서비스명": "대기오염물질배출시설설치사업장", "인허가일자": "2015-10-21", "영업상태명": "영업/정상", "도로명전체주소": "경기도 성남시 수정구 대왕판교로851번길 30, 2층 (시흥동)", "사업장명": "국가기록원 성남분원", "환경업무구분명": "대기배출업소관리", "업종구분명": null, "종별명": "4종", "주생산품명": null }, "geometry": { "type": "Point", "coordinates": [ 127.095479028096051, 37.417632026889365 ] } },
{ "type": "Feature", "properties": { "fid": 5116, "개방서비스명": "대기오염물질배출시설설치사업장", "인허가일자": "2015-12-03", "영업상태명": "영업/정상", "도로명전체주소": "경기도 성남시 수정구 대왕판교로 825 (시흥동, 한국국제협력단)", "사업장명": "한국국제협력단", "환경업무구분명": "대기배출업소관리", "업종구분명": "교육 서비스업", "종별명": "4종", "주생산품명": null }, "geometry": { "type": "Point", "coordinates": [ 127.099426519462753, 37.415287580045486 ] } },
{ "type": "Feature", "properties": { "fid": 5117, "개방서비스명": "대기오염물질배출시설설치사업장", "인허가일자": "2015-11-10", "영업상태명": "영업/정상", "도로명전체주소": "경기도 성남시 분당구 판교로 333 (삼평동, LIG 넥스원(주))", "사업장명": "엘아이지넥스원(주)", "환경업무구분명": "대기배출업소관리", "업종구분명": "그외 기타 정보 서비스업", "종별명": "4종", "주생산품명": null }, "geometry": { "type": "Point", "coordinates": [ 127.11127240264193, 37.404829274543303 ] } },
{ "type": "Feature", "properties": { "fid": 5125, "개방서비스명": "대기오염물질배출시설설치사업장", "인허가일자": "2016-05-04", "영업상태명": "영업/정상", "도로명전체주소": "경기도 성남시 수정구 사송로77번길 68 (사송동)", "사업장명": "판교모터스(유)", "환경업무구분명": "대기배출업소관리", "업종구분명": "자동차 종합 수리업", "종별명": "5종", "주생산품명": null }, "geometry": { "type": "Point", "coordinates": [ 127.114415190074638, 37.409344992911961 ] } },
{ "type": "Feature", "properties": { "fid": 5126, "개방서비스명": "대기오염물질배출시설설치사업장", "인허가일자": "2016-03-04", "영업상태명": "영업/정상", "도로명전체주소": "경기도 성남시 분당구 판교로 295 (삼평동)", "사업장명": "(주)삼양바이오팜", "환경업무구분명": "대기배출업소관리", "업종구분명": "의학 및 약학 연구개발업", "종별명": "4종", "주생산품명": null }, "geometry": { "type": "Point", "coordinates": [ 127.10736458582987, 37.403632595741492 ] } },
{ "type": "Feature", "properties": { "fid": 5127, "개방서비스명": "대기오염물질배출시설설치사업장", "인허가일자": "2016-02-22", "영업상태명": "영업/정상", "도로명전체주소": "경기도 성남시 분당구 판교역로 221 (삼평동)", "사업장명": "SK바이오팜(주)", "환경업무구분명": "대기배출업소관리", "업종구분명": null, "종별명": "5종", "주생산품명": null }, "geometry": { "type": "Point", "coordinates": [ 127.108743554715275, 37.400725373552838 ] } },
{ "type": "Feature", "properties": { "fid": 5128, "개방서비스명": "대기오염물질배출시설설치사업장", "인허가일자": "2016-01-12", "영업상태명": "영업/정상", "도로명전체주소": "경기도 성남시 분당구 대왕판교로712번길 16 (삼평동)", "사업장명": "(재)한국파스퇴르연구소", "환경업무구분명": "대기배출업소관리", "업종구분명": null, "종별명": "4종", "주생산품명": null }, "geometry": { "type": "Point", "coordinates": [ 127.103361784863026, 37.406604741761996 ] } },
{ "type": "Feature", "properties": { "fid": 5136, "개방서비스명": "대기오염물질배출시설설치사업장", "인허가일자": "2015-12-28", "영업상태명": "영업/정상", "도로명전체주소": "경기도 성남시 분당구 판교로 335 (삼평동, 차병원그룹 판교종합연구원)", "사업장명": "차바이오컴플렉스관리단", "환경업무구분명": "대기배출업소관리", "업종구분명": null, "종별명": "4종", "주생산품명": null }, "geometry": { "type": "Point", "coordinates": [ 127.11167496900579, 37.403811954856856 ] } },
{ "type": "Feature", "properties": { "fid": 5140, "개방서비스명": "대기오염물질배출시설설치사업장", "인허가일자": "2024-12-19", "영업상태명": "영업/정상", "도로명전체주소": null, "사업장명": "솔브레인(주)", "환경업무구분명": "대기배출업소관리", "업종구분명": "그 외 기타 분류 안된 화학제품 제조업", "종별명": "5종", "주생산품명": null }, "geometry": { "type": "Point", "coordinates": [ 127.089887821031226, 37.406219821835876 ] } },
{ "type": "Feature", "properties": { "fid": 5141, "개방서비스명": "대기오염물질배출시설설치사업장", "인허가일자": "2024-12-19", "영업상태명": "영업/정상", "도로명전체주소": null, "사업장명": "(주)우아한형제들", "환경업무구분명": "대기배출업소관리", "업종구분명": "응용 소프트웨어 개발 및 공급업", "종별명": "5종", "주생산품명": null }, "geometry": { "type": "Point", "coordinates": [ 127.089887821031226, 37.406219821835876 ] } },
{ "type": "Feature", "properties": { "fid": 5149, "개방서비스명": "대기오염물질배출시설설치사업장", "인허가일자": "2008-07-01", "영업상태명": "영업/정상", "도로명전체주소": "경기도 성남시 수정구 설개로2번길 10 (시흥동)", "사업장명": "스투트가르트스포츠카(주)분당지점", "환경업무구분명": "대기배출업소관리", "업종구분명": "도장 및 기타 피막처리업", "종별명": "4종", "주생산품명": null }, "geometry": { "type": "Point", "coordinates": [ 127.103854839835776, 37.421649579314405 ] } },
{ "type": "Feature", "properties": { "fid": 5150, "개방서비스명": "대기오염물질배출시설설치사업장", "인허가일자": "2010-07-15", "영업상태명": "영업/정상", "도로명전체주소": "경기도 성남시 수정구 설개로2번길 20 (시흥동)", "사업장명": "케이씨씨오토모빌(주)", "환경업무구분명": "대기배출업소관리", "업종구분명": "도장및기타피막처리업", "종별명": "5종", "주생산품명": null }, "geometry": { "type": "Point", "coordinates": [ 127.103445929410455, 37.421255140657181 ] } },
{ "type": "Feature", "properties": { "fid": 5152, "개방서비스명": "대기오염물질배출시설설치사업장", "인허가일자": "2002-10-31", "영업상태명": "영업/정상", "도로명전체주소": "경기도 성남시 수정구 사송로77번길 72 (사송동)", "사업장명": "대림자동차정비서비스(분당판교자동차서비스)", "환경업무구분명": "대기배출업소관리", "업종구분명": "도장및기타피막처리업", "종별명": "4종", "주생산품명": null }, "geometry": { "type": "Point", "coordinates": [ 127.114484464853234, 37.408964654176231 ] } },
{ "type": "Feature", "properties": { "fid": 5155, "개방서비스명": "대기오염물질배출시설설치사업장", "인허가일자": "2018-12-26", "영업상태명": "영업/정상", "도로명전체주소": "경기도 성남시 수정구 여수대로 36 (시흥동)", "사업장명": "한성자동차(주)", "환경업무구분명": "대기배출업소관리", "업종구분명": "자동차 종합 수리업", "종별명": "5종", "주생산품명": null }, "geometry": { "type": "Point", "coordinates": [ 127.106314168641845, 37.42203671520403 ] } },
{ "type": "Feature", "properties": { "fid": 5098, "개방서비스명": "대기오염물질배출시설설치사업장", "인허가일자": "2021-10-18", "영업상태명": "영업/정상", "도로명전체주소": "경기도 성남시 수정구 연내개울로 26 (고등동)", "사업장명": "에이치피프린팅코리아 유한책임회사", "환경업무구분명": "대기배출업소관리", "업종구분명": "기타 화학제품 제조업", "종별명": "5종", "주생산품명": null }, "geometry": { "type": "Point", "coordinates": [ 127.092335621955897, 37.428196351576084 ] } },
{ "type": "Feature", "properties": { "fid": 5102, "개방서비스명": "대기오염물질배출시설설치사업장", "인허가일자": "2020-03-10", "영업상태명": "영업/정상", "도로명전체주소": "경기도 성남시 수정구 청계산로2길 14, 성남 고등빌딩 (고등동)", "사업장명": "고등현대서비스", "환경업무구분명": "대기배출업소관리", "업종구분명": "자동차 및 이륜 자동차 수리업", "종별명": "5종", "주생산품명": null }, "geometry": { "type": "Point", "coordinates": [ 127.094420612649643, 37.427727767706486 ] } },
{ "type": "Feature", "properties": { "fid": 5124, "개방서비스명": "대기오염물질배출시설설치사업장", "인허가일자": "2000-03-09", "영업상태명": "영업/정상", "도로명전체주소": "경기도 성남시 중원구 마지로 63 (하대원동)", "사업장명": "제일자동차공업사", "환경업무구분명": "대기배출업소관리", "업종구분명": null, "종별명": "5종", "주생산품명": null }, "geometry": { "type": "Point", "coordinates": [ 127.136744359412916, 37.428526042847629 ] } },
{ "type": "Feature", "properties": { "fid": 5108, "개방서비스명": "대기오염물질배출시설설치사업장", "인허가일자": "2015-12-18", "영업상태명": "영업/정상", "도로명전체주소": "경기도 성남시 중원구 제일로 60 (성남동, 성남시종합운동장)", "사업장명": "성남도시개발공사", "환경업무구분명": "대기배출업소관리", "업종구분명": null, "종별명": "5종", "주생산품명": null }, "geometry": { "type": "Point", "coordinates": [ 127.138020174882001, 37.432620723547771 ] } },
{ "type": "Feature", "properties": { "fid": 5118, "개방서비스명": "대기오염물질배출시설설치사업장", "인허가일자": "2014-07-17", "영업상태명": "영업/정상", "도로명전체주소": "경기도 성남시 중원구 광명로 152 (성남동)", "사업장명": "남성공업사", "환경업무구분명": "대기배출업소관리", "업종구분명": "자동차 종합 수리업", "종별명": "5종", "주생산품명": null }, "geometry": { "type": "Point", "coordinates": [ 127.14491707362842, 37.438008826069918 ] } },
{ "type": "Feature", "properties": { "fid": 5123, "개방서비스명": "대기오염물질배출시설설치사업장", "인허가일자": "2000-07-04", "영업상태명": "영업/정상", "도로명전체주소": "경기도 성남시 중원구 둔촌대로 291 (하대원동)", "사업장명": "대원현대자동차서비스", "환경업무구분명": "대기배출업소관리", "업종구분명": "도장및기타피막처리업", "종별명": "5종", "주생산품명": null }, "geometry": { "type": "Point", "coordinates": [ 127.150222395745374, 37.430106442925201 ] } },
{ "type": "Feature", "properties": { "fid": 5057, "개방서비스명": "대기오염물질배출시설설치사업장", "인허가일자": "2019-11-28", "영업상태명": "영업/정상", "도로명전체주소": "경기도 성남시 중원구 둔촌대로 356, 1층(하대원동)", "사업장명": "도이치모터스(주)성남서비스센터", "환경업무구분명": "대기배출업소관리", "업종구분명": "자동차 종합 수리업", "종별명": "5종", "주생산품명": null }, "geometry": { "type": "Point", "coordinates": [ 127.157561140542484, 37.431531497400307 ] } },
{ "type": "Feature", "properties": { "fid": 5063, "개방서비스명": "대기오염물질배출시설설치사업장", "인허가일자": "2018-08-08", "영업상태명": "영업/정상", "도로명전체주소": "경기도 성남시 중원구 둔촌대로 360 (하대원동)", "사업장명": "대상델리하임(주)", "환경업무구분명": "대기배출업소관리", "업종구분명": "기타 육류 가공 및 저장처리업", "종별명": "4종", "주생산품명": null }, "geometry": { "type": "Point", "coordinates": [ 127.157916681389352, 37.431871063599552 ] } },
{ "type": "Feature", "properties": { "fid": 5051, "개방서비스명": "대기오염물질배출시설설치사업장", "인허가일자": "2024-02-23", "영업상태명": "영업/정상", "도로명전체주소": "경기도 성남시 중원구 둔촌대로388번길 18 (상대원동)", "사업장명": "우창산업(주)제3공장", "환경업무구분명": "대기배출업소관리", "업종구분명": "그외 기타 플라스틱 제품 제조업", "종별명": "5종", "주생산품명": null }, "geometry": { "type": "Point", "coordinates": [ 127.15894641654036, 37.431522805307047 ] } },
{ "type": "Feature", "properties": { "fid": 5035, "개방서비스명": "대기오염물질배출시설설치사업장", "인허가일자": "2013-03-04", "영업상태명": "영업/정상", "도로명전체주소": "경기도 성남시 중원구 둔촌대로388번길 18 (상대원동)", "사업장명": "우창산업(주)제3공장", "환경업무구분명": null, "업종구분명": null, "종별명": null, "주생산품명": null }, "geometry": { "type": "Point", "coordinates": [ 127.15894641654036, 37.431522805307047 ] } },
{ "type": "Feature", "properties": { "fid": 5084, "개방서비스명": "대기오염물질배출시설설치사업장", "인허가일자": "1999-01-01", "영업상태명": "영업/정상", "도로명전체주소": "경기도 성남시 중원구 둔촌대로 388, 크란츠테크노 1호(상대원동)", "사업장명": "한국보훈복지공단", "환경업무구분명": null, "업종구분명": null, "종별명": null, "주생산품명": null }, "geometry": { "type": "Point", "coordinates": [ 127.159163758126539, 37.432637280101858 ] } },
{ "type": "Feature", "properties": { "fid": 5066, "개방서비스명": "대기오염물질배출시설설치사업장", "인허가일자": "2018-01-01", "영업상태명": "영업/정상", "도로명전체주소": "경기도 성남시 중원구 둔촌대로388번길 32, 삼호물산(주) (상대원동)", "사업장명": "CJ씨푸드(주)", "환경업무구분명": null, "업종구분명": null, "종별명": null, "주생산품명": null }, "geometry": { "type": "Point", "coordinates": [ 127.159284139436664, 37.430329773352746 ] } },
{ "type": "Feature", "properties": { "fid": 5088, "개방서비스명": "대기오염물질배출시설설치사업장", "인허가일자": "2015-12-23", "영업상태명": "영업/정상", "도로명전체주소": "경기도 성남시 중원구 둔촌대로388번길 32, CJ씨푸드성남본사 (상대원동)", "사업장명": "CJ씨푸드㈜", "환경업무구분명": "대기배출업소관리", "업종구분명": "기타 수산동물 가공 및 저장처리업", "종별명": "4종", "주생산품명": null }, "geometry": { "type": "Point", "coordinates": [ 127.159284139436664, 37.430329773352746 ] } },
{ "type": "Feature", "properties": { "fid": 5087, "개방서비스명": "대기오염물질배출시설설치사업장", "인허가일자": "1990-05-10", "영업상태명": "영업/정상", "도로명전체주소": "경기도 성남시 중원구 둔촌대로388번길 14, 동원산업(주) (상대원동)", "사업장명": "㈜동원에프앤비 성남공장", "환경업무구분명": "대기배출업소관리", "업종구분명": "기타 수산동물 가공 및 저장처리업", "종별명": "4종", "주생산품명": null }, "geometry": { "type": "Point", "coordinates": [ 127.159846339714619, 37.432182932999382 ] } },
{ "type": "Feature", "properties": { "fid": 5050, "개방서비스명": "대기오염물질배출시설설치사업장", "인허가일자": "2007-06-26", "영업상태명": "영업/정상", "도로명전체주소": "경기도 성남시 중원구 둔촌대로388번길 31, 아비코전자(주)(상대원동)", "사업장명": "아비코전자(주)", "환경업무구분명": "대기배출업소관리", "업종구분명": "기타 전자부품 제조업", "종별명": "5종", "주생산품명": null }, "geometry": { "type": "Point", "coordinates": [ 127.160405821792693, 37.430575771700425 ] } },
{ "type": "Feature", "properties": { "fid": 5068, "개방서비스명": "대기오염물질배출시설설치사업장", "인허가일자": "2022-11-02", "영업상태명": "영업/정상", "도로명전체주소": "경기도 성남시 중원구 둔촌대로 456(상대원동)", "사업장명": "코지락", "환경업무구분명": "대기배출업소관리", "업종구분명": "소파 및 기타 내장가구 제조업", "종별명": "5종", "주생산품명": null }, "geometry": { "type": "Point", "coordinates": [ 127.166902952364595, 37.431276335972811 ] } },
{ "type": "Feature", "properties": { "fid": 5065, "개방서비스명": "대기오염물질배출시설설치사업장", "인허가일자": "2018-01-01", "영업상태명": "영업/정상", "도로명전체주소": "경기도 성남시 중원구 둔촌대로 456 (상대원동)", "사업장명": "(주)퍼시스 제3공장", "환경업무구분명": null, "업종구분명": null, "종별명": null, "주생산품명": null }, "geometry": { "type": "Point", "coordinates": [ 127.166902952364595, 37.431276335972811 ] } },
{ "type": "Feature", "properties": { "fid": 5132, "개방서비스명": "대기오염물질배출시설설치사업장", "인허가일자": "1999-12-09", "영업상태명": "영업/정상", "도로명전체주소": "경기도 성남시 중원구 둔촌대로 365 (하대원동)", "사업장명": "성남현대자동차써비스 주식회사", "환경업무구분명": "대기배출업소관리", "업종구분명": "자동차 및 이륜 자동차 수리업", "종별명": "5종", "주생산품명": null }, "geometry": { "type": "Point", "coordinates": [ 127.157621597535098, 37.432790420423011 ] } },
{ "type": "Feature", "properties": { "fid": 5133, "개방서비스명": "대기오염물질배출시설설치사업장", "인허가일자": "1999-12-03", "영업상태명": "영업/정상", "도로명전체주소": null, "사업장명": "조영자동차공업사", "환경업무구분명": "대기배출업소관리", "업종구분명": "자동차 종합 수리업", "종별명": "5종", "주생산품명": null }, "geometry": { "type": "Point", "coordinates": [ 127.148182734288142, 37.428748291106366 ] } },
{ "type": "Feature", "properties": { "fid": 5144, "개방서비스명": "대기오염물질배출시설설치사업장", "인허가일자": "2026-02-27", "영업상태명": "영업/정상", "도로명전체주소": "경기도 성남시 수정구 연내개울로 26, 6층 (고등동)", "사업장명": "허드슨첨단소재코리아 주식회사", "환경업무구분명": "대기배출업소관리", "업종구분명": "전문, 과학 및 기술 서비스업", "종별명": "5종", "주생산품명": "편광필름" }, "geometry": { "type": "Point", "coordinates": [ 127.092335621955897, 37.428196351576084 ] } },
{ "type": "Feature", "properties": { "fid": 5145, "개방서비스명": "대기오염물질배출시설설치사업장", "인허가일자": "1998-04-16", "영업상태명": "영업/정상", "도로명전체주소": "경기도 성남시 중원구 둔촌대로 156 (하대원동)", "사업장명": "중원자동차공업사", "환경업무구분명": "대기배출업소관리", "업종구분명": "도장및기타피막처리업", "종별명": "5종", "주생산품명": null }, "geometry": { "type": "Point", "coordinates": [ 127.136421940942398, 37.429220113290611 ] } },
{ "type": "Feature", "properties": { "fid": 5120, "개방서비스명": "대기오염물질배출시설설치사업장", "인허가일자": "2012-08-17", "영업상태명": "영업/정상", "도로명전체주소": "경기도 성남시 수정구 심곡로37번길 5-4 (심곡동)", "사업장명": "공군제15특수임무비행단", "환경업무구분명": "대기배출업소관리", "업종구분명": "도장및기타피막처리업", "종별명": "4종", "주생산품명": null }, "geometry": { "type": "Point", "coordinates": [ 127.101211918348511, 37.449568105306476 ] } },
{ "type": "Feature", "properties": { "fid": 5138, "개방서비스명": "대기오염물질배출시설설치사업장", "인허가일자": "2024-12-26", "영업상태명": "영업/정상", "도로명전체주소": "경기도 성남시 수정구 신촌로20번길 12 (신촌동)", "사업장명": "기독교대한감리회 광현교회", "환경업무구분명": "대기배출업소관리", "업종구분명": null, "종별명": "5종", "주생산품명": null }, "geometry": { "type": "Point", "coordinates": [ 127.104482453304101, 37.460452192078826 ] } },
{ "type": "Feature", "properties": { "fid": 5060, "개방서비스명": "대기오염물질배출시설설치사업장", "인허가일자": "2021-01-04", "영업상태명": "영업/정상", "도로명전체주소": "경기도 성남시 수정구 탄천로 687(태평동)", "사업장명": "성남시 대형폐기물처리", "환경업무구분명": null, "업종구분명": null, "종별명": null, "주생산품명": null }, "geometry": { "type": "Point", "coordinates": [ 127.119982612198498, 37.451467359960283 ] } },
{ "type": "Feature", "properties": { "fid": 5072, "개방서비스명": "대기오염물질배출시설설치사업장", "인허가일자": "2015-12-29", "영업상태명": "영업/정상", "도로명전체주소": "경기도 성남시 수정구 탄천로 687, 1층 (태평동)", "사업장명": "성남시음식물자원화시설", "환경업무구분명": null, "업종구분명": null, "종별명": null, "주생산품명": null }, "geometry": { "type": "Point", "coordinates": [ 127.119982612198498, 37.451467359960283 ] } },
{ "type": "Feature", "properties": { "fid": 5074, "개방서비스명": "대기오염물질배출시설설치사업장", "인허가일자": "2016-01-12", "영업상태명": "영업/정상", "도로명전체주소": "경기도 성남시 수정구 탄천로 809, 맑은물관리사업소(물순환과) 1호(복정동)", "사업장명": "맑은물관리사업소(물순환과)", "환경업무구분명": "대기배출업소관리", "업종구분명": "하수 처리업", "종별명": "3종", "주생산품명": null }, "geometry": { "type": "Point", "coordinates": [ 127.124633885347095, 37.466743735763131 ] } },
{ "type": "Feature", "properties": { "fid": 5121, "개방서비스명": "대기오염물질배출시설설치사업장", "인허가일자": "2012-03-13", "영업상태명": "영업/정상", "도로명전체주소": "경기도 성남시 수정구 성남대로 1535 (복정동)", "사업장명": "복정현대자동차서비스", "환경업무구분명": "대기배출업소관리", "업종구분명": "자동차 수리업", "종별명": "5종", "주생산품명": null }, "geometry": { "type": "Point", "coordinates": [ 127.12596960851404, 37.466943154462925 ] } },
{ "type": "Feature", "properties": { "fid": 5090, "개방서비스명": "대기오염물질배출시설설치사업장", "인허가일자": "2008-09-24", "영업상태명": "영업/정상", "도로명전체주소": "경기도 성남시 수정구 성남대로 1323 (태평동)", "사업장명": "맥자동차공업주식회사", "환경업무구분명": "대기배출업소관리", "업종구분명": "자동차 및 모터사이클 수리업", "종별명": "5종", "주생산품명": null }, "geometry": { "type": "Point", "coordinates": [ 127.126275258856353, 37.44811008644281 ] } },
{ "type": "Feature", "properties": { "fid": 5105, "개방서비스명": "대기오염물질배출시설설치사업장", "인허가일자": "2019-05-10", "영업상태명": "영업/정상", "도로명전체주소": "경기도 성남시 수정구 성남대로 1321 (태평동)", "사업장명": "에스에이치피피코리아(유)", "환경업무구분명": "대기배출업소관리", "업종구분명": "그외 기타 플라스틱 제품 제조업", "종별명": "5종", "주생산품명": null }, "geometry": { "type": "Point", "coordinates": [ 127.126309722619922, 37.447723370230641 ] } },
{ "type": "Feature", "properties": { "fid": 5047, "개방서비스명": "대기오염물질배출시설설치사업장", "인허가일자": "2024-12-03", "영업상태명": "영업/정상", "도로명전체주소": "경기도 성남시 수정구 성남대로1518번길 9 (복정동)", "사업장명": "기독교 대한감리회 선한목자교회", "환경업무구분명": "대기배출업소관리", "업종구분명": "종교 단체", "종별명": "5종", "주생산품명": null }, "geometry": { "type": "Point", "coordinates": [ 127.12769432782359, 37.466159601012649 ] } },
{ "type": "Feature", "properties": { "fid": 5130, "개방서비스명": "대기오염물질배출시설설치사업장", "인허가일자": "2016-01-08", "영업상태명": "영업/정상", "도로명전체주소": "경기도 성남시 수정구 성남대로 1342 (복정동, 가천대학교)", "사업장명": "가천대학교", "환경업무구분명": "대기배출업소관리", "업종구분명": "대학교", "종별명": "4종", "주생산품명": null }, "geometry": { "type": "Point", "coordinates": [ 127.129403390799908, 37.451027666812983 ] } },
{ "type": "Feature", "properties": { "fid": 5135, "개방서비스명": "대기오염물질배출시설설치사업장", "인허가일자": "2015-12-28", "영업상태명": "영업/정상", "도로명전체주소": "경기도 성남시 수정구 수정로 150 (신흥동, 교보빌딩)", "사업장명": "(주)예광실업 성남빌딩", "환경업무구분명": "대기배출업소관리", "업종구분명": null, "종별명": "5종", "주생산품명": null }, "geometry": { "type": "Point", "coordinates": [ 127.136970547975224, 37.4421414331104 ] } },
{ "type": "Feature", "properties": { "fid": 5110, "개방서비스명": "대기오염물질배출시설설치사업장", "인허가일자": "2015-12-14", "영업상태명": "영업/정상", "도로명전체주소": "경기도 성남시 수정구 수정로 157 (태평동, 대생빌딩)", "사업장명": "성남수정새마을금고", "환경업무구분명": "대기배출업소관리", "업종구분명": null, "종별명": "5종", "주생산품명": null }, "geometry": { "type": "Point", "coordinates": [ 127.137552562713196, 37.443007673836064 ] } },
{ "type": "Feature", "properties": { "fid": 5056, "개방서비스명": "대기오염물질배출시설설치사업장", "인허가일자": "2016-09-20", "영업상태명": "영업/정상", "도로명전체주소": "경기도 성남시 중원구 제일로 60, 성남시종합스포츠센터 1층(성남동)", "사업장명": "성남종합스포츠센터", "환경업무구분명": "대기배출업소관리", "업종구분명": "스포츠 서비스업", "종별명": "4종", "주생산품명": null }, "geometry": { "type": "Point", "coordinates": [ 127.138020174882001, 37.432620723547771 ] } },
{ "type": "Feature", "properties": { "fid": 5078, "개방서비스명": "대기오염물질배출시설설치사업장", "인허가일자": "2024-12-27", "영업상태명": "영업/정상", "도로명전체주소": "경기도 성남시 수정구 남문로 108, 태평2동행정복지센터 (태평동)", "사업장명": "태평2동사무소", "환경업무구분명": "대기배출업소관리", "업종구분명": "지방행정 집행기관", "종별명": "5종", "주생산품명": null }, "geometry": { "type": "Point", "coordinates": [ 127.138686536180401, 37.447192948424807 ] } },
{ "type": "Feature", "properties": { "fid": 5075, "개방서비스명": "대기오염물질배출시설설치사업장", "인허가일자": "2021-12-16", "영업상태명": "영업/정상", "도로명전체주소": "경기도 성남시 수정구 수정로171번길 10, 성남아트리움(태평동)", "사업장명": "성남시청(성남아트리움)", "환경업무구분명": "대기배출업소관리", "업종구분명": "기타 일반 공공 행정", "종별명": "4종", "주생산품명": null }, "geometry": { "type": "Point", "coordinates": [ 127.139210040035351, 37.444766293872988 ] } },
{ "type": "Feature", "properties": { "fid": 5092, "개방서비스명": "대기오염물질배출시설설치사업장", "인허가일자": "2021-06-09", "영업상태명": "영업/정상", "도로명전체주소": "경기도 성남시 중원구 원터로17번길 46, 성남시중원도서관 (성남동)", "사업장명": "성남도시개발공사(중원도서관)", "환경업무구분명": "대기배출업소관리", "업종구분명": "사업시설 유지관리 서비스업", "종별명": "5종", "주생산품명": null }, "geometry": { "type": "Point", "coordinates": [ 127.140240722296596, 37.430265574054737 ] } },
{ "type": "Feature", "properties": { "fid": 5097, "개방서비스명": "대기오염물질배출시설설치사업장", "인허가일자": "2021-10-14", "영업상태명": "영업/정상", "도로명전체주소": "경기도 성남시 수정구 수정로 201 (태평동, 신세계쉐덴)", "사업장명": "(주)이마트 성남점", "환경업무구분명": "대기배출업소관리", "업종구분명": "음식점업", "종별명": "5종", "주생산품명": null }, "geometry": { "type": "Point", "coordinates": [ 127.141399567462571, 37.444272666680803 ] } },
{ "type": "Feature", "properties": { "fid": 5093, "개방서비스명": "대기오염물질배출시설설치사업장", "인허가일자": "2023-01-17", "영업상태명": "영업/정상", "도로명전체주소": "경기도 성남시 수정구 수정로 218, 수정구보건소 (신흥동)", "사업장명": "수정구보건소", "환경업무구분명": "대기배출업소관리", "업종구분명": "보건업", "종별명": "4종", "주생산품명": null }, "geometry": { "type": "Point", "coordinates": [ 127.144084825827221, 37.444352502397216 ] } },
{ "type": "Feature", "properties": { "fid": 5142, "개방서비스명": "대기오염물질배출시설설치사업장", "인허가일자": "2018-12-14", "영업상태명": "영업/정상", "도로명전체주소": "경기도 성남시 수정구 수정로171번길 10, 성남시의료원 (태평동)", "사업장명": "성남시의료원", "환경업무구분명": "대기배출업소관리", "업종구분명": "종합 병원", "종별명": "4종", "주생산품명": null }, "geometry": { "type": "Point", "coordinates": [ 127.139210040035351, 37.444766293872988 ] } },
{ "type": "Feature", "properties": { "fid": 5148, "개방서비스명": "대기오염물질배출시설설치사업장", "인허가일자": "1994-08-06", "영업상태명": "영업/정상", "도로명전체주소": "경기도 성남시 수정구 성남대로 1258 (태평동)", "사업장명": "VIP자동차공업사", "환경업무구분명": "대기배출업소관리", "업종구분명": "도장및기타피막처리업", "종별명": "5종", "주생산품명": null }, "geometry": { "type": "Point", "coordinates": [ 127.127849067334225, 37.442004661870108 ] } },
{ "type": "Feature", "properties": { "fid": 5061, "개방서비스명": "대기오염물질배출시설설치사업장", "인허가일자": "2021-01-04", "영업상태명": "영업/정상", "도로명전체주소": "경기도 성남시 분당구 판교로 546(야탑동)", "사업장명": "성남시평생학습관", "환경업무구분명": null, "업종구분명": null, "종별명": null, "주생산품명": null }, "geometry": { "type": "Point", "coordinates": [ 127.134542202539635, 37.404879303634203 ] } },
{ "type": "Feature", "properties": { "fid": 5062, "개방서비스명": "대기오염물질배출시설설치사업장", "인허가일자": "2021-01-11", "영업상태명": "영업/정상", "도로명전체주소": "경기도 성남시 분당구 판교로 546(야탑동)", "사업장명": "성남시도서관사업소", "환경업무구분명": null, "업종구분명": null, "종별명": null, "주생산품명": null }, "geometry": { "type": "Point", "coordinates": [ 127.134542202539635, 37.404879303634203 ] } },
{ "type": "Feature", "properties": { "fid": 5073, "개방서비스명": "대기오염물질배출시설설치사업장", "인허가일자": "2020-07-09", "영업상태명": "영업/정상", "도로명전체주소": "경기도 성남시 분당구 탄천로 247 (야탑동)", "사업장명": "성남시 집단자원화시설", "환경업무구분명": null, "업종구분명": null, "종별명": null, "주생산품명": null }, "geometry": { "type": "Point", "coordinates": [ 127.118876758171638, 37.413481957164258 ] } },
{ "type": "Feature", "properties": { "fid": 5099, "개방서비스명": "대기오염물질배출시설설치사업장", "인허가일자": "2020-06-18", "영업상태명": "영업/정상", "도로명전체주소": "경기도 성남시 분당구 새나리로 25 (야탑동)", "사업장명": "한국전자기술연구원", "환경업무구분명": "대기배출업소관리", "업종구분명": "전기·전자공학 연구개발업", "종별명": "5종", "주생산품명": null }, "geometry": { "type": "Point", "coordinates": [ 127.160853012554284, 37.403862303095806 ] } },
{ "type": "Feature", "properties": { "fid": 5101, "개방서비스명": "대기오염물질배출시설설치사업장", "인허가일자": "2021-12-21", "영업상태명": "영업/정상", "도로명전체주소": "경기도 성남시 중원구 여수대로 182, 서울시도시철도공사모란기지사업소 (여수동)", "사업장명": "서울교통공사(모란차량사업소)", "환경업무구분명": "대기배출업소관리", "업종구분명": "부동산업", "종별명": "5종", "주생산품명": null }, "geometry": { "type": "Point", "coordinates": [ 127.121666656821134, 37.419318522278218 ] } },
{ "type": "Feature", "properties": { "fid": 5106, "개방서비스명": "대기오염물질배출시설설치사업장", "인허가일자": "2015-12-28", "영업상태명": "영업/정상", "도로명전체주소": "경기도 성남시 분당구 야탑로65번길 16 (야탑동, 분당차병원)", "사업장명": "분당차병원(여성병원)", "환경업무구분명": "대기배출업소관리", "업종구분명": null, "종별명": "5종", "주생산품명": null }, "geometry": { "type": "Point", "coordinates": [ 127.126350294272044, 37.411173720146287 ] } },
{ "type": "Feature", "properties": { "fid": 5107, "개방서비스명": "대기오염물질배출시설설치사업장", "인허가일자": "2016-07-04", "영업상태명": "영업/정상", "도로명전체주소": "경기도 성남시 분당구 판교로 700, 제D동 902호 (야탑동, 분당테크노파크)", "사업장명": "인텔릭스(주)", "환경업무구분명": "대기배출업소관리", "업종구분명": "컴퓨터 제조업", "종별명": "5종", "주생산품명": null }, "geometry": { "type": "Point", "coordinates": [ 127.150833184861227, 37.404100673559121 ] } },
{ "type": "Feature", "properties": { "fid": 5109, "개방서비스명": "대기오염물질배출시설설치사업장", "인허가일자": "2015-12-18", "영업상태명": "영업/정상", "도로명전체주소": "경기도 성남시 분당구 탄천로 215 (야탑동, 탄천종합운동장)", "사업장명": "성남도시개발공사", "환경업무구분명": "대기배출업소관리", "업종구분명": null, "종별명": "5종", "주생산품명": null }, "geometry": { "type": "Point", "coordinates": [ 127.120663856159069, 37.410411021854827 ] } },
{ "type": "Feature", "properties": { "fid": 5113, "개방서비스명": "대기오염물질배출시설설치사업장", "인허가일자": "2015-10-21", "영업상태명": "영업/정상", "도로명전체주소": "경기도 성남시 분당구 야탑로81번길 10 (야탑동)", "사업장명": "아미고타워관리단", "환경업무구분명": "대기배출업소관리", "업종구분명": "부동산업", "종별명": "5종", "주생산품명": null }, "geometry": { "type": "Point", "coordinates": [ 127.128198453837911, 37.410888627130717 ] } },
{ "type": "Feature", "properties": { "fid": 5122, "개방서비스명": "대기오염물질배출시설설치사업장", "인허가일자": "2007-05-22", "영업상태명": "영업/정상", "도로명전체주소": "경기도 성남시 분당구 판교로 582 (야탑동)", "사업장명": "현대야탑서비스(주)", "환경업무구분명": "대기배출업소관리", "업종구분명": "도장및기타피막처리업", "종별명": "5종", "주생산품명": null }, "geometry": { "type": "Point", "coordinates": [ 127.137788638173319, 37.407430111189598 ] } },
{ "type": "Feature", "properties": { "fid": 5137, "개방서비스명": "대기오염물질배출시설설치사업장", "인허가일자": "2015-12-28", "영업상태명": "영업/정상", "도로명전체주소": "경기도 성남시 분당구 야탑로 59 (야탑동, 차의과대학교분당차병원)", "사업장명": "분당차병원", "환경업무구분명": "대기배출업소관리", "업종구분명": null, "종별명": "4종", "주생산품명": null }, "geometry": { "type": "Point", "coordinates": [ 127.125249577691037, 37.410249954154807 ] } },
{ "type": "Feature", "properties": { "fid": 5143, "개방서비스명": "대기오염물질배출시설설치사업장", "인허가일자": "2015-12-14", "영업상태명": "영업/정상", "도로명전체주소": "경기도 성남시 분당구 성남대로 808 (야탑동, 성남아트센터)", "사업장명": "재단법인 성남문화재단", "환경업무구분명": "대기배출업소관리", "업종구분명": null, "종별명": "5종", "주생산품명": null }, "geometry": { "type": "Point", "coordinates": [ 127.131534165084418, 37.402623496845649 ] } },
{ "type": "Feature", "properties": { "fid": 5151, "개방서비스명": "대기오염물질배출시설설치사업장", "인허가일자": "2005-04-15", "영업상태명": "영업/정상", "도로명전체주소": "경기도 성남시 분당구 방아로 4 (이매동)", "사업장명": "모터스케이(주)", "환경업무구분명": "대기배출업소관리", "업종구분명": "도장및기타피막처리업", "종별명": "5종", "주생산품명": null }, "geometry": { "type": "Point", "coordinates": [ 127.129449108681882, 37.397794529287701 ] } },
{ "type": "Feature", "properties": { "fid": 5153, "개방서비스명": "대기오염물질배출시설설치사업장", "인허가일자": "2002-03-08", "영업상태명": "영업/정상", "도로명전체주소": "경기도 성남시 분당구 판교로715번길 5 (야탑동)", "사업장명": "현대공업사", "환경업무구분명": "대기배출업소관리", "업종구분명": "도장및기타피막처리업", "종별명": "5종", "주생산품명": null }, "geometry": { "type": "Point", "coordinates": [ 127.152025532632521, 37.405436698225742 ] } },
{ "type": "Feature", "properties": { "fid": 5096, "개방서비스명": "대기오염물질배출시설설치사업장", "인허가일자": "2021-11-17", "영업상태명": "영업/정상", "도로명전체주소": "경기도 성남시 수정구 공원로 360 (신흥동, 두산아파트)", "사업장명": "성남두산아파트입주자대표회의", "환경업무구분명": "대기배출업소관리", "업종구분명": "부동산 임대업", "종별명": "4종", "주생산품명": null }, "geometry": { "type": "Point", "coordinates": [ 127.149528690020801, 37.445002823440092 ] } },
{ "type": "Feature", "properties": { "fid": 5077, "개방서비스명": "대기오염물질배출시설설치사업장", "인허가일자": "2024-12-27", "영업상태명": "영업/정상", "도로명전체주소": "경기도 성남시 수정구 수정남로 261, 산성동행정복지센터 (산성동)", "사업장명": "산성동 행정복지센터", "환경업무구분명": "대기배출업소관리", "업종구분명": "지방행정 집행기관", "종별명": "5종", "주생산품명": null }, "geometry": { "type": "Point", "coordinates": [ 127.150066276683631, 37.452215604570966 ] } },
{ "type": "Feature", "properties": { "fid": 5095, "개방서비스명": "대기오염물질배출시설설치사업장", "인허가일자": "2021-08-06", "영업상태명": "영업/정상", "도로명전체주소": "경기도 성남시 수정구 산성대로 지하 244-1 (신흥동)", "사업장명": "성남도시개발공사(성남중앙지하도상가)", "환경업무구분명": "대기배출업소관리", "업종구분명": "사업시설 유지관리 서비스업", "종별명": "5종", "주생산품명": null }, "geometry": { "type": "Point", "coordinates": [ 127.150444644515844, 37.44339110163498 ] } },
{ "type": "Feature", "properties": { "fid": 5094, "개방서비스명": "대기오염물질배출시설설치사업장", "인허가일자": "2021-09-16", "영업상태명": "영업/정상", "도로명전체주소": "경기도 성남시 수정구 산성대로 341 (신흥동, 한신아파트)", "사업장명": "성남한신아파트입주자대표회의", "환경업무구분명": "대기배출업소관리", "업종구분명": "부동산관련 서비스업", "종별명": "4종", "주생산품명": null }, "geometry": { "type": "Point", "coordinates": [ 127.152040591767374, 37.444828642585975 ] } },
{ "type": "Feature", "properties": { "fid": 5129, "개방서비스명": "대기오염물질배출시설설치사업장", "인허가일자": "2016-01-12", "영업상태명": "영업/정상", "도로명전체주소": "경기도 성남시 수정구 산성대로 331 (신흥동, 한신프라자)", "사업장명": "한신프라자관리단", "환경업무구분명": "대기배출업소관리", "업종구분명": "주차장 운영업", "종별명": "5종", "주생산품명": null }, "geometry": { "type": "Point", "coordinates": [ 127.152747267660061, 37.443782446256947 ] } },
{ "type": "Feature", "properties": { "fid": 5091, "개방서비스명": "대기오염물질배출시설설치사업장", "인허가일자": "2021-06-09", "영업상태명": "영업/정상", "도로명전체주소": "경기도 성남시 수정구 수정로332번길 32, 수정도서관 (산성동)", "사업장명": "성남도시개발공사(수정도서관)", "환경업무구분명": "대기배출업소관리", "업종구분명": "사업시설 유지관리 서비스업", "종별명": "5종", "주생산품명": null }, "geometry": { "type": "Point", "coordinates": [ 127.153488722231401, 37.452183067346176 ] } },
{ "type": "Feature", "properties": { "fid": 5115, "개방서비스명": "대기오염물질배출시설설치사업장", "인허가일자": "2015-12-13", "영업상태명": "영업/정상", "도로명전체주소": "경기도 성남시 수정구 수정로456번길 19 (산성동)", "사업장명": "성남도시개발공사", "환경업무구분명": "대기배출업소관리", "업종구분명": "기타 부동산 임대업", "종별명": "4종", "주생산품명": null }, "geometry": { "type": "Point", "coordinates": [ 127.155573801077665, 37.460568719143744 ] } },
{ "type": "Feature", "properties": { "fid": 5114, "개방서비스명": "대기오염물질배출시설설치사업장", "인허가일자": "2015-12-13", "영업상태명": "영업/정상", "도로명전체주소": "경기도 성남시 중원구 산성대로476번길 12, 성남중앙병원 (금광동)", "사업장명": "(복)양친사회복지회(성남중앙병원)", "환경업무구분명": "대기배출업소관리", "업종구분명": "종합 병원", "종별명": "4종", "주생산품명": null }, "geometry": { "type": "Point", "coordinates": [ 127.162075069936691, 37.452806703250282 ] } },
{ "type": "Feature", "properties": { "fid": 5054, "개방서비스명": "대기오염물질배출시설설치사업장", "인허가일자": "2024-12-30", "영업상태명": "영업/정상", "도로명전체주소": "경기도 성남시 중원구 광명로 328, 금광1동행정복지센터 (금광동)", "사업장명": "금광1동 행정복지센터", "환경업무구분명": "대기배출업소관리", "업종구분명": "지방행정 집행기관", "종별명": "5종", "주생산품명": null }, "geometry": { "type": "Point", "coordinates": [ 127.16238265812845, 37.445116688852664 ] } },
{ "type": "Feature", "properties": { "fid": 5131, "개방서비스명": "대기오염물질배출시설설치사업장", "인허가일자": "2015-12-28", "영업상태명": "영업/정상", "도로명전체주소": "경기도 성남시 수정구 산성대로 553 (양지동, 을지대학교)", "사업장명": "을지대학교", "환경업무구분명": "대기배출업소관리", "업종구분명": null, "종별명": "5종", "주생산품명": null }, "geometry": { "type": "Point", "coordinates": [ 127.16502781783278, 37.460555167456739 ] } },
{ "type": "Feature", "properties": { "fid": 5134, "개방서비스명": "대기오염물질배출시설설치사업장", "인허가일자": "1999-10-12", "영업상태명": "영업/정상", "도로명전체주소": "경기도 성남시 중원구 금빛로69번길 1 (금광동)", "사업장명": "만도공업사", "환경업무구분명": "대기배출업소관리", "업종구분명": "자동차 수리업", "종별명": "5종", "주생산품명": null }, "geometry": { "type": "Point", "coordinates": [ 127.166694063894383, 37.4479476449063 ] } },
{ "type": "Feature", "properties": { "fid": 5119, "개방서비스명": "대기오염물질배출시설설치사업장", "인허가일자": "2004-06-28", "영업상태명": "영업/정상", "도로명전체주소": "경기도 성남시 수정구 산성대로 591 (신흥동)", "사업장명": "명인모터스", "환경업무구분명": "대기배출업소관리", "업종구분명": "자동차 종합 수리업", "종별명": "5종", "주생산품명": null }, "geometry": { "type": "Point", "coordinates": [ 127.168542212111177, 37.462611995771738 ] } },
{ "type": "Feature", "properties": { "fid": 5046, "개방서비스명": "대기오염물질배출시설설치사업장", "인허가일자": "2024-11-20", "영업상태명": "영업/정상", "도로명전체주소": "경기도 성남시 중원구 산성대로552번길 15 (은행동, 은행주공아파트)", "사업장명": "은행주공APT 입주자 대표회의", "환경업무구분명": "대기배출업소관리", "업종구분명": "주거용 부동산 관리업", "종별명": "4종", "주생산품명": null }, "geometry": { "type": "Point", "coordinates": [ 127.169644483926959, 37.459055485876668 ] } },
{ "type": "Feature", "properties": { "fid": 5055, "개방서비스명": "대기오염물질배출시설설치사업장", "인허가일자": "2016-01-05", "영업상태명": "영업/정상", "도로명전체주소": "경기도 성남시 중원구 금상로 137, 노인보건센터,중원구보건소 1층(상대원동)", "사업장명": "중원구보건소", "환경업무구분명": null, "업종구분명": null, "종별명": null, "주생산품명": null }, "geometry": { "type": "Point", "coordinates": [ 127.170610189365107, 37.441970591658745 ] } },
{ "type": "Feature", "properties": { "fid": 5058, "개방서비스명": "대기오염물질배출시설설치사업장", "인허가일자": "2006-06-26", "영업상태명": "영업/정상", "도로명전체주소": null, "사업장명": "(주)제이앤씨마이크로캠", "환경업무구분명": null, "업종구분명": null, "종별명": null, "주생산품명": null }, "geometry": { "type": "Point", "coordinates": [ 127.171633417095236, 37.441925612012639 ] } },
{ "type": "Feature", "properties": { "fid": 5079, "개방서비스명": "대기오염물질배출시설설치사업장", "인허가일자": "2024-12-27", "영업상태명": "영업/정상", "도로명전체주소": "경기도 성남시 중원구 사기막골로 111, 디메드이노베이션타워 (상대원동)", "사업장명": "디메드 유한책임회사", "환경업무구분명": "대기배출업소관리", "업종구분명": "의료용 기기 제조업", "종별명": "5종", "주생산품명": null }, "geometry": { "type": "Point", "coordinates": [ 127.175090393103531, 37.43929795697882 ] } },
{ "type": "Feature", "properties": { "fid": 5139, "개방서비스명": "대기오염물질배출시설설치사업장", "인허가일자": "2025-01-03", "영업상태명": "영업/정상", "도로명전체주소": "경기도 성남시 중원구 은이로7번길 4 (은행동)", "사업장명": "기독교대한성결교회 은행동교회", "환경업무구분명": "대기배출업소관리", "업종구분명": null, "종별명": "5종", "주생산품명": null }, "geometry": { "type": "Point", "coordinates": [ 127.165489403406468, 37.457779907198933 ] } },
{ "type": "Feature", "properties": { "fid": 5146, "개방서비스명": "대기오염물질배출시설설치사업장", "인허가일자": "1999-11-13", "영업상태명": "영업/정상", "도로명전체주소": null, "사업장명": "동경공업사", "환경업무구분명": "대기배출업소관리", "업종구분명": null, "종별명": "5종", "주생산품명": null }, "geometry": { "type": "Point", "coordinates": [ 127.151869091870566, 37.450729757575864 ] } },
{ "type": "Feature", "properties": { "fid": 5147, "개방서비스명": "대기오염물질배출시설설치사업장", "인허가일자": "1994-08-17", "영업상태명": "영업/정상", "도로명전체주소": "경기도 성남시 수정구 수정로 324 (산성동)", "사업장명": "중앙자동차공업사", "환경업무구분명": "대기배출업소관리", "업종구분명": "도장및기타피막처리업", "종별명": "5종", "주생산품명": null }, "geometry": { "type": "Point", "coordinates": [ 127.14994027960266, 37.45244291457044 ] } },
{ "type": "Feature", "properties": { "fid": 5034, "개방서비스명": "대기오염물질배출시설설치사업장", "인허가일자": "2009-04-24", "영업상태명": "영업/정상", "도로명전체주소": "경기도 성남시 중원구 둔촌대로 449 (상대원동,중앙인더스피아 501~503)", "사업장명": "가드너덴버코리아(주)", "환경업무구분명": null, "업종구분명": null, "종별명": null, "주생산품명": null }, "geometry": { "type": "Point", "coordinates": [ 127.167281937158265, 37.4328269578685 ] } },
{ "type": "Feature", "properties": { "fid": 5036, "개방서비스명": "대기오염물질배출시설설치사업장", "인허가일자": "2012-02-06", "영업상태명": "영업/정상", "도로명전체주소": "경기도 성남시 중원구 사기막골로9번길 40 (상대원동,3층)", "사업장명": "(주)유니드엘이디", "환경업무구분명": null, "업종구분명": null, "종별명": null, "주생산품명": null }, "geometry": { "type": "Point", "coordinates": [ 127.167569818167934, 37.436206592264071 ] } },
{ "type": "Feature", "properties": { "fid": 5045, "개방서비스명": "대기오염물질배출시설설치사업장", "인허가일자": "2023-07-20", "영업상태명": "영업/정상", "도로명전체주소": "경기도 성남시 중원구 사기막골로9번길 16 (상대원동)", "사업장명": "(주)삼영에스앤씨 제2공장", "환경업무구분명": "대기배출업소관리", "업종구분명": "그외 기타 전자부품 제조업", "종별명": "5종", "주생산품명": null }, "geometry": { "type": "Point", "coordinates": [ 127.167602789140261, 37.434909655940821 ] } },
{ "type": "Feature", "properties": { "fid": 5076, "개방서비스명": "대기오염물질배출시설설치사업장", "인허가일자": "2022-06-02", "영업상태명": "영업/정상", "도로명전체주소": "경기도 성남시 중원구 사기막골로 18, 자생메디바이오센터(상대원동)", "사업장명": "(주)제이에스디원", "환경업무구분명": "대기배출업소관리", "업종구분명": "비주거용 건물 임대업", "종별명": "4종", "주생산품명": null }, "geometry": { "type": "Point", "coordinates": [ 127.168007364523433, 37.43317550704834 ] } },
{ "type": "Feature", "properties": { "fid": 5089, "개방서비스명": "대기오염물질배출시설설치사업장", "인허가일자": "2000-04-04", "영업상태명": "영업/정상", "도로명전체주소": "경기도 성남시 중원구 사기막골로31번길 18 (상대원동)", "사업장명": "파리크라상㈜", "환경업무구분명": "대기배출업소관리", "업종구분명": "빵류 제조업", "종별명": "3종", "주생산품명": null }, "geometry": { "type": "Point", "coordinates": [ 127.168589148187252, 37.435729916745274 ] } },
{ "type": "Feature", "properties": { "fid": 5083, "개방서비스명": "대기오염물질배출시설설치사업장", "인허가일자": "2018-11-22", "영업상태명": "영업/정상", "도로명전체주소": "경기도 성남시 중원구 둔촌대로457번길 14, (주)서진인스텍 (상대원동)", "사업장명": "(주)에코케이션", "환경업무구분명": null, "업종구분명": null, "종별명": null, "주생산품명": null }, "geometry": { "type": "Point", "coordinates": [ 127.169364139726639, 37.432564454377669 ] } },
{ "type": "Feature", "properties": { "fid": 5043, "개방서비스명": "대기오염물질배출시설설치사업장", "인허가일자": "2018-10-10", "영업상태명": "영업/정상", "도로명전체주소": "경기도 성남시 중원구 사기막골로31번길 4 (상대원동)", "사업장명": "(주)파리크라상 신공장", "환경업무구분명": "대기배출업소관리", "업종구분명": "빵류 제조업", "종별명": "3종", "주생산품명": null }, "geometry": { "type": "Point", "coordinates": [ 127.16942703510226, 37.435175407941216 ] } },
{ "type": "Feature", "properties": { "fid": 5049, "개방서비스명": "대기오염물질배출시설설치사업장", "인허가일자": "2019-08-21", "영업상태명": "영업/정상", "도로명전체주소": "경기도 성남시 중원구 갈마치로281번길 55 (상대원동)", "사업장명": "(주)현대그린푸드 스마트푸드센터", "환경업무구분명": "대기배출업소관리", "업종구분명": "기타 육류 가공 및 저장처리업", "종별명": "4종", "주생산품명": null }, "geometry": { "type": "Point", "coordinates": [ 127.169781945442296, 37.438743894918652 ] } },
{ "type": "Feature", "properties": { "fid": 5081, "개방서비스명": "대기오염물질배출시설설치사업장", "인허가일자": "2018-12-13", "영업상태명": "영업/정상", "도로명전체주소": "경기도 성남시 중원구 사기막골로45번길 14, 성남우림라이온스밸리 B동 B1층 B103호 (상대원동)", "사업장명": "(주)퓨어코스", "환경업무구분명": null, "업종구분명": null, "종별명": null, "주생산품명": null }, "geometry": { "type": "Point", "coordinates": [ 127.170090253532607, 37.436405476306916 ] } },
{ "type": "Feature", "properties": { "fid": 5085, "개방서비스명": "대기오염물질배출시설설치사업장", "인허가일자": "2018-01-01", "영업상태명": "영업/정상", "도로명전체주소": "경기도 성남시 중원구 둔촌대로457번길 27, 성남우림라이온스밸리 (상대원동)", "사업장명": "(주)아쿠아렉스", "환경업무구분명": null, "업종구분명": null, "종별명": null, "주생산품명": null }, "geometry": { "type": "Point", "coordinates": [ 127.170138175177684, 37.433894802111176 ] } },
{ "type": "Feature", "properties": { "fid": 5082, "개방서비스명": "대기오염물질배출시설설치사업장", "인허가일자": "2018-11-26", "영업상태명": "영업/정상", "도로명전체주소": "경기도 성남시 중원구 둔촌대로 484 (상대원동)", "사업장명": "(주)에스알바이오텍", "환경업무구분명": null, "업종구분명": null, "종별명": null, "주생산품명": null }, "geometry": { "type": "Point", "coordinates": [ 127.170648309273318, 37.431121959458864 ] } },
{ "type": "Feature", "properties": { "fid": 5048, "개방서비스명": "대기오염물질배출시설설치사업장", "인허가일자": "2016-08-17", "영업상태명": "영업/정상", "도로명전체주소": "경기도 성남시 중원구 둔촌대로457번길 26, 국제종합기계(주) (상대원동)", "사업장명": "그리스한솔", "환경업무구분명": null, "업종구분명": null, "종별명": null, "주생산품명": null }, "geometry": { "type": "Point", "coordinates": [ 127.170657148065672, 37.432541723570971 ] } },
{ "type": "Feature", "properties": { "fid": 5042, "개방서비스명": "대기오염물질배출시설설치사업장", "인허가일자": "2024-07-23", "영업상태명": "영업/정상", "도로명전체주소": "경기도 성남시 중원구 사기막골로 52, 선택시티2 1층 107호 (상대원동)", "사업장명": "(주)베터리얼 제2공장", "환경업무구분명": "대기배출업소관리", "업종구분명": "전기용 탄소제품 및 절연제품 제조업", "종별명": "5종", "주생산품명": null }, "geometry": { "type": "Point", "coordinates": [ 127.170890780652329, 37.434777166072223 ] } },
{ "type": "Feature", "properties": { "fid": 5041, "개방서비스명": "대기오염물질배출시설설치사업장", "인허가일자": "2024-06-13", "영업상태명": "영업/정상", "도로명전체주소": "경기도 성남시 중원구 사기막골로 52, 선택시티2 401호 (상대원동)", "사업장명": "(주)베터리얼", "환경업무구분명": "대기배출업소관리", "업종구분명": "전기용 탄소제품 및 절연제품 제조업", "종별명": "5종", "주생산품명": null }, "geometry": { "type": "Point", "coordinates": [ 127.170890780652329, 37.434777166072223 ] } },
{ "type": "Feature", "properties": { "fid": 5059, "개방서비스명": "대기오염물질배출시설설치사업장", "인허가일자": "2009-01-23", "영업상태명": "영업/정상", "도로명전체주소": "경기도 성남시 중원구 사기막골로 52 (상대원동,선텍시티Ⅱ 5층)", "사업장명": "(주)평화이엔지 성남지점", "환경업무구분명": null, "업종구분명": null, "종별명": null, "주생산품명": null }, "geometry": { "type": "Point", "coordinates": [ 127.170890780652329, 37.434777166072223 ] } },
{ "type": "Feature", "properties": { "fid": 5070, "개방서비스명": "대기오염물질배출시설설치사업장", "인허가일자": "2019-12-23", "영업상태명": "영업/정상", "도로명전체주소": "경기도 성남시 중원구 사기막골로 52 (상대원동)", "사업장명": "(주)씨앤아이티", "환경업무구분명": "대기배출업소관리", "업종구분명": "그외 기타 전자부품 제조업", "종별명": "5종", "주생산품명": null }, "geometry": { "type": "Point", "coordinates": [ 127.170890780652329, 37.434777166072223 ] } },
{ "type": "Feature", "properties": { "fid": 5067, "개방서비스명": "대기오염물질배출시설설치사업장", "인허가일자": "2018-01-01", "영업상태명": "영업/정상", "도로명전체주소": "경기도 성남시 중원구 둔촌대로457번길 33, 경남알미늄 (상대원동)", "사업장명": "(주)파리크라상 제3공장", "환경업무구분명": null, "업종구분명": null, "종별명": null, "주생산품명": null }, "geometry": { "type": "Point", "coordinates": [ 127.171472663384876, 37.43423668282459 ] } },
{ "type": "Feature", "properties": { "fid": 5033, "개방서비스명": "대기오염물질배출시설설치사업장", "인허가일자": "2004-08-19", "영업상태명": "영업/정상", "도로명전체주소": "경기도 성남시 중원구 둔촌대로 494 (상대원동)", "사업장명": "월드맥스", "환경업무구분명": null, "업종구분명": null, "종별명": null, "주생산품명": null }, "geometry": { "type": "Point", "coordinates": [ 127.172001572605893, 37.431052834471267 ] } },
{ "type": "Feature", "properties": { "fid": 5040, "개방서비스명": "대기오염물질배출시설설치사업장", "인허가일자": "2019-11-25", "영업상태명": "영업/정상", "도로명전체주소": "경기도 성남시 중원구 사기막골로62번길 4 (상대원동)", "사업장명": "(주)생잎제약", "환경업무구분명": null, "업종구분명": null, "종별명": null, "주생산품명": null }, "geometry": { "type": "Point", "coordinates": [ 127.172374208523905, 37.435193816084833 ] } },
{ "type": "Feature", "properties": { "fid": 5037, "개방서비스명": "대기오염물질배출시설설치사업장", "인허가일자": "1991-01-01", "영업상태명": "영업/정상", "도로명전체주소": "경기도 성남시 중원구 둔촌대로 516 (상대원동)", "사업장명": "(주)HST", "환경업무구분명": null, "업종구분명": null, "종별명": null, "주생산품명": null }, "geometry": { "type": "Point", "coordinates": [ 127.173454026742306, 37.430948186655506 ] } },
{ "type": "Feature", "properties": { "fid": 5044, "개방서비스명": "대기오염물질배출시설설치사업장", "인허가일자": "2017-06-01", "영업상태명": "영업/정상", "도로명전체주소": "경기도 성남시 중원구 둔촌대로 509, 코어세스성남공장 (상대원동)", "사업장명": "(주)대유플러스", "환경업무구분명": null, "업종구분명": null, "종별명": null, "주생산품명": null }, "geometry": { "type": "Point", "coordinates": [ 127.173489258555875, 37.431857906347162 ] } },
{ "type": "Feature", "properties": { "fid": 5086, "개방서비스명": "대기오염물질배출시설설치사업장", "인허가일자": "2008-07-24", "영업상태명": "영업/정상", "도로명전체주소": "경기도 성남시 중원구 갈마치로 234, SK아파트형공장 (상대원동)", "사업장명": "㈜새한마이크로텍 성남지사", "환경업무구분명": null, "업종구분명": null, "종별명": null, "주생산품명": null }, "geometry": { "type": "Point", "coordinates": [ 127.174434465742749, 37.435266110105673 ] } },
{ "type": "Feature", "properties": { "fid": 5064, "개방서비스명": "대기오염물질배출시설설치사업장", "인허가일자": "1984-01-16", "영업상태명": "영업/정상", "도로명전체주소": "경기도 성남시 중원구 갈마치로 244, (주)대웅제약 (상대원동)", "사업장명": "대웅제약㈜", "환경업무구분명": null, "업종구분명": null, "종별명": null, "주생산품명": null }, "geometry": { "type": "Point", "coordinates": [ 127.174768099639607, 37.436448735826922 ] } },
{ "type": "Feature", "properties": { "fid": 5053, "개방서비스명": "대기오염물질배출시설설치사업장", "인허가일자": "2023-03-14", "영업상태명": "영업/정상", "도로명전체주소": "경기도 성남시 중원구 갈마치로 244, (주)대웅제약(상대원동)", "사업장명": "(주)시지바이오", "환경업무구분명": "대기배출업소관리", "업종구분명": "의료용 물질 및 의약품 제조업", "종별명": "5종", "주생산품명": null }, "geometry": { "type": "Point", "coordinates": [ 127.174768099639607, 37.436448735826922 ] } },
{ "type": "Feature", "properties": { "fid": 5038, "개방서비스명": "대기오염물질배출시설설치사업장", "인허가일자": "2017-04-24", "영업상태명": "영업/정상", "도로명전체주소": "경기도 성남시 중원구 둔촌대로526번길 4 (상대원동)", "사업장명": "(주)동원가구", "환경업무구분명": null, "업종구분명": null, "종별명": null, "주생산품명": null }, "geometry": { "type": "Point", "coordinates": [ 127.174944726424812, 37.430821880022762 ] } },
{ "type": "Feature", "properties": { "fid": 5080, "개방서비스명": "대기오염물질배출시설설치사업장", "인허가일자": "2020-06-25", "영업상태명": "영업/정상", "도로명전체주소": "경기도 성남시 중원구 갈마치로244번길 15 (상대원동)", "사업장명": "(주)에스피씨삼립 성남2공장", "환경업무구분명": null, "업종구분명": null, "종별명": null, "주생산품명": null }, "geometry": { "type": "Point", "coordinates": [ 127.175893849163003, 37.436326287712014 ] } },
{ "type": "Feature", "properties": { "fid": 5032, "개방서비스명": "대기오염물질배출시설설치사업장", "인허가일자": "1999-01-01", "영업상태명": "영업/정상", "도로명전체주소": "경기도 성남시 중원구 둔촌대로526번길 9 (상대원동)", "사업장명": "평안산업", "환경업무구분명": null, "업종구분명": null, "종별명": null, "주생산품명": null }, "geometry": { "type": "Point", "coordinates": [ 127.175969142109892, 37.430432133347544 ] } },
{ "type": "Feature", "properties": { "fid": 5052, "개방서비스명": "대기오염물질배출시설설치사업장", "인허가일자": "2023-02-24", "영업상태명": "영업/정상", "도로명전체주소": "경기도 성남시 중원구 둔촌대로541번길 13(상대원동)", "사업장명": "건우그라스", "환경업무구분명": "대기배출업소관리", "업종구분명": "판유리 제조업", "종별명": "5종", "주생산품명": null }, "geometry": { "type": "Point", "coordinates": [ 127.176048618055844, 37.433017373947358 ] } },
{ "type": "Feature", "properties": { "fid": 5039, "개방서비스명": "대기오염물질배출시설설치사업장", "인허가일자": "2014-01-07", "영업상태명": "영업/정상", "도로명전체주소": "경기도 성남시 중원구 둔촌대로541번길 13 (상대원동)", "사업장명": "(주)창의씨엔지", "환경업무구분명": null, "업종구분명": null, "종별명": null, "주생산품명": null }, "geometry": { "type": "Point", "coordinates": [ 127.176048618055844, 37.433017373947358 ] } },
{ "type": "Feature", "properties": { "fid": 4954, "개방서비스명": "대기오염물질배출시설설치사업장", "인허가일자": "2004-03-05", "영업상태명": "영업/정상", "도로명전체주소": "경기도 성남시 중원구 사기막골로 149, 동방전자산업(주) (상대원동)", "사업장명": "존슨컨트롤즈인터내셔널코리아(주) (구.동방전자산업(주))", "환경업무구분명": null, "업종구분명": null, "종별명": null, "주생산품명": null }, "geometry": { "type": "Point", "coordinates": [ 127.177065172771648, 37.442393374723252 ] } },
{ "type": "Feature", "properties": { "fid": 5021, "개방서비스명": "대기오염물질배출시설설치사업장", "인허가일자": "2004-03-05", "영업상태명": "영업/정상", "도로명전체주소": "경기도 성남시 중원구 사기막골로 149, 동방전자산업(주) (상대원동)", "사업장명": "존슨콘트롤즈인터내셔널코리아(주) 성남지점", "환경업무구분명": null, "업종구분명": null, "종별명": null, "주생산품명": null }, "geometry": { "type": "Point", "coordinates": [ 127.177065172771648, 37.442393374723252 ] } },
{ "type": "Feature", "properties": { "fid": 4953, "개방서비스명": "대기오염물질배출시설설치사업장", "인허가일자": "2017-10-24", "영업상태명": "영업/정상", "도로명전체주소": "경기도 성남시 중원구 사기막골로 124 (상대원동)", "사업장명": "㈜휴벡셀", "환경업무구분명": null, "업종구분명": null, "종별명": null, "주생산품명": null }, "geometry": { "type": "Point", "coordinates": [ 127.177716347728719, 37.440030888345198 ] } },
{ "type": "Feature", "properties": { "fid": 4972, "개방서비스명": "대기오염물질배출시설설치사업장", "인허가일자": "2018-01-01", "영업상태명": "영업/정상", "도로명전체주소": "경기도 성남시 중원구 사기막골로 124, 203호 (상대원동)", "사업장명": "화코스텍(주)", "환경업무구분명": null, "업종구분명": null, "종별명": null, "주생산품명": null }, "geometry": { "type": "Point", "coordinates": [ 127.177716347728719, 37.440030888345198 ] } },
{ "type": "Feature", "properties": { "fid": 5026, "개방서비스명": "대기오염물질배출시설설치사업장", "인허가일자": "2013-03-12", "영업상태명": "영업/정상", "도로명전체주소": "경기도 성남시 중원구 사기막골로 124 (상대원동)", "사업장명": "(주)계성인더스트리", "환경업무구분명": null, "업종구분명": null, "종별명": null, "주생산품명": null }, "geometry": { "type": "Point", "coordinates": [ 127.177716347728719, 37.440030888345198 ] } },
{ "type": "Feature", "properties": { "fid": 4973, "개방서비스명": "대기오염물질배출시설설치사업장", "인허가일자": "2018-01-01", "영업상태명": "영업/정상", "도로명전체주소": "경기도 성남시 중원구 사기막골로 124, 101~105호 (상대원동)", "사업장명": "(주)휴벡셀", "환경업무구분명": null, "업종구분명": null, "종별명": null, "주생산품명": null }, "geometry": { "type": "Point", "coordinates": [ 127.177716347728719, 37.440030888345198 ] } },
{ "type": "Feature", "properties": { "fid": 4949, "개방서비스명": "대기오염물질배출시설설치사업장", "인허가일자": "2016-09-05", "영업상태명": "영업/정상", "도로명전체주소": "경기도 성남시 중원구 사기막골로 164 (상대원동)", "사업장명": "㈜형지에스콰이아", "환경업무구분명": null, "업종구분명": null, "종별명": null, "주생산품명": null }, "geometry": { "type": "Point", "coordinates": [ 127.177926669665069, 37.443158820440601 ] } },
{ "type": "Feature", "properties": { "fid": 4971, "개방서비스명": "대기오염물질배출시설설치사업장", "인허가일자": "2018-01-01", "영업상태명": "영업/정상", "도로명전체주소": "경기도 성남시 중원구 사기막골로 177, 금강하이테크밸리 (상대원동)", "사업장명": "(주)아로마티카", "환경업무구분명": null, "업종구분명": null, "종별명": null, "주생산품명": null }, "geometry": { "type": "Point", "coordinates": [ 127.178018173504654, 37.444469431946537 ] } },
{ "type": "Feature", "properties": { "fid": 5014, "개방서비스명": "대기오염물질배출시설설치사업장", "인허가일자": "2001-11-23", "영업상태명": "영업/정상", "도로명전체주소": "경기도 성남시 중원구 순환로 242 (상대원동)", "사업장명": "성남시내버스(주) 정비사업부", "환경업무구분명": "대기배출업소관리", "업종구분명": "시내버스 운송업", "종별명": "5종", "주생산품명": null }, "geometry": { "type": "Point", "coordinates": [ 127.179214158508515, 37.445421814898609 ] } },
{ "type": "Feature", "properties": { "fid": 4967, "개방서비스명": "대기오염물질배출시설설치사업장", "인허가일자": "1901-01-01", "영업상태명": "영업/정상", "도로명전체주소": "경기도 성남시 중원구 순환로 192 (상대원동)", "사업장명": "일성카", "환경업무구분명": null, "업종구분명": null, "종별명": null, "주생산품명": null }, "geometry": { "type": "Point", "coordinates": [ 127.179393500250711, 37.440884164626297 ] } },
{ "type": "Feature", "properties": { "fid": 5013, "개방서비스명": "대기오염물질배출시설설치사업장", "인허가일자": "2019-03-14", "영업상태명": "영업/정상", "도로명전체주소": "경기도 성남시 중원구 순환로 204, 수안빌딩 (상대원동)", "사업장명": "(주)수안향장", "환경업무구분명": null, "업종구분명": null, "종별명": null, "주생산품명": null }, "geometry": { "type": "Point", "coordinates": [ 127.179558154964369, 37.441990801207439 ] } },
{ "type": "Feature", "properties": { "fid": 4952, "개방서비스명": "대기오염물질배출시설설치사업장", "인허가일자": "2015-12-28", "영업상태명": "영업/정상", "도로명전체주소": "경기도 성남시 중원구 순환로 222, (주)크린토피아성남공장 (상대원동)", "사업장명": "㈜크린토피아", "환경업무구분명": null, "업종구분명": null, "종별명": null, "주생산품명": null }, "geometry": { "type": "Point", "coordinates": [ 127.179588030308963, 37.443580358805448 ] } },
{ "type": "Feature", "properties": { "fid": 4955, "개방서비스명": "대기오염물질배출시설설치사업장", "인허가일자": "2018-01-01", "영업상태명": "영업/정상", "도로명전체주소": "경기도 성남시 중원구 순환로 222, (주)크린토피아성남공장 (상대원동)", "사업장명": "(주)크린토피아", "환경업무구분명": null, "업종구분명": null, "종별명": null, "주생산품명": null }, "geometry": { "type": "Point", "coordinates": [ 127.179588030308963, 37.443580358805448 ] } },
{ "type": "Feature", "properties": { "fid": 5015, "개방서비스명": "대기오염물질배출시설설치사업장", "인허가일자": "1993-05-19", "영업상태명": "영업/정상", "도로명전체주소": "경기도 성남시 중원구 순환로198번길 8 (상대원동, 쌍용자동차 성남정비사업소)", "사업장명": "케이지모빌리티성남서비스센터(주)", "환경업무구분명": "대기배출업소관리", "업종구분명": "도장및기타피막처리업", "종별명": "4종", "주생산품명": null }, "geometry": { "type": "Point", "coordinates": [ 127.179728848637993, 37.441177220398622 ] } },
{ "type": "Feature", "properties": { "fid": 5020, "개방서비스명": "대기오염물질배출시설설치사업장", "인허가일자": "2019-01-01", "영업상태명": "영업/정상", "도로명전체주소": "경기도 성남시 중원구 순환로198번길 7(상대원동)", "사업장명": "(주)화인화장품제2공장", "환경업무구분명": null, "업종구분명": null, "종별명": null, "주생산품명": null }, "geometry": { "type": "Point", "coordinates": [ 127.180068259165168, 37.441672210898119 ] } },
{ "type": "Feature", "properties": { "fid": 5027, "개방서비스명": "대기오염물질배출시설설치사업장", "인허가일자": "2012-05-31", "영업상태명": "영업/정상", "도로명전체주소": "경기도 성남시 중원구 순환로198번길 19 (상대원동)", "사업장명": "(주)화인화장품", "환경업무구분명": null, "업종구분명": null, "종별명": null, "주생산품명": null }, "geometry": { "type": "Point", "coordinates": [ 127.180132572316481, 37.442293574227868 ] } },
{ "type": "Feature", "properties": { "fid": 5006, "개방서비스명": "대기오염물질배출시설설치사업장", "인허가일자": "2007-09-17", "영업상태명": "영업/정상", "도로명전체주소": "경기도 성남시 중원구 순환로214번길 11 (상대원동)", "사업장명": "(주)중앙금속", "환경업무구분명": "대기배출업소관리", "업종구분명": "기타 비철금속 주조업", "종별명": "5종", "주생산품명": null }, "geometry": { "type": "Point", "coordinates": [ 127.180629330133272, 37.443079673406679 ] } },
{ "type": "Feature", "properties": { "fid": 5030, "개방서비스명": "대기오염물질배출시설설치사업장", "인허가일자": "2013-06-04", "영업상태명": "영업/정상", "도로명전체주소": "경기도 성남시 중원구 순환로226번길 22 (상대원동)", "사업장명": "(주)일진커뮤테이터", "환경업무구분명": "대기배출업소관리", "업종구분명": "전동기 및 발전기 제조업", "종별명": "3종", "주생산품명": null }, "geometry": { "type": "Point", "coordinates": [ 127.181025907049928, 37.443540054484423 ] } },
{ "type": "Feature", "properties": { "fid": 4968, "개방서비스명": "대기오염물질배출시설설치사업장", "인허가일자": "2020-05-04", "영업상태명": "영업/정상", "도로명전체주소": "경기도 성남시 중원구 둔촌대로541번길 60, 조선일보(주)일광 (상대원동)", "사업장명": "조선일보사 성남공장", "환경업무구분명": null, "업종구분명": null, "종별명": null, "주생산품명": null }, "geometry": { "type": "Point", "coordinates": [ 127.176951082561558, 37.437355026685601 ] } },
{ "type": "Feature", "properties": { "fid": 5018, "개방서비스명": "대기오염물질배출시설설치사업장", "인허가일자": "2024-12-27", "영업상태명": "영업/정상", "도로명전체주소": "경기도 성남시 중원구 둔촌대로 544 (상대원동)", "사업장명": "(주)여의시스템", "환경업무구분명": "대기배출업소관리", "업종구분명": "컴퓨터 제조업", "종별명": "5종", "주생산품명": null }, "geometry": { "type": "Point", "coordinates": [ 127.177179090310261, 37.430961337180022 ] } },
{ "type": "Feature", "properties": { "fid": 4969, "개방서비스명": "대기오염물질배출시설설치사업장", "인허가일자": "2010-01-11", "영업상태명": "영업/정상", "도로명전체주소": "경기도 성남시 중원구 갈마치로244번길 31, 현대아이밸리 (상대원동)", "사업장명": "㈜새한마이크로텍 성남지사 2공장", "환경업무구분명": null, "업종구분명": null, "종별명": null, "주생산품명": null }, "geometry": { "type": "Point", "coordinates": [ 127.177247294222056, 37.436484361319039 ] } },
{ "type": "Feature", "properties": { "fid": 5012, "개방서비스명": "대기오염물질배출시설설치사업장", "인허가일자": "2019-05-03", "영업상태명": "영업/정상", "도로명전체주소": "경기도 성남시 중원구 둔촌대로 545, 한라시그마밸리 (상대원동)", "사업장명": "(주)에이프로젠", "환경업무구분명": null, "업종구분명": null, "종별명": null, "주생산품명": null }, "geometry": { "type": "Point", "coordinates": [ 127.177385194371652, 37.432035873658478 ] } },
{ "type": "Feature", "properties": { "fid": 4959, "개방서비스명": "대기오염물질배출시설설치사업장", "인허가일자": "2018-05-14", "영업상태명": "영업/정상", "도로명전체주소": "경기도 성남시 중원구 둔촌대로 545 (상대원동)", "사업장명": "한솔생명과학(주)", "환경업무구분명": "대기배출업소관리", "업종구분명": "화장품 제조업", "종별명": "5종", "주생산품명": "화장품" }, "geometry": { "type": "Point", "coordinates": [ 127.177385194371652, 37.432035873658478 ] } },
{ "type": "Feature", "properties": { "fid": 4951, "개방서비스명": "대기오염물질배출시설설치사업장", "인허가일자": "2011-06-21", "영업상태명": "영업/정상", "도로명전체주소": "경기도 성남시 중원구 사기막골로90번길 36 (상대원동)", "사업장명": "거성아트 2공장", "환경업무구분명": null, "업종구분명": null, "종별명": null, "주생산품명": null }, "geometry": { "type": "Point", "coordinates": [ 127.177636035188144, 37.43738179535454 ] } },
{ "type": "Feature", "properties": { "fid": 5011, "개방서비스명": "대기오염물질배출시설설치사업장", "인허가일자": "2019-01-15", "영업상태명": "영업/정상", "도로명전체주소": "경기도 성남시 중원구 순환로 165, 포스테크노 714호 (상대원동)", "사업장명": "한국엘림텍탄시스템", "환경업무구분명": null, "업종구분명": null, "종별명": null, "주생산품명": null }, "geometry": { "type": "Point", "coordinates": [ 127.17789710391807, 37.438431615827625 ] } },
{ "type": "Feature", "properties": { "fid": 5016, "개방서비스명": "대기오염물질배출시설설치사업장", "인허가일자": "2012-08-22", "영업상태명": "영업/정상", "도로명전체주소": "경기도 성남시 중원구 순환로 165 (상대원동)", "사업장명": "태화(JEWELRY)", "환경업무구분명": null, "업종구분명": null, "종별명": null, "주생산품명": null }, "geometry": { "type": "Point", "coordinates": [ 127.17789710391807, 37.438431615827625 ] } },
{ "type": "Feature", "properties": { "fid": 5017, "개방서비스명": "대기오염물질배출시설설치사업장", "인허가일자": "2008-12-04", "영업상태명": "영업/정상", "도로명전체주소": "경기도 성남시 중원구 순환로 165 (상대원동,포스테크노 807)", "사업장명": "이레골드", "환경업무구분명": null, "업종구분명": null, "종별명": null, "주생산품명": null }, "geometry": { "type": "Point", "coordinates": [ 127.17789710391807, 37.438431615827625 ] } },
{ "type": "Feature", "properties": { "fid": 5023, "개방서비스명": "대기오염물질배출시설설치사업장", "인허가일자": "2012-08-20", "영업상태명": "영업/정상", "도로명전체주소": "경기도 성남시 중원구 순환로 165 (상대원동)", "사업장명": "협신금속", "환경업무구분명": null, "업종구분명": null, "종별명": null, "주생산품명": null }, "geometry": { "type": "Point", "coordinates": [ 127.17789710391807, 37.438431615827625 ] } },
{ "type": "Feature", "properties": { "fid": 5024, "개방서비스명": "대기오염물질배출시설설치사업장", "인허가일자": "2013-02-26", "영업상태명": "영업/정상", "도로명전체주소": "경기도 성남시 중원구 순환로 165 (상대원동)", "사업장명": "에스비더블유생명과학(주) 성남지점", "환경업무구분명": "대기배출업소관리", "업종구분명": "전자집적회로 제조업", "종별명": "5종", "주생산품명": null }, "geometry": { "type": "Point", "coordinates": [ 127.17789710391807, 37.438431615827625 ] } },
{ "type": "Feature", "properties": { "fid": 5025, "개방서비스명": "대기오염물질배출시설설치사업장", "인허가일자": "2007-08-28", "영업상태명": "영업/정상", "도로명전체주소": "경기도 성남시 중원구 순환로 165 (상대원동,포스테크노 814호)", "사업장명": "엠에스테크", "환경업무구분명": null, "업종구분명": null, "종별명": null, "주생산품명": null }, "geometry": { "type": "Point", "coordinates": [ 127.17789710391807, 37.438431615827625 ] } },
{ "type": "Feature", "properties": { "fid": 5029, "개방서비스명": "대기오염물질배출시설설치사업장", "인허가일자": "1999-03-04", "영업상태명": "영업/정상", "도로명전체주소": "경기도 성남시 중원구 순환로 165, 포스테크노 817호 (상대원동)", "사업장명": "서일기업", "환경업무구분명": null, "업종구분명": null, "종별명": null, "주생산품명": null }, "geometry": { "type": "Point", "coordinates": [ 127.17789710391807, 37.438431615827625 ] } },
{ "type": "Feature", "properties": { "fid": 5022, "개방서비스명": "대기오염물질배출시설설치사업장", "인허가일자": "2007-01-23", "영업상태명": "영업/정상", "도로명전체주소": "경기도 성남시 중원구 순환로 165 (상대원동,포스테크노 816호)", "사업장명": "(주)엠디티 제2공장", "환경업무구분명": null, "업종구분명": null, "종별명": null, "주생산품명": null }, "geometry": { "type": "Point", "coordinates": [ 127.17789710391807, 37.438431615827625 ] } },
{ "type": "Feature", "properties": { "fid": 5031, "개방서비스명": "대기오염물질배출시설설치사업장", "인허가일자": "2013-06-20", "영업상태명": "영업/정상", "도로명전체주소": "경기도 성남시 중원구 순환로 165 (상대원동)", "사업장명": "(주)금란쥬얼리", "환경업무구분명": "대기배출업소관리", "업종구분명": "도금업", "종별명": "4종", "주생산품명": null }, "geometry": { "type": "Point", "coordinates": [ 127.17789710391807, 37.438431615827625 ] } },
{ "type": "Feature", "properties": { "fid": 5008, "개방서비스명": "대기오염물질배출시설설치사업장", "인허가일자": "2018-01-09", "영업상태명": "영업/정상", "도로명전체주소": "경기도 성남시 중원구 순환로 165, 포스테크노 807호 (상대원동)", "사업장명": "에코텍", "환경업무구분명": "대기배출업소관리", "업종구분명": "금속원료 재생업", "종별명": "5종", "주생산품명": null }, "geometry": { "type": "Point", "coordinates": [ 127.17789710391807, 37.438431615827625 ] } },
{ "type": "Feature", "properties": { "fid": 5007, "개방서비스명": "대기오염물질배출시설설치사업장", "인허가일자": "2011-08-29", "영업상태명": "영업/정상", "도로명전체주소": "경기도 성남시 중원구 순환로 165 (상대원동,포스테크노 817호)", "사업장명": "경기칼라", "환경업무구분명": null, "업종구분명": null, "종별명": null, "주생산품명": null }, "geometry": { "type": "Point", "coordinates": [ 127.17789710391807, 37.438431615827625 ] } },
{ "type": "Feature", "properties": { "fid": 4961, "개방서비스명": "대기오염물질배출시설설치사업장", "인허가일자": "2017-04-10", "영업상태명": "영업/정상", "도로명전체주소": "경기도 성남시 중원구 순환로 165, 포스테크노 8층 804호 (상대원동)", "사업장명": "한비텍", "환경업무구분명": null, "업종구분명": null, "종별명": null, "주생산품명": null }, "geometry": { "type": "Point", "coordinates": [ 127.17789710391807, 37.438431615827625 ] } },
{ "type": "Feature", "properties": { "fid": 4960, "개방서비스명": "대기오염물질배출시설설치사업장", "인허가일자": "2019-08-12", "영업상태명": "영업/정상", "도로명전체주소": "경기도 성남시 중원구 순환로 165, 포스테크노 8층 816호 (상대원동)", "사업장명": "광일금속", "환경업무구분명": null, "업종구분명": null, "종별명": null, "주생산품명": null }, "geometry": { "type": "Point", "coordinates": [ 127.17789710391807, 37.438431615827625 ] } },
{ "type": "Feature", "properties": { "fid": 5009, "개방서비스명": "대기오염물질배출시설설치사업장", "인허가일자": "2007-01-23", "영업상태명": "영업/정상", "도로명전체주소": "경기도 성남시 중원구 순환로 165 (상대원동,포스테크노 820)", "사업장명": "대성금속", "환경업무구분명": null, "업종구분명": null, "종별명": null, "주생산품명": null }, "geometry": { "type": "Point", "coordinates": [ 127.17789710391807, 37.438431615827625 ] } },
{ "type": "Feature", "properties": { "fid": 4958, "개방서비스명": "대기오염물질배출시설설치사업장", "인허가일자": "2018-01-01", "영업상태명": "영업/정상", "도로명전체주소": "경기도 성남시 중원구 순환로 165, 포스테크노 821호 (상대원동)", "사업장명": "성주금속", "환경업무구분명": null, "업종구분명": null, "종별명": null, "주생산품명": null }, "geometry": { "type": "Point", "coordinates": [ 127.17789710391807, 37.438431615827625 ] } },
{ "type": "Feature", "properties": { "fid": 4957, "개방서비스명": "대기오염물질배출시설설치사업장", "인허가일자": "2018-01-01", "영업상태명": "영업/정상", "도로명전체주소": "경기도 성남시 중원구 순환로 165, 포스테크노 808호 (상대원동)", "사업장명": "신진금속", "환경업무구분명": null, "업종구분명": null, "종별명": null, "주생산품명": null }, "geometry": { "type": "Point", "coordinates": [ 127.17789710391807, 37.438431615827625 ] } },
{ "type": "Feature", "properties": { "fid": 4956, "개방서비스명": "대기오염물질배출시설설치사업장", "인허가일자": "2018-01-01", "영업상태명": "영업/정상", "도로명전체주소": "경기도 성남시 중원구 순환로 165, 포스테크노 803호 (상대원동)", "사업장명": "한백", "환경업무구분명": "대기배출업소관리", "업종구분명": "도금업", "종별명": "5종", "주생산품명": null }, "geometry": { "type": "Point", "coordinates": [ 127.17789710391807, 37.438431615827625 ] } },
{ "type": "Feature", "properties": { "fid": 4950, "개방서비스명": "대기오염물질배출시설설치사업장", "인허가일자": "2010-07-12", "영업상태명": "영업/정상", "도로명전체주소": "경기도 성남시 중원구 순환로 165, 포스테크노 (상대원동)", "사업장명": "엡실론㈜", "환경업무구분명": null, "업종구분명": null, "종별명": null, "주생산품명": null }, "geometry": { "type": "Point", "coordinates": [ 127.17789710391807, 37.438431615827625 ] } },
{ "type": "Feature", "properties": { "fid": 4970, "개방서비스명": "대기오염물질배출시설설치사업장", "인허가일자": "2018-01-01", "영업상태명": "영업/정상", "도로명전체주소": "경기도 성남시 중원구 순환로 165, 포스테크노 801~802호 (상대원동)", "사업장명": "에스제이티글로벌(주)", "환경업무구분명": null, "업종구분명": null, "종별명": null, "주생산품명": null }, "geometry": { "type": "Point", "coordinates": [ 127.17789710391807, 37.438431615827625 ] } },
{ "type": "Feature", "properties": { "fid": 4948, "개방서비스명": "대기오염물질배출시설설치사업장", "인허가일자": "2006-05-26", "영업상태명": "영업/정상", "도로명전체주소": "경기도 성남시 중원구 순환로 165, 포스테크노 (상대원동)", "사업장명": "성도금속", "환경업무구분명": null, "업종구분명": null, "종별명": null, "주생산품명": null }, "geometry": { "type": "Point", "coordinates": [ 127.17789710391807, 37.438431615827625 ] } },
{ "type": "Feature", "properties": { "fid": 4963, "개방서비스명": "대기오염물질배출시설설치사업장", "인허가일자": "2012-08-17", "영업상태명": "영업/정상", "도로명전체주소": "경기도 성남시 중원구 순환로 165 (상대원동)", "사업장명": "(주)유경", "환경업무구분명": null, "업종구분명": null, "종별명": null, "주생산품명": null }, "geometry": { "type": "Point", "coordinates": [ 127.17789710391807, 37.438431615827625 ] } },
{ "type": "Feature", "properties": { "fid": 4962, "개방서비스명": "대기오염물질배출시설설치사업장", "인허가일자": "2010-12-10", "영업상태명": "영업/정상", "도로명전체주소": null, "사업장명": "씨후레쉬㈜", "환경업무구분명": null, "업종구분명": null, "종별명": null, "주생산품명": null }, "geometry": { "type": "Point", "coordinates": [ 127.178026867281261, 37.431145914618213 ] } },
{ "type": "Feature", "properties": { "fid": 5010, "개방서비스명": "대기오염물질배출시설설치사업장", "인허가일자": "2013-04-26", "영업상태명": "영업/정상", "도로명전체주소": "경기도 성남시 중원구 사기막골로62번길 61 (상대원동)", "사업장명": "OCI(주)중앙연구소", "환경업무구분명": null, "업종구분명": null, "종별명": null, "주생산품명": null }, "geometry": { "type": "Point", "coordinates": [ 127.178418044515126, 37.43464876367684 ] } },
{ "type": "Feature", "properties": { "fid": 5019, "개방서비스명": "대기오염물질배출시설설치사업장", "인허가일자": "1993-02-17", "영업상태명": "영업/정상", "도로명전체주소": "경기도 성남시 중원구 둔촌대로 567 (상대원동)", "사업장명": "성남시청(성남시환경에너지시설)", "환경업무구분명": null, "업종구분명": null, "종별명": null, "주생산품명": null }, "geometry": { "type": "Point", "coordinates": [ 127.182150806832198, 37.432002331327546 ] } },
{ "type": "Feature", "properties": { "fid": 5028, "개방서비스명": "대기오염물질배출시설설치사업장", "인허가일자": "2021-08-05", "영업상태명": "영업/정상", "도로명전체주소": "경기도 성남시 중원구 순암로 787(갈현동)", "사업장명": "성남시 장례문화사업소", "환경업무구분명": "대기배출업소관리", "업종구분명": "장례식장 및 관련 서비스업", "종별명": "4종", "주생산품명": null }, "geometry": { "type": "Point", "coordinates": [ 127.182977631896819, 37.418701394689641 ] } },
{ "type": "Feature", "properties": { "fid": 4999, "개방서비스명": "대기오염물질배출시설설치사업장", "인허가일자": "2012-01-02", "영업상태명": "영업/정상", "도로명전체주소": "경기도 성남시 분당구 안양판교로828번길 201 (석운동)", "사업장명": "(주)대한송유관공사서울지사", "환경업무구분명": "대기배출업소관리", "업종구분명": null, "종별명": "5종", "주생산품명": null }, "geometry": { "type": "Point", "coordinates": [ 127.049771846416022, 37.372075803361732 ] } },
{ "type": "Feature", "properties": { "fid": 5002, "개방서비스명": "대기오염물질배출시설설치사업장", "인허가일자": "2011-04-19", "영업상태명": "영업/정상", "도로명전체주소": null, "사업장명": "분당공업사", "환경업무구분명": "대기배출업소관리", "업종구분명": "자동차 종합 수리업", "종별명": "5종", "주생산품명": null }, "geometry": { "type": "Point", "coordinates": [ 127.101520362834052, 37.372816235456199 ] } },
{ "type": "Feature", "properties": { "fid": 5001, "개방서비스명": "대기오염물질배출시설설치사업장", "인허가일자": "2011-08-11", "영업상태명": "영업/정상", "도로명전체주소": "경기도 성남시 분당구 대왕판교로 331 (궁내동)", "사업장명": "(주)한독모터스 분당영업소", "환경업무구분명": "대기배출업소관리", "업종구분명": "자동차 수리업", "종별명": "5종", "주생산품명": null }, "geometry": { "type": "Point", "coordinates": [ 127.101200302837071, 37.373337706073677 ] } },
{ "type": "Feature", "properties": { "fid": 4928, "개방서비스명": "대기오염물질배출시설설치사업장", "인허가일자": "2021-04-20", "영업상태명": "영업/정상", "도로명전체주소": "경기도 성남시 분당구 대왕판교로351번길 4 (궁내동)", "사업장명": "주식회사 비샥엔지니어링", "환경업무구분명": "대기배출업소관리", "업종구분명": "자동차 종합 수리업", "종별명": "5종", "주생산품명": null }, "geometry": { "type": "Point", "coordinates": [ 127.101307856558606, 37.375329743254241 ] } },
{ "type": "Feature", "properties": { "fid": 4964, "개방서비스명": "대기오염물질배출시설설치사업장", "인허가일자": "2024-01-11", "영업상태명": "영업/정상", "도로명전체주소": "경기도 성남시 분당구 대왕판교로 364 (백현동)", "사업장명": "한성자동차(주) 분당백현서비스센터", "환경업무구분명": "대기배출업소관리", "업종구분명": "자동차 수리업", "종별명": "5종", "주생산품명": null }, "geometry": { "type": "Point", "coordinates": [ 127.102280174778542, 37.376234236108452 ] } },
{ "type": "Feature", "properties": { "fid": 4904, "개방서비스명": "대기오염물질배출시설설치사업장", "인허가일자": "2011-12-19", "영업상태명": "영업/정상", "도로명전체주소": "경기도 성남시 분당구 황새울로200번길 34  (수내동)", "사업장명": "(주)비엔지컨설턴트", "환경업무구분명": "대기배출업소관리", "업종구분명": null, "종별명": "5종", "주생산품명": null }, "geometry": { "type": "Point", "coordinates": [ 127.113853576603063, 37.377146433916394 ] } },
{ "type": "Feature", "properties": { "fid": 4945, "개방서비스명": "대기오염물질배출시설설치사업장", "인허가일자": "2025-01-03", "영업상태명": "영업/정상", "도로명전체주소": "경기도 성남시 분당구 대왕판교로385번길 27, 한국외국인학교 (백현동)", "사업장명": "한국외국인학교", "환경업무구분명": "대기배출업소관리", "업종구분명": null, "종별명": "5종", "주생산품명": null }, "geometry": { "type": "Point", "coordinates": [ 127.097692892160367, 37.377401922366346 ] } },
{ "type": "Feature", "properties": { "fid": 4906, "개방서비스명": "대기오염물질배출시설설치사업장", "인허가일자": "2008-07-07", "영업상태명": "영업/정상", "도로명전체주소": "경기도 성남시 분당구 대왕판교로385번길 13 (백현동)", "사업장명": "한성자동차(주) 분당지점", "환경업무구분명": "대기배출업소관리", "업종구분명": "자동차 수리업", "종별명": "5종", "주생산품명": null }, "geometry": { "type": "Point", "coordinates": [ 127.100627770260417, 37.377690327076607 ] } },
{ "type": "Feature", "properties": { "fid": 4933, "개방서비스명": "대기오염물질배출시설설치사업장", "인허가일자": "2020-10-08", "영업상태명": "영업/정상", "도로명전체주소": "경기도 성남시 분당구 황새울로200번길 45 (수내동)", "사업장명": "롯데쇼핑(주)분당점", "환경업무구분명": "대기배출업소관리", "업종구분명": "백화점", "종별명": "4종", "주생산품명": null }, "geometry": { "type": "Point", "coordinates": [ 127.114294442039309, 37.378460922981411 ] } },
{ "type": "Feature", "properties": { "fid": 4940, "개방서비스명": "대기오염물질배출시설설치사업장", "인허가일자": "2024-11-20", "영업상태명": "영업/정상", "도로명전체주소": "경기도 성남시 분당구 분당수서로 501, 한국잡월드 (정자동)", "사업장명": "한국잡월드", "환경업무구분명": "대기배출업소관리", "업종구분명": "그외 기타 분류안된 전문, 과학 및 기술 서비스업", "종별명": "4종", "주생산품명": null }, "geometry": { "type": "Point", "coordinates": [ 127.106276511566691, 37.378497550254679 ] } },
{ "type": "Feature", "properties": { "fid": 4944, "개방서비스명": "대기오염물질배출시설설치사업장", "인허가일자": "2025-01-03", "영업상태명": "영업/정상", "도로명전체주소": "경기도 성남시 분당구 두밀로123번길 106 (하산운동)", "사업장명": "단독주택(하산운동 376-30)", "환경업무구분명": "대기배출업소관리", "업종구분명": null, "종별명": "5종", "주생산품명": null }, "geometry": { "type": "Point", "coordinates": [ 127.078643538349354, 37.378775532739503 ] } },
{ "type": "Feature", "properties": { "fid": 4942, "개방서비스명": "대기오염물질배출시설설치사업장", "인허가일자": "2024-11-26", "영업상태명": "영업/정상", "도로명전체주소": "경기도 성남시 분당구 두밀로123번길 110 (하산운동)", "사업장명": "단독주택(하산운동 376-29)", "환경업무구분명": "대기배출업소관리", "업종구분명": null, "종별명": "5종", "주생산품명": null }, "geometry": { "type": "Point", "coordinates": [ 127.078485036958838, 37.379060141562789 ] } },
{ "type": "Feature", "properties": { "fid": 4989, "개방서비스명": "대기오염물질배출시설설치사업장", "인허가일자": "2022-01-06", "영업상태명": "영업/정상", "도로명전체주소": "경기도 성남시 분당구 황새울로258번길 29, 티맥스수내타워 (수내동)", "사업장명": "(주)신한은행(이지스비즈부동산투자신탁제1-1호)", "환경업무구분명": "대기배출업소관리", "업종구분명": "부동산업", "종별명": "5종", "주생산품명": null }, "geometry": { "type": "Point", "coordinates": [ 127.116766912138829, 37.379236780822332 ] } },
{ "type": "Feature", "properties": { "fid": 4993, "개방서비스명": "대기오염물질배출시설설치사업장", "인허가일자": "2015-10-21", "영업상태명": "영업/정상", "도로명전체주소": "경기도 성남시 분당구 판교백현로 161 (백현동)", "사업장명": "경원건설(주)", "환경업무구분명": "대기배출업소관리", "업종구분명": null, "종별명": "4종", "주생산품명": null }, "geometry": { "type": "Point", "coordinates": [ 127.082212969874917, 37.380274707990004 ] } },
{ "type": "Feature", "properties": { "fid": 4966, "개방서비스명": "대기오염물질배출시설설치사업장", "인허가일자": "2022-04-22", "영업상태명": "영업/정상", "도로명전체주소": "경기도 성남시 분당구 수내로 50, 수내동업무빌딩 (수내동)", "사업장명": "하나님의교회세계복음선교협회", "환경업무구분명": "대기배출업소관리", "업종구분명": "종교 단체", "종별명": "5종", "주생산품명": null }, "geometry": { "type": "Point", "coordinates": [ 127.117440799908209, 37.380392161397964 ] } },
{ "type": "Feature", "properties": { "fid": 4977, "개방서비스명": "대기오염물질배출시설설치사업장", "인허가일자": "2021-07-22", "영업상태명": "영업/정상", "도로명전체주소": "경기도 성남시 분당구 안양판교로 1219 (판교동)", "사업장명": "우리들교회", "환경업무구분명": "대기배출업소관리", "업종구분명": null, "종별명": "5종", "주생산품명": null }, "geometry": { "type": "Point", "coordinates": [ 127.101208559674575, 37.382383339993751 ] } },
{ "type": "Feature", "properties": { "fid": 4984, "개방서비스명": "대기오염물질배출시설설치사업장", "인허가일자": "2021-10-20", "영업상태명": "영업/정상", "도로명전체주소": null, "사업장명": "한국보안정보연구원", "환경업무구분명": "대기배출업소관리", "업종구분명": "정부기관 일반 보조 행정", "종별명": "4종", "주생산품명": null }, "geometry": { "type": "Point", "coordinates": [ 127.038068883214905, 37.386796076180694 ] } },
{ "type": "Feature", "properties": { "fid": 4996, "개방서비스명": "대기오염물질배출시설설치사업장", "인허가일자": "2018-10-01", "영업상태명": "영업/정상", "도로명전체주소": "경기도 성남시 분당구 대왕판교로560번길 9 (백현동)", "사업장명": "한국가스공사 경기지역본부 판교관리소", "환경업무구분명": "대기배출업소관리", "업종구분명": "가스제조 및 배관 공급업", "종별명": "5종", "주생산품명": null }, "geometry": { "type": "Point", "coordinates": [ 127.105566565537615, 37.392499025744364 ] } },
{ "type": "Feature", "properties": { "fid": 4991, "개방서비스명": "대기오염물질배출시설설치사업장", "인허가일자": "2015-11-05", "영업상태명": "영업/정상", "도로명전체주소": "경기도 성남시 분당구 하오개로 323 (운중동)", "사업장명": "(재)한국학중앙연구원", "환경업무구분명": "대기배출업소관리", "업종구분명": "기타 인쇄물 출판업", "종별명": "5종", "주생산품명": null }, "geometry": { "type": "Point", "coordinates": [ 127.051554205903784, 37.392645310904577 ] } },
{ "type": "Feature", "properties": { "fid": 4946, "개방서비스명": "대기오염물질배출시설설치사업장", "인허가일자": "2022-05-26", "영업상태명": "영업/정상", "도로명전체주소": "경기도 성남시 분당구 판교역로 145 (백현동, 알파리움2단지)", "사업장명": "마스턴일반사모부동산투자신탁제150호 판교알파리움타워2동", "환경업무구분명": "대기배출업소관리", "업종구분명": "부동산 임대업", "종별명": "5종", "주생산품명": null }, "geometry": { "type": "Point", "coordinates": [ 127.108376582266402, 37.393815860663665 ] } },
{ "type": "Feature", "properties": { "fid": 4938, "개방서비스명": "대기오염물질배출시설설치사업장", "인허가일자": "2008-12-02", "영업상태명": "영업/정상", "도로명전체주소": "경기도 성남시 분당구 판교로228번길 88 (백현동)", "사업장명": "한국지역난방공사 판교지사", "환경업무구분명": null, "업종구분명": null, "종별명": null, "주생산품명": null }, "geometry": { "type": "Point", "coordinates": [ 127.103074350808413, 37.394105404083433 ] } },
{ "type": "Feature", "properties": { "fid": 4930, "개방서비스명": "대기오염물질배출시설설치사업장", "인허가일자": "2021-03-23", "영업상태명": "영업/정상", "도로명전체주소": "경기도 성남시 분당구 분당내곡로 117, 크래프톤타워 (백현동)", "사업장명": "(주)신한알파위탁관리부동산투자회사", "환경업무구분명": "대기배출업소관리", "업종구분명": "부동산업", "종별명": "5종", "주생산품명": null }, "geometry": { "type": "Point", "coordinates": [ 127.11216141635947, 37.394224423331671 ] } },
{ "type": "Feature", "properties": { "fid": 4974, "개방서비스명": "대기오염물질배출시설설치사업장", "인허가일자": "2022-12-23", "영업상태명": "영업/정상", "도로명전체주소": "경기도 성남시 분당구 판교역로 152, 알파돔타워 (백현동)", "사업장명": "삼성SRA일반사모부동산투자신탁제101호", "환경업무구분명": "대기배출업소관리", "업종구분명": "부동산업", "종별명": "4종", "주생산품명": null }, "geometry": { "type": "Point", "coordinates": [ 127.110322363000961, 37.394224065082859 ] } },
{ "type": "Feature", "properties": { "fid": 4924, "개방서비스명": "대기오염물질배출시설설치사업장", "인허가일자": "2022-06-30", "영업상태명": "영업/정상", "도로명전체주소": "경기도 성남시 분당구 대왕판교로606번길 10 (백현동, 알파리움1단지)", "사업장명": "마스턴일반사모부동산투자신탁제150호 판교알파리움타워1동", "환경업무구분명": "대기배출업소관리", "업종구분명": "부동산 임대업", "종별명": "5종", "주생산품명": null }, "geometry": { "type": "Point", "coordinates": [ 127.108202112332322, 37.395485068373489 ] } },
{ "type": "Feature", "properties": { "fid": 5004, "개방서비스명": "대기오염물질배출시설설치사업장", "인허가일자": "2021-05-03", "영업상태명": "영업/정상", "도로명전체주소": "경기도 성남시 분당구 대왕판교로 378, 외 5필지 (백현동)", "사업장명": "센트럴모터스(주) 판교지점", "환경업무구분명": "대기배출업소관리", "업종구분명": "도장 및 기타 피막처리업", "종별명": "5종", "주생산품명": null }, "geometry": { "type": "Point", "coordinates": [ 127.102209506165394, 37.37739576669027 ] } },
{ "type": "Feature", "properties": { "fid": 4982, "개방서비스명": "대기오염물질배출시설설치사업장", "인허가일자": "2021-11-02", "영업상태명": "영업/정상", "도로명전체주소": "경기도 성남시 분당구 구미로 8 (구미동)", "사업장명": "(주)우리은행(마스턴일반사모부동산투자신탁제156호)", "환경업무구분명": "대기배출업소관리", "업종구분명": "기타 부동산 임대업", "종별명": "5종", "주생산품명": null }, "geometry": { "type": "Point", "coordinates": [ 127.109725118112024, 37.337676734098537 ] } },
{ "type": "Feature", "properties": { "fid": 4988, "개방서비스명": "대기오염물질배출시설설치사업장", "인허가일자": "2021-12-21", "영업상태명": "영업/정상", "도로명전체주소": "경기도 성남시 분당구 성남대로43번길 11, 농수산물종합유통센터 1층 (구미동)", "사업장명": "(주)농협하나로유통 농협성남유통센터", "환경업무구분명": "대기배출업소관리", "업종구분명": "기타 도매업", "종별명": "5종", "주생산품명": null }, "geometry": { "type": "Point", "coordinates": [ 127.107061057927382, 37.338386813408995 ] } },
{ "type": "Feature", "properties": { "fid": 4979, "개방서비스명": "대기오염물질배출시설설치사업장", "인허가일자": "2021-12-06", "영업상태명": "영업/정상", "도로명전체주소": "경기도 성남시 분당구 탄천상로151번길 20, 월드쇼핑(CGV Square) A동 (구미동)", "사업장명": "그래비티일반사모부동산투자회사제4호", "환경업무구분명": "대기배출업소관리", "업종구분명": "부동산업", "종별명": "5종", "주생산품명": null }, "geometry": { "type": "Point", "coordinates": [ 127.106970970145269, 37.340046095530525 ] } },
{ "type": "Feature", "properties": { "fid": 4985, "개방서비스명": "대기오염물질배출시설설치사업장", "인허가일자": "2021-11-17", "영업상태명": "영업/정상", "도로명전체주소": "경기도 성남시 분당구 탄천상로151번길 20, 월드쇼핑(CGV Square) (구미동)", "사업장명": "월드쇼핑 C동 관리단", "환경업무구분명": "대기배출업소관리", "업종구분명": "사업시설 유지관리 서비스업", "종별명": "5종", "주생산품명": null }, "geometry": { "type": "Point", "coordinates": [ 127.106970970145269, 37.340046095530525 ] } },
{ "type": "Feature", "properties": { "fid": 4921, "개방서비스명": "대기오염물질배출시설설치사업장", "인허가일자": "2020-12-24", "영업상태명": "영업/정상", "도로명전체주소": "경기도 성남시 분당구 탄천상로151번길 20, 월드쇼핑(CGV Square) (구미동)", "사업장명": "코람코일반사모부동산투자신탁제63호", "환경업무구분명": "대기배출업소관리", "업종구분명": "부동산업", "종별명": "5종", "주생산품명": null }, "geometry": { "type": "Point", "coordinates": [ 127.106970970145269, 37.340046095530525 ] } },
{ "type": "Feature", "properties": { "fid": 4907, "개방서비스명": "대기오염물질배출시설설치사업장", "인허가일자": "2003-09-09", "영업상태명": "영업/정상", "도로명전체주소": "경기도 성남시 분당구 탄천상로163번길 8 (구미동)", "사업장명": "(주)동성교통", "환경업무구분명": "대기배출업소관리", "업종구분명": "도장및기타피막처리업", "종별명": "4종", "주생산품명": null }, "geometry": { "type": "Point", "coordinates": [ 127.105521460723764, 37.342199537490089 ] } },
{ "type": "Feature", "properties": { "fid": 4909, "개방서비스명": "대기오염물질배출시설설치사업장", "인허가일자": "2002-09-02", "영업상태명": "영업/정상", "도로명전체주소": "경기도 성남시 중원구 순환로198번길 8, 쌍용자동차 성남정비사업소 (상대원동)", "사업장명": "쌍용자동차분당정비사업소(주)", "환경업무구분명": "대기배출업소관리", "업종구분명": "도장및기타피막처리업", "종별명": "5종", "주생산품명": null }, "geometry": { "type": "Point", "coordinates": [ 127.100964335134393, 37.345079143111512 ] } },
{ "type": "Feature", "properties": { "fid": 4908, "개방서비스명": "대기오염물질배출시설설치사업장", "인허가일자": "2002-11-08", "영업상태명": "영업/정상", "도로명전체주소": null, "사업장명": "1급분당종합정비사업(주)", "환경업무구분명": "대기배출업소관리", "업종구분명": "도장 및 기타 피막처리업", "종별명": "4종", "주생산품명": null }, "geometry": { "type": "Point", "coordinates": [ 127.099466071393181, 37.346368264959999 ] } },
{ "type": "Feature", "properties": { "fid": 4919, "개방서비스명": "대기오염물질배출시설설치사업장", "인허가일자": "2015-12-18", "영업상태명": "영업/정상", "도로명전체주소": "경기도 성남시 분당구 미금일로154번길 20 (구미동, 2001아울렛)", "사업장명": "이천일아울렛 분당점", "환경업무구분명": "대기배출업소관리", "업종구분명": "기타 대형 종합 소매업", "종별명": "4종", "주생산품명": null }, "geometry": { "type": "Point", "coordinates": [ 127.107287204449733, 37.34892879857761 ] } },
{ "type": "Feature", "properties": { "fid": 4926, "개방서비스명": "대기오염물질배출시설설치사업장", "인허가일자": "2025-04-28", "영업상태명": "영업/정상", "도로명전체주소": "경기도 성남시 분당구 미금일로154번길 6 (구미동)", "사업장명": "지구촌교회", "환경업무구분명": "대기배출업소관리", "업종구분명": "종교 단체", "종별명": "5종", "주생산품명": null }, "geometry": { "type": "Point", "coordinates": [ 127.106802332246147, 37.349140167619474 ] } },
{ "type": "Feature", "properties": { "fid": 4975, "개방서비스명": "대기오염물질배출시설설치사업장", "인허가일자": "2021-07-16", "영업상태명": "영업/정상", "도로명전체주소": "경기도 성남시 분당구 정자일로 1, 코오롱트리폴리스1 (금곡동)", "사업장명": "코오롱트리폴리스1 관리단", "환경업무구분명": "대기배출업소관리", "업종구분명": "부동산 임대업", "종별명": "5종", "주생산품명": null }, "geometry": { "type": "Point", "coordinates": [ 127.105396416023623, 37.350785110643251 ] } },
{ "type": "Feature", "properties": { "fid": 4915, "개방서비스명": "대기오염물질배출시설설치사업장", "인허가일자": "2015-12-28", "영업상태명": "영업/정상", "도로명전체주소": "경기도 성남시 분당구 대왕판교로 155-7 (금곡동)", "사업장명": "의료법인롯데의료재단보바스기념병원", "환경업무구분명": "대기배출업소관리", "업종구분명": "병원", "종별명": "4종", "주생산품명": null }, "geometry": { "type": "Point", "coordinates": [ 127.098479559338585, 37.355733595538958 ] } },
{ "type": "Feature", "properties": { "fid": 4947, "개방서비스명": "대기오염물질배출시설설치사업장", "인허가일자": "2022-05-10", "영업상태명": "영업/정상", "도로명전체주소": "경기도 성남시 분당구 대왕판교로 148 (금곡동)", "사업장명": "자일분당서비스(주)", "환경업무구분명": "대기배출업소관리", "업종구분명": "자동차 종합 수리업", "종별명": "5종", "주생산품명": null }, "geometry": { "type": "Point", "coordinates": [ 127.102567033996337, 37.357058938081053 ] } },
{ "type": "Feature", "properties": { "fid": 4980, "개방서비스명": "대기오염물질배출시설설치사업장", "인허가일자": "2021-12-02", "영업상태명": "영업/정상", "도로명전체주소": "경기도 성남시 분당구 대왕판교로 155, 더 헤리티지 (금곡동)", "사업장명": "더 헤리티지 입주자대표회의", "환경업무구분명": "대기배출업소관리", "업종구분명": "기타 서비스업", "종별명": "4종", "주생산품명": null }, "geometry": { "type": "Point", "coordinates": [ 127.098252025782514, 37.358610114589773 ] } },
{ "type": "Feature", "properties": { "fid": 4976, "개방서비스명": "대기오염물질배출시설설치사업장", "인허가일자": "2021-07-22", "영업상태명": "영업/정상", "도로명전체주소": "경기도 성남시 분당구 대왕판교로 155, 더 헤리티지 (금곡동)", "사업장명": "더헤리티지너싱홈, 요양원", "환경업무구분명": "대기배출업소관리", "업종구분명": "노인 요양 복지시설 운영업", "종별명": "4종", "주생산품명": null }, "geometry": { "type": "Point", "coordinates": [ 127.098252025782514, 37.358610114589773 ] } },
{ "type": "Feature", "properties": { "fid": 4997, "개방서비스명": "대기오염물질배출시설설치사업장", "인허가일자": "2015-11-27", "영업상태명": "영업/정상", "도로명전체주소": "경기도 성남시 분당구 불정로 90 (정자동, KT본사)", "사업장명": "주식회사 케이티", "환경업무구분명": "대기배출업소관리", "업종구분명": null, "종별명": "4종", "주생산품명": null }, "geometry": { "type": "Point", "coordinates": [ 127.114817299960066, 37.358893148888804 ] } },
{ "type": "Feature", "properties": { "fid": 4917, "개방서비스명": "대기오염물질배출시설설치사업장", "인허가일자": "2018-08-16", "영업상태명": "영업/정상", "도로명전체주소": "경기도 성남시 분당구 대왕판교로 178 (금곡동)", "사업장명": "판교메젠모터스", "환경업무구분명": "대기배출업소관리", "업종구분명": "자동차 종합 수리업", "종별명": "5종", "주생산품명": null }, "geometry": { "type": "Point", "coordinates": [ 127.102285369780205, 37.359505592411672 ] } },
{ "type": "Feature", "properties": { "fid": 4987, "개방서비스명": "대기오염물질배출시설설치사업장", "인허가일자": "2021-12-23", "영업상태명": "영업/정상", "도로명전체주소": "경기도 성남시 분당구 불정로 6, 그린팩토리 1층 (정자동)", "사업장명": "네이버 주식회사", "환경업무구분명": "대기배출업소관리", "업종구분명": "컴퓨터 프로그래밍, 시스템 통합 및 관리업", "종별명": "5종", "주생산품명": null }, "geometry": { "type": "Point", "coordinates": [ 127.105210374228264, 37.359515855144203 ] } },
{ "type": "Feature", "properties": { "fid": 4922, "개방서비스명": "대기오염물질배출시설설치사업장", "인허가일자": "2019-01-03", "영업상태명": "영업/정상", "도로명전체주소": "경기도 성남시 분당구 대왕판교로 200 (금곡동)", "사업장명": "코오롱오토모티브 주식회사", "환경업무구분명": "대기배출업소관리", "업종구분명": "자동차 및 모터사이클 수리업", "종별명": "5종", "주생산품명": null }, "geometry": { "type": "Point", "coordinates": [ 127.102449760360827, 37.361783744664152 ] } },
{ "type": "Feature", "properties": { "fid": 4965, "개방서비스명": "대기오염물질배출시설설치사업장", "인허가일자": "2024-07-19", "영업상태명": "영업/정상", "도로명전체주소": "경기도 성남시 분당구 대왕판교로 231 (궁내동)", "사업장명": "이탈리아오토모빌리(주)람보르기니 분당 서비스센터", "환경업무구분명": "대기배출업소관리", "업종구분명": "자동차 종합 수리업", "종별명": "5종", "주생산품명": null }, "geometry": { "type": "Point", "coordinates": [ 127.101263213509171, 37.364368169766799 ] } },
{ "type": "Feature", "properties": { "fid": 4911, "개방서비스명": "대기오염물질배출시설설치사업장", "인허가일자": "2016-01-12", "영업상태명": "영업/정상", "도로명전체주소": "경기도 성남시 분당구 내정로 58 (정자동, 스포라이프 스포츠센타)", "사업장명": "필립주식회사", "환경업무구분명": "대기배출업소관리", "업종구분명": "스포츠 서비스업", "종별명": "5종", "주생산품명": null }, "geometry": { "type": "Point", "coordinates": [ 127.115196074337931, 37.36538668772176 ] } },
{ "type": "Feature", "properties": { "fid": 4929, "개방서비스명": "대기오염물질배출시설설치사업장", "인허가일자": "2021-03-30", "영업상태명": "영업/정상", "도로명전체주소": "경기도 성남시 분당구 성남대로343번길 9, 에스케이유타워 (정자동)", "사업장명": "에스케이하이닉스 주식회사", "환경업무구분명": "대기배출업소관리", "업종구분명": "부동산업", "종별명": "4종", "주생산품명": null }, "geometry": { "type": "Point", "coordinates": [ 127.106631636732203, 37.3661470852863 ] } },
{ "type": "Feature", "properties": { "fid": 5003, "개방서비스명": "대기오염물질배출시설설치사업장", "인허가일자": "2021-05-27", "영업상태명": "영업/정상", "도로명전체주소": "경기도 성남시 분당구 성남대로331번길 8, 킨스타워 (정자동)", "사업장명": "분당인텔리지1 킨스타워 관리단", "환경업무구분명": "대기배출업소관리", "업종구분명": "기타 서비스업", "종별명": "5종", "주생산품명": null }, "geometry": { "type": "Point", "coordinates": [ 127.106631636732203, 37.3661470852863 ] } },
{ "type": "Feature", "properties": { "fid": 4931, "개방서비스명": "대기오염물질배출시설설치사업장", "인허가일자": "2025-06-25", "영업상태명": "영업/정상", "도로명전체주소": "경기도 성남시 분당구 대왕판교로 277 (궁내동)", "사업장명": "(주)뉴현대자동차검사정비", "환경업무구분명": "대기배출업소관리", "업종구분명": "자동차 종합 수리업", "종별명": "5종", "주생산품명": null }, "geometry": { "type": "Point", "coordinates": [ 127.100845542167576, 37.368243910643201 ] } },
{ "type": "Feature", "properties": { "fid": 4998, "개방서비스명": "대기오염물질배출시설설치사업장", "인허가일자": "2014-11-24", "영업상태명": "영업/정상", "도로명전체주소": "경기도 성남시 분당구 대왕판교로 283 (궁내동)", "사업장명": "(주)아우토플라츠 판교서비스", "환경업무구분명": "대기배출업소관리", "업종구분명": "자동차 종합 수리업", "종별명": "5종", "주생산품명": null }, "geometry": { "type": "Point", "coordinates": [ 127.101020349958489, 37.368994301449796 ] } },
{ "type": "Feature", "properties": { "fid": 4934, "개방서비스명": "대기오염물질배출시설설치사업장", "인허가일자": "2020-09-09", "영업상태명": "영업/정상", "도로명전체주소": "경기도 성남시 분당구 정자일로213번길 9 (정자동)", "사업장명": "금융결제원", "환경업무구분명": "대기배출업소관리", "업종구분명": "금융업", "종별명": "5종", "주생산품명": null }, "geometry": { "type": "Point", "coordinates": [ 127.104856462306373, 37.369701102552199 ] } },
{ "type": "Feature", "properties": { "fid": 4943, "개방서비스명": "대기오염물질배출시설설치사업장", "인허가일자": "2025-01-09", "영업상태명": "영업/정상", "도로명전체주소": "경기도 성남시 분당구 황새울로 124, 백현중학교 (정자동)", "사업장명": "백현중학교", "환경업무구분명": "대기배출업소관리", "업종구분명": null, "종별명": "5종", "주생산품명": null }, "geometry": { "type": "Point", "coordinates": [ 127.110587482173955, 37.371069551787677 ] } },
{ "type": "Feature", "properties": { "fid": 4978, "개방서비스명": "대기오염물질배출시설설치사업장", "인허가일자": "2020-07-13", "영업상태명": "영업/정상", "도로명전체주소": "경기도 성남시 분당구 대왕판교로 316 (궁내동)", "사업장명": "천우모빌리티㈜ 분당지점", "환경업무구분명": "대기배출업소관리", "업종구분명": "자동차 종합 수리업", "종별명": "5종", "주생산품명": null }, "geometry": { "type": "Point", "coordinates": [ 127.102211819826465, 37.371802309364021 ] } },
{ "type": "Feature", "properties": { "fid": 5005, "개방서비스명": "대기오염물질배출시설설치사업장", "인허가일자": "2021-05-28", "영업상태명": "영업/정상", "도로명전체주소": "경기도 성남시 분당구 대왕판교로 132 (금곡동)", "사업장명": "빅토리오토모티브그룹㈜", "환경업무구분명": "대기배출업소관리", "업종구분명": "자동차 종합 수리업", "종별명": "5종", "주생산품명": null }, "geometry": { "type": "Point", "coordinates": [ 127.10214149891145, 37.355336092225777 ] } },
{ "type": "Feature", "properties": { "fid": 4913, "개방서비스명": "대기오염물질배출시설설치사업장", "인허가일자": "2016-01-11", "영업상태명": "영업/정상", "도로명전체주소": "경기도 성남시 분당구 구미로173번길 82 (구미동, 분당서울대학교병원)", "사업장명": "분당서울대학교병원", "환경업무구분명": "대기배출업소관리", "업종구분명": "종합 병원", "종별명": "3종", "주생산품명": null }, "geometry": { "type": "Point", "coordinates": [ 127.124231186602472, 37.349786809075162 ] } },
{ "type": "Feature", "properties": { "fid": 4939, "개방서비스명": "대기오염물질배출시설설치사업장", "인허가일자": "2016-01-11", "영업상태명": "영업/정상", "도로명전체주소": "경기도 성남시 분당구 구미로173번길 82, 분당서울대학교병원 (구미동)", "사업장명": "분당서울대학교병원", "환경업무구분명": null, "업종구분명": null, "종별명": null, "주생산품명": null }, "geometry": { "type": "Point", "coordinates": [ 127.124231186602472, 37.349786809075162 ] } },
{ "type": "Feature", "properties": { "fid": 4935, "개방서비스명": "대기오염물질배출시설설치사업장", "인허가일자": "2018-09-13", "영업상태명": "영업/정상", "도로명전체주소": "경기도 성남시 분당구 돌마로 172, 분당서울대학교병원 헬스케어혁신파크 (정자동)", "사업장명": "분당서울대학교병원 헬스케어혁신파크", "환경업무구분명": "대기배출업소관리", "업종구분명": "종합 병원", "종별명": "4종", "주생산품명": null }, "geometry": { "type": "Point", "coordinates": [ 127.121153880137911, 37.354241715166388 ] } },
{ "type": "Feature", "properties": { "fid": 4920, "개방서비스명": "대기오염물질배출시설설치사업장", "인허가일자": "2020-12-01", "영업상태명": "영업/정상", "도로명전체주소": "경기도 성남시 분당구 불정로 134 (정자동)", "사업장명": "(주)이마트 분당점", "환경업무구분명": "대기배출업소관리", "업종구분명": "음식점업", "종별명": "5종", "주생산품명": null }, "geometry": { "type": "Point", "coordinates": [ 127.119790300098458, 37.35881401722596 ] } },
{ "type": "Feature", "properties": { "fid": 4925, "개방서비스명": "대기오염물질배출시설설치사업장", "인허가일자": "2004-03-11", "영업상태명": "영업/정상", "도로명전체주소": "경기도 성남시 분당구 분당로 336 (분당동)", "사업장명": "한국지역난방공사분당지사", "환경업무구분명": "대기배출업소관리", "업종구분명": null, "종별명": "3종", "주생산품명": null }, "geometry": { "type": "Point", "coordinates": [ 127.147068066844099, 37.365231054932039 ] } },
{ "type": "Feature", "properties": { "fid": 4936, "개방서비스명": "대기오염물질배출시설설치사업장", "인허가일자": "1992-03-17", "영업상태명": "영업/정상", "도로명전체주소": "경기도 성남시 분당구 분당로 336 (분당동)", "사업장명": "한국남동발전(주)분당발전본부", "환경업무구분명": null, "업종구분명": null, "종별명": null, "주생산품명": null }, "geometry": { "type": "Point", "coordinates": [ 127.147068066844099, 37.365231054932039 ] } },
{ "type": "Feature", "properties": { "fid": 4937, "개방서비스명": "대기오염물질배출시설설치사업장", "인허가일자": "1991-10-05", "영업상태명": "영업/정상", "도로명전체주소": "경기도 성남시 분당구 분당로 378 (분당동)", "사업장명": "한국지역난방공사 분당지사", "환경업무구분명": null, "업종구분명": null, "종별명": null, "주생산품명": null }, "geometry": { "type": "Point", "coordinates": [ 127.147068066844099, 37.365231054932039 ] } },
{ "type": "Feature", "properties": { "fid": 4995, "개방서비스명": "대기오염물질배출시설설치사업장", "인허가일자": "2018-10-01", "영업상태명": "영업/정상", "도로명전체주소": "경기도 성남시 분당구 분당로 378 (분당동)", "사업장명": "한국가스공사 경기지역본부 분당관리소", "환경업무구분명": "대기배출업소관리", "업종구분명": "가스제조 및 배관 공급업", "종별명": "5종", "주생산품명": null }, "geometry": { "type": "Point", "coordinates": [ 127.147068066844099, 37.365231054932039 ] } },
{ "type": "Feature", "properties": { "fid": 4941, "개방서비스명": "대기오염물질배출시설설치사업장", "인허가일자": "2024-12-09", "영업상태명": "영업/정상", "도로명전체주소": "경기도 성남시 분당구 서현로439번길 1 (분당동)", "사업장명": "센트럴모터스(주)", "환경업무구분명": "대기배출업소관리", "업종구분명": "금융 및 보험관련 서비스업", "종별명": "5종", "주생산품명": null }, "geometry": { "type": "Point", "coordinates": [ 127.14534723048655, 37.374136872594455 ] } },
{ "type": "Feature", "properties": { "fid": 4994, "개방서비스명": "대기오염물질배출시설설치사업장", "인허가일자": "2015-10-21", "영업상태명": "영업/정상", "도로명전체주소": "경기도 성남시 분당구 중앙공원로31번길 42, 지하1층 (서현동, 서현파크플라자)", "사업장명": "동부자산관리(주) 패밀리스포츠센터", "환경업무구분명": "대기배출업소관리", "업종구분명": "종합 스포츠시설 운영업", "종별명": "4종", "주생산품명": null }, "geometry": { "type": "Point", "coordinates": [ 127.125488168657228, 37.383090841749144 ] } },
{ "type": "Feature", "properties": { "fid": 4905, "개방서비스명": "대기오염물질배출시설설치사업장", "인허가일자": "2009-09-03", "영업상태명": "영업/정상", "도로명전체주소": null, "사업장명": "(주)광장오토모티브", "환경업무구분명": "대기배출업소관리", "업종구분명": "자동차 종합 수리업", "종별명": "5종", "주생산품명": null }, "geometry": { "type": "Point", "coordinates": [ 127.137404270803415, 37.383513492165584 ] } },
{ "type": "Feature", "properties": { "fid": 4923, "개방서비스명": "대기오염물질배출시설설치사업장", "인허가일자": "2022-07-14", "영업상태명": "영업/정상", "도로명전체주소": "경기도 성남시 분당구 황새울로312번길 26, 서현265 (서현동)", "사업장명": "페블스톤제22호일반사모부동산투자회사", "환경업무구분명": "대기배출업소관리", "업종구분명": "부동산업", "종별명": "5종", "주생산품명": null }, "geometry": { "type": "Point", "coordinates": [ 127.122785248131052, 37.383557345007787 ] } },
{ "type": "Feature", "properties": { "fid": 5000, "개방서비스명": "대기오염물질배출시설설치사업장", "인허가일자": "2012-11-22", "영업상태명": "영업/정상", "도로명전체주소": "경기도 성남시 분당구 돌마로 569 (서현동)", "사업장명": "분당현대서비스(주)", "환경업무구분명": "대기배출업소관리", "업종구분명": "도장 및 기타 피막처리업", "종별명": "5종", "주생산품명": null }, "geometry": { "type": "Point", "coordinates": [ 127.138075673388457, 37.383823307280288 ] } },
{ "type": "Feature", "properties": { "fid": 4927, "개방서비스명": "대기오염물질배출시설설치사업장", "인허가일자": "2015-06-05", "영업상태명": "영업/정상", "도로명전체주소": "경기도 성남시 분당구 새마을로51번길 14 (서현동)", "사업장명": "(주)에이더블유피", "환경업무구분명": "대기배출업소관리", "업종구분명": "자동차 수리업", "종별명": "5종", "주생산품명": "도장,샌딩" }, "geometry": { "type": "Point", "coordinates": [ 127.137760841523445, 37.383946669419998 ] } },
{ "type": "Feature", "properties": { "fid": 4916, "개방서비스명": "대기오염물질배출시설설치사업장", "인허가일자": "1999-05-26", "영업상태명": "영업/정상", "도로명전체주소": "경기도 성남시 분당구 새마을로 23 (서현동)", "사업장명": "분당서비스기아오토큐(주)", "환경업무구분명": "대기배출업소관리", "업종구분명": "도장및기타피막처리업", "종별명": "5종", "주생산품명": null }, "geometry": { "type": "Point", "coordinates": [ 127.133022803616342, 37.384057130751152 ] } },
{ "type": "Feature", "properties": { "fid": 4910, "개방서비스명": "대기오염물질배출시설설치사업장", "인허가일자": "2016-05-02", "영업상태명": "영업/정상", "도로명전체주소": "경기도 성남시 분당구 새마을로 31 (서현동,외 4필지)", "사업장명": "위본모터스(주)아우디센터분당", "환경업무구분명": "대기배출업소관리", "업종구분명": null, "종별명": "5종", "주생산품명": null }, "geometry": { "type": "Point", "coordinates": [ 127.134297594340154, 37.384158135562807 ] } },
{ "type": "Feature", "properties": { "fid": 4912, "개방서비스명": "대기오염물질배출시설설치사업장", "인허가일자": "2016-01-12", "영업상태명": "영업/정상", "도로명전체주소": "경기도 성남시 분당구 황새울로311번길 9 (서현동, 분당포스데이타 전산센터)", "사업장명": "분당우리교회", "환경업무구분명": "대기배출업소관리", "업종구분명": null, "종별명": "5종", "주생산품명": null }, "geometry": { "type": "Point", "coordinates": [ 127.119451639434558, 37.384810511893058 ] } },
{ "type": "Feature", "properties": { "fid": 4918, "개방서비스명": "대기오염물질배출시설설치사업장", "인허가일자": "2016-05-19", "영업상태명": "영업/정상", "도로명전체주소": "경기도 성남시 분당구 황새울로360번길 42, AK플라자 (서현동)", "사업장명": "(주)국민은행(캡스톤사모부동산투자신탁14호의 신탁업자)", "환경업무구분명": "대기배출업소관리", "업종구분명": "기타 부동산 임대업", "종별명": "4종", "주생산품명": null }, "geometry": { "type": "Point", "coordinates": [ 127.1233466052919, 37.385049791536638 ] } },
{ "type": "Feature", "properties": { "fid": 4986, "개방서비스명": "대기오염물질배출시설설치사업장", "인허가일자": "2021-10-06", "영업상태명": "영업/정상", "도로명전체주소": "경기도 성남시 분당구 황새울로360번길 42, AK플라자 901호 등 12개호 (서현동)", "사업장명": "(주)엔에이치올원위탁관리부동산투자회사", "환경업무구분명": "대기배출업소관리", "업종구분명": "부동산 임대업", "종별명": "4종", "주생산품명": null }, "geometry": { "type": "Point", "coordinates": [ 127.1233466052919, 37.385049791536638 ] } },
{ "type": "Feature", "properties": { "fid": 4932, "개방서비스명": "대기오염물질배출시설설치사업장", "인허가일자": "2020-11-19", "영업상태명": "영업/정상", "도로명전체주소": "경기도 성남시 분당구 황새울로311번길 37, 한국마사회 분당지점 (서현동)", "사업장명": "한국마사회 분당지사", "환경업무구분명": "대기배출업소관리", "업종구분명": "경기장 운영업", "종별명": "4종", "주생산품명": null }, "geometry": { "type": "Point", "coordinates": [ 127.120778906210901, 37.386935269366717 ] } },
{ "type": "Feature", "properties": { "fid": 4990, "개방서비스명": "대기오염물질배출시설설치사업장", "인허가일자": "2015-12-18", "영업상태명": "영업/정상", "도로명전체주소": "경기도 성남시 분당구 서현로180번길 20 (서현동, 제생병원)", "사업장명": "(의)대진의료재단 분당제생병원", "환경업무구분명": "대기배출업소관리", "업종구분명": "종합 병원", "종별명": "4종", "주생산품명": null }, "geometry": { "type": "Point", "coordinates": [ 127.121623021788437, 37.388131039516495 ] } },
{ "type": "Feature", "properties": { "fid": 4983, "개방서비스명": "대기오염물질배출시설설치사업장", "인허가일자": "2021-10-08", "영업상태명": "영업/정상", "도로명전체주소": "경기도 성남시 분당구 서현로 184, 엘지분당에클라트 (서현동)", "사업장명": "에클라트관리운영위원회", "환경업무구분명": "대기배출업소관리", "업종구분명": "주차장 운영업", "종별명": "5종", "주생산품명": null }, "geometry": { "type": "Point", "coordinates": [ 127.123905472844029, 37.388242882377028 ] } },
{ "type": "Feature", "properties": { "fid": 4981, "개방서비스명": "대기오염물질배출시설설치사업장", "인허가일자": "2021-12-03", "영업상태명": "영업/정상", "도로명전체주소": "경기도 성남시 분당구 서현로 170, 풍림아이원플러스 (서현동)", "사업장명": "분당서현 아이원플러스입주자관리위원회", "환경업무구분명": "대기배출업소관리", "업종구분명": "기타 서비스업", "종별명": "5종", "주생산품명": null }, "geometry": { "type": "Point", "coordinates": [ 127.122474554056097, 37.388951432549113 ] } },
{ "type": "Feature", "properties": { "fid": 4992, "개방서비스명": "대기오염물질배출시설설치사업장", "인허가일자": "2015-10-21", "영업상태명": "영업/정상", "도로명전체주소": "경기도 성남시 분당구 새마을로 257 (율동)", "사업장명": "새마을운동중앙연수원", "환경업무구분명": "대기배출업소관리", "업종구분명": "사회복지 서비스업", "종별명": "5종", "주생산품명": null }, "geometry": { "type": "Point", "coordinates": [ 127.157390110663314, 37.392322650314327 ] } },
{ "type": "Feature", "properties": { "fid": 4914, "개방서비스명": "대기오염물질배출시설설치사업장", "인허가일자": "2015-12-28", "영업상태명": "영업/정상", "도로명전체주소": "경기도 성남시 분당구 탄천로 27 (이매동, 코오롱스포렉스)", "사업장명": "코오롱글로벌(주)스포렉스 분당점", "환경업무구분명": "대기배출업소관리", "업종구분명": null, "종별명": "5종", "주생산품명": null }, "geometry": { "type": "Point", "coordinates": [ 127.123045700362624, 37.395017598059788 ] } }
]
}
