{
"type": "FeatureCollection",
"name": "cool",
"crs": { "type": "name", "properties": { "name": "urn:ogc:def:crs:OGC:1.3:CRS84" } },
"features": [
{ "type": "Feature", "properties": { "fid": 647, "시설명": "NH농협은행판교테크노밸리지점", "시설유형": "생활밀착민간시설-금융기관", "주소": "경기도 성남시 분당구 판교역로 240", "시간": "09:00 ~ 16:00 (월-금)", "구분": "누구나 이용가능" }, "geometry": { "type": "Point", "coordinates": [ 127.110439649024428, 37.402085520358618 ] } },
{ "type": "Feature", "properties": { "fid": 651, "시설명": "낙원새마을금고판교테크노밸리지점", "시설유형": "생활밀착민간시설-금융기관", "주소": "경기도 성남시 분당구 판교역로 240", "시간": "09:00 ~ 16:00 (월-금)", "구분": "누구나 이용가능" }, "geometry": { "type": "Point", "coordinates": [ 127.110439649024428, 37.402085520358618 ] } },
{ "type": "Feature", "properties": { "fid": 652, "시설명": "낙원새마을금고판교지점", "시설유형": "생활밀착민간시설-금융기관", "주소": "경기도 성남시 분당구 판교역로192번길 16", "시간": "09:00 ~ 16:00 (월-금)", "구분": "누구나 이용가능" }, "geometry": { "type": "Point", "coordinates": [ 127.111404686711381, 37.397669177630689 ] } },
{ "type": "Feature", "properties": { "fid": 628, "시설명": "이매2통경로당", "시설유형": "특정계층이용시설", "주소": "경기도 성남시 분당구 성남대로772번길 4", "시간": "09:00 ~ 17:00 (월-금)", "구분": "특정인 이용가능" }, "geometry": { "type": "Point", "coordinates": [ 127.129388676164297, 37.398459508370507 ] } },
{ "type": "Feature", "properties": { "fid": 626, "시설명": "NH농협은행이매동지점", "시설유형": "생활밀착민간시설-금융기관", "주소": "경기도 성남시 분당구 성남대로779번길 19", "시간": "09:00 ~ 16:00 (월-금)", "구분": "누구나 이용가능" }, "geometry": { "type": "Point", "coordinates": [ 127.126186016803445, 37.398901071878981 ] } },
{ "type": "Feature", "properties": { "fid": 627, "시설명": "이매1동행정복지센터", "시설유형": "공공시설-공공청사", "주소": "경기도 성남시 분당구 성남대로779번길 10", "시간": "09:00 ~ 18:00 (월-금)", "구분": "누구나 이용가능" }, "geometry": { "type": "Point", "coordinates": [ 127.127240051631247, 37.399544135644796 ] } },
{ "type": "Feature", "properties": { "fid": 630, "시설명": "이매2동행정복지센터", "시설유형": "공공시설-공공청사", "주소": "경기도 성남시 분당구 탄천로79번길 19", "시간": "09:00 ~ 18:00 (월-금)", "구분": "누구나 이용가능" }, "geometry": { "type": "Point", "coordinates": [ 127.121786778005117, 37.399570946983481 ] } },
{ "type": "Feature", "properties": { "fid": 635, "시설명": "분당구보건소", "시설유형": "공공시설-공공청사", "주소": "경기도 성남시 분당구 양현로 306", "시간": "09:00 ~ 18:00 (월-금)", "구분": "누구나 이용가능" }, "geometry": { "type": "Point", "coordinates": [ 127.124587960200913, 37.411023801759541 ] } },
{ "type": "Feature", "properties": { "fid": 632, "시설명": "이동노동자간이쉼터(야탑)", "시설유형": "특정계층이용시설", "주소": "경기도 성남시 분당구 성남대로 920", "시간": "00:00 ~ 24:00 (월-일)", "구분": "특정인 이용가능" }, "geometry": { "type": "Point", "coordinates": [ 127.129296192842219, 37.411695262059169 ] } },
{ "type": "Feature", "properties": { "fid": 633, "시설명": "야탑동경로당", "시설유형": "특정계층이용시설", "주소": "경기도 성남시 분당구 야탑로111번길 12-14", "시간": "09:00 ~ 17:00 (월-금)", "구분": "특정인 이용가능" }, "geometry": { "type": "Point", "coordinates": [ 127.132228524531854, 37.411773423484782 ] } },
{ "type": "Feature", "properties": { "fid": 631, "시설명": "야탑1동행정복지센터", "시설유형": "공공시설-공공청사", "주소": "경기도 성남시 분당구 장미로86번길 18", "시간": "09:00 ~ 18:00 (월-금)", "구분": "누구나 이용가능" }, "geometry": { "type": "Point", "coordinates": [ 127.130259328595145, 37.41204086247965 ] } },
{ "type": "Feature", "properties": { "fid": 634, "시설명": "동부새마을금고야탑지점", "시설유형": "생활밀착민간시설-금융기관", "주소": "경기도 성남시 분당구 성남대로925번길 11", "시간": "09:00 ~ 16:00 (월-금)", "구분": "누구나 이용가능" }, "geometry": { "type": "Point", "coordinates": [ 127.127622068210115, 37.412063570620681 ] } },
{ "type": "Feature", "properties": { "fid": 636, "시설명": "성남농협야탑역지점", "시설유형": "생활밀착민간시설-금융기관", "주소": "경기도 성남시 분당구 야탑로 94", "시간": "09:00 ~ 16:00 (월-금)", "구분": "누구나 이용가능" }, "geometry": { "type": "Point", "coordinates": [ 127.129265771144844, 37.409590195192472 ] } },
{ "type": "Feature", "properties": { "fid": 637, "시설명": "야탑2동행정복지센터", "시설유형": "공공시설-공공청사", "주소": "경기도 성남시 분당구 야탑로76번길 5", "시간": "09:00 ~ 18:00 (월-금)", "구분": "누구나 이용가능" }, "geometry": { "type": "Point", "coordinates": [ 127.127291538646986, 37.409435626892531 ] } },
{ "type": "Feature", "properties": { "fid": 638, "시설명": "야탑3동행정복지센터", "시설유형": "공공시설-공공청사", "주소": "경기도 성남시 분당구 야탑로167번길 12", "시간": "09:00 ~ 18:00 (월-금)", "구분": "누구나 이용가능" }, "geometry": { "type": "Point", "coordinates": [ 127.137861116168636, 37.410795790987784 ] } },
{ "type": "Feature", "properties": { "fid": 639, "시설명": "중앙도서관", "시설유형": "공공시설-복지문화체육", "주소": "경기도 성남시 분당구 판교로 546", "시간": "07:00 ~ 23:00 (화-일)", "구분": "누구나 이용가능" }, "geometry": { "type": "Point", "coordinates": [ 127.134718367856863, 37.404956225616168 ] } },
{ "type": "Feature", "properties": { "fid": 640, "시설명": "NH농협은행분당테크노파크지점", "시설유형": "생활밀착민간시설-금융기관", "주소": "경기도 성남시 분당구 판교로 700", "시간": "09:00 ~ 16:00 (월-금)", "구분": "누구나 이용가능" }, "geometry": { "type": "Point", "coordinates": [ 127.150833380435117, 37.404067955480279 ] } },
{ "type": "Feature", "properties": { "fid": 641, "시설명": "제일새마을금고야탑지점", "시설유형": "생활밀착민간시설-금융기관", "주소": "경기도 성남시 분당구 매화로 42", "시간": "09:00 ~ 16:00 (월-금)", "구분": "누구나 이용가능" }, "geometry": { "type": "Point", "coordinates": [ 127.13417580649633, 37.411317974671569 ] } },
{ "type": "Feature", "properties": { "fid": 642, "시설명": "중탑경로당", "시설유형": "특정계층이용시설", "주소": "경기도 성남시 분당구 매화로48번길 17-4", "시간": "09:00 ~ 17:00 (월-금)", "구분": "특정인 이용가능" }, "geometry": { "type": "Point", "coordinates": [ 127.136282877893279, 37.411847938935161 ] } },
{ "type": "Feature", "properties": { "fid": 648, "시설명": "수정새마을금고판교지점", "시설유형": "생활밀착민간시설-금융기관", "주소": "경기도 성남시 분당구 판교로 393", "시간": "09:00 ~ 16:00 (월-금)", "구분": "누구나 이용가능" }, "geometry": { "type": "Point", "coordinates": [ 127.117072703706043, 37.406940092100079 ] } },
{ "type": "Feature", "properties": { "fid": 649, "시설명": "삼평동행정복지센터", "시설유형": "공공시설-공공청사", "주소": "경기도 성남시 분당구 동판교로266번길 7", "시간": "09:00 ~ 18:00 (월-금)", "구분": "누구나 이용가능" }, "geometry": { "type": "Point", "coordinates": [ 127.116312428360132, 37.40608528062829 ] } },
{ "type": "Feature", "properties": { "fid": 654, "시설명": "성남농협송현지점", "시설유형": "생활밀착민간시설-금융기관", "주소": "경기도 성남시 분당구 동판교로 226", "시간": "09:00 ~ 16:00 (월-금)", "구분": "누구나 이용가능" }, "geometry": { "type": "Point", "coordinates": [ 127.117948053112698, 37.403544807688228 ] } },
{ "type": "Feature", "properties": { "fid": 731, "시설명": "고등동행정복지센터", "시설유형": "공공시설-공공청사", "주소": "경기도 성남시 수정구 대왕판교로 985", "시간": "09:00 ~ 18:00 (월-금)", "구분": "누구나 이용가능" }, "geometry": { "type": "Point", "coordinates": [ 127.101294901805375, 37.428286439686282 ] } },
{ "type": "Feature", "properties": { "fid": 732, "시설명": "고등동복지회관", "시설유형": "공공시설-복지문화체육", "주소": "경기도 성남시 수정구 대왕판교로976번길 9-5", "시간": "09:00 ~ 18:00 (월-금)", "구분": "누구나 이용가능" }, "geometry": { "type": "Point", "coordinates": [ 127.102887334513255, 37.428022962879993 ] } },
{ "type": "Feature", "properties": { "fid": 734, "시설명": "성남농협대왕지점", "시설유형": "생활밀착민간시설-금융기관", "주소": "경기도 성남시 수정구 대왕판교로 989", "시간": "09:00 ~ 16:00 (월-금)", "구분": "누구나 이용가능" }, "geometry": { "type": "Point", "coordinates": [ 127.101287683872442, 37.428515429332606 ] } },
{ "type": "Feature", "properties": { "fid": 736, "시설명": "시흥동행정복지센터", "시설유형": "공공시설-공공청사", "주소": "경기도 성남시 수정구 여수대로56번길 6", "시간": "09:00 ~ 18:00 (월-금)", "구분": "누구나 이용가능" }, "geometry": { "type": "Point", "coordinates": [ 127.107943538389407, 37.421953543945662 ] } },
{ "type": "Feature", "properties": { "fid": 796, "시설명": "하대원동복지회관", "시설유형": "공공시설-복지문화체육", "주소": "경기도 성남시 중원구 마지로155번길 27", "시간": "09:00 ~ 18:00 (월-금)", "구분": "누구나 이용가능" }, "geometry": { "type": "Point", "coordinates": [ 127.149433155573632, 37.427824694696817 ] } },
{ "type": "Feature", "properties": { "fid": 797, "시설명": "하대원동행정복지센터", "시설유형": "공공시설-공공청사", "주소": "경기도 성남시 중원구 둔촌대로 252", "시간": "09:00 ~ 18:00 (월-금)", "구분": "누구나 이용가능" }, "geometry": { "type": "Point", "coordinates": [ 127.14640618172902, 37.428312312132597 ] } },
{ "type": "Feature", "properties": { "fid": 800, "시설명": "도촌동행정복지센터", "시설유형": "공공시설-공공청사", "주소": "경기도 성남시 중원구 도촌북로 28", "시간": "09:00 ~ 18:00 (월-금)", "구분": "누구나 이용가능" }, "geometry": { "type": "Point", "coordinates": [ 127.152764190216985, 37.416518936199843 ] } },
{ "type": "Feature", "properties": { "fid": 801, "시설명": "여수경로당", "시설유형": "특정계층이용시설", "주소": "경기도 성남시 중원구 여수울로15번길 18-3", "시간": "09:00 ~ 17:00 (월-금)", "구분": "특정인 이용가능" }, "geometry": { "type": "Point", "coordinates": [ 127.130964084632481, 37.420436388251694 ] } },
{ "type": "Feature", "properties": { "fid": 802, "시설명": "도촌동섬말경로당", "시설유형": "특정계층이용시설", "주소": "경기도 성남시 중원구 도촌로26번길 4", "시간": "09:00 ~ 17:00 (월-금)", "구분": "특정인 이용가능" }, "geometry": { "type": "Point", "coordinates": [ 127.151132282472005, 37.416213574846054 ] } },
{ "type": "Feature", "properties": { "fid": 803, "시설명": "NH농협은행성남시청(출)", "시설유형": "생활밀착민간시설-금융기관", "주소": "경기도 성남시 중원구 성남대로 997", "시간": "09:00 ~ 16:00 (월-금)", "구분": "누구나 이용가능" }, "geometry": { "type": "Point", "coordinates": [ 127.126460941084886, 37.419864891507309 ] } },
{ "type": "Feature", "properties": { "fid": 804, "시설명": "중원새마을금고본점", "시설유형": "생활밀착민간시설-금융기관", "주소": "경기도 성남시 중원구 성남대로 981", "시간": "09:00 ~ 16:00 (월-금)", "구분": "누구나 이용가능" }, "geometry": { "type": "Point", "coordinates": [ 127.128173994368552, 37.417409987013926 ] } },
{ "type": "Feature", "properties": { "fid": 805, "시설명": "성남농협도촌지점", "시설유형": "생활밀착민간시설-금융기관", "주소": "경기도 성남시 중원구 도촌남로 37", "시간": "09:00 ~ 16:00 (월-금)", "구분": "누구나 이용가능" }, "geometry": { "type": "Point", "coordinates": [ 127.151632903293603, 37.414622493243655 ] } },
{ "type": "Feature", "properties": { "fid": 806, "시설명": "낙원새마을금고도촌지점", "시설유형": "생활밀착민간시설-금융기관", "주소": "경기도 성남시 중원구 도촌남로 33", "시간": "09:00 ~ 16:00 (월-금)", "구분": "누구나 이용가능" }, "geometry": { "type": "Point", "coordinates": [ 127.151139453809606, 37.414564611760014 ] } },
{ "type": "Feature", "properties": { "fid": 807, "시설명": "갈현경로당", "시설유형": "특정계층이용시설", "주소": "경기도 성남시 중원구 갈현로 32-3", "시간": "09:00 ~ 17:00 (월-금)", "구분": "특정인 이용가능" }, "geometry": { "type": "Point", "coordinates": [ 127.175965424847661, 37.423254292454395 ] } },
{ "type": "Feature", "properties": { "fid": 735, "시설명": "낙원새마을금고청계지점", "시설유형": "생활밀착민간시설-금융기관", "주소": "경기도 성남시 수정구 고등로 3", "시간": "09:00 ~ 16:00 (월-금)", "구분": "누구나 이용가능" }, "geometry": { "type": "Point", "coordinates": [ 127.093887653926757, 37.428951645132557 ] } },
{ "type": "Feature", "properties": { "fid": 733, "시설명": "고등동등자리경로당", "시설유형": "특정계층이용시설", "주소": "경기도 성남시 수정구 등자로 55", "시간": "09:00 ~ 17:00 (월-금)", "구분": "특정인 이용가능" }, "geometry": { "type": "Point", "coordinates": [ 127.097196071780502, 37.436559459330716 ] } },
{ "type": "Feature", "properties": { "fid": 691, "시설명": "태평1동행정복지센터", "시설유형": "공공시설-공공청사", "주소": "경기도 성남시 수정구 모란로 88", "시간": "09:00 ~ 18:00 (월-금)", "구분": "누구나 이용가능" }, "geometry": { "type": "Point", "coordinates": [ 127.126161430766231, 37.440647562090902 ] } },
{ "type": "Feature", "properties": { "fid": 748, "시설명": "성남동복지회관", "시설유형": "공공시설-복지문화체육", "주소": "경기도 성남시 중원구 성남대로1151번길 20-7", "시간": "09:00 ~ 18:00 (월-금)", "구분": "누구나 이용가능" }, "geometry": { "type": "Point", "coordinates": [ 127.126442118495007, 37.432528315709106 ] } },
{ "type": "Feature", "properties": { "fid": 690, "시설명": "태평1동복지회관", "시설유형": "공공시설-복지문화체육", "주소": "경기도 성남시 수정구 성남대로 1314", "시간": "09:00 ~ 18:00 (월-금)", "구분": "누구나 이용가능" }, "geometry": { "type": "Point", "coordinates": [ 127.127145739919172, 37.447222986601062 ] } },
{ "type": "Feature", "properties": { "fid": 706, "시설명": "낙원새마을금고본점", "시설유형": "생활밀착민간시설-금융기관", "주소": "경기도 성남시 수정구 성남대로 1197", "시간": "09:00 ~ 16:00 (월-금)", "구분": "누구나 이용가능" }, "geometry": { "type": "Point", "coordinates": [ 127.12789837500776, 37.4366956069235 ] } },
{ "type": "Feature", "properties": { "fid": 745, "시설명": "이동노동자거점쉼터(모란)", "시설유형": "특정계층이용시설", "주소": "경기도 성남시 중원구 둔촌대로80번길 3-15", "시간": "09:00 ~ 07:00 (월-토)", "구분": "특정인 이용가능" }, "geometry": { "type": "Point", "coordinates": [ 127.128321303645677, 37.428735438607738 ] } },
{ "type": "Feature", "properties": { "fid": 741, "시설명": "NH농협은행모란지점", "시설유형": "생활밀착민간시설-금융기관", "주소": "경기도 성남시 중원구 성남대로1139번길 6", "시간": "09:00 ~ 16:00 (월-금)", "구분": "누구나 이용가능" }, "geometry": { "type": "Point", "coordinates": [ 127.128554412868866, 37.43156895308563 ] } },
{ "type": "Feature", "properties": { "fid": 739, "시설명": "중원새마을금고모란역지점", "시설유형": "생활밀착민간시설-금융기관", "주소": "경기도 성남시 중원구 성남대로 1151", "시간": "09:00 ~ 16:00 (월-금)", "구분": "누구나 이용가능" }, "geometry": { "type": "Point", "coordinates": [ 127.128700082545038, 37.432659323832461 ] } },
{ "type": "Feature", "properties": { "fid": 707, "시설명": "수진2동행정복지센터", "시설유형": "공공시설-공공청사", "주소": "경기도 성남시 수정구 성남대로 1204", "시간": "09:00 ~ 18:00 (월-금)", "구분": "누구나 이용가능" }, "geometry": { "type": "Point", "coordinates": [ 127.128768963968454, 37.437241456984033 ] } },
{ "type": "Feature", "properties": { "fid": 699, "시설명": "태평3동공원경로당", "시설유형": "특정계층이용시설", "주소": "경기도 성남시 수정구 남문로31번길 23", "시간": "09:00 ~ 17:00 (월-금)", "구분": "특정인 이용가능" }, "geometry": { "type": "Point", "coordinates": [ 127.129232921362345, 37.447108060244695 ] } },
{ "type": "Feature", "properties": { "fid": 743, "시설명": "성남농협본점", "시설유형": "생활밀착민간시설-금융기관", "주소": "경기도 성남시 중원구 광명로 3", "시간": "09:00 ~ 16:00 (월-금)", "구분": "누구나 이용가능" }, "geometry": { "type": "Point", "coordinates": [ 127.129453769043494, 37.433213738917161 ] } },
{ "type": "Feature", "properties": { "fid": 708, "시설명": "성남농협수진지점", "시설유형": "생활밀착민간시설-금융기관", "주소": "경기도 성남시 수정구 수정남로 17-1", "시간": "09:00 ~ 16:00 (월-금)", "구분": "누구나 이용가능" }, "geometry": { "type": "Point", "coordinates": [ 127.130002955390978, 37.439645731395785 ] } },
{ "type": "Feature", "properties": { "fid": 709, "시설명": "제일새마을금고수진지점", "시설유형": "생활밀착민간시설-금융기관", "주소": "경기도 성남시 수정구 제일로137번길 17", "시간": "09:00 ~ 16:00 (월-금)", "구분": "누구나 이용가능" }, "geometry": { "type": "Point", "coordinates": [ 127.130871421347763, 37.438313310439959 ] } },
{ "type": "Feature", "properties": { "fid": 740, "시설명": "중원새마을금고모란지점", "시설유형": "생활밀착민간시설-금융기관", "주소": "경기도 성남시 중원구 광명로16번길 3", "시간": "09:00 ~ 16:00 (월-금)", "구분": "누구나 이용가능" }, "geometry": { "type": "Point", "coordinates": [ 127.131110434359442, 37.43299098868544 ] } },
{ "type": "Feature", "properties": { "fid": 698, "시설명": "태평3동행정복지센터", "시설유형": "공공시설-공공청사", "주소": "경기도 성남시 수정구 남문로 54", "시간": "09:00 ~ 18:00 (월-금)", "구분": "누구나 이용가능" }, "geometry": { "type": "Point", "coordinates": [ 127.13306661502736, 37.445436026538978 ] } },
{ "type": "Feature", "properties": { "fid": 703, "시설명": "NH농협은행성남시지부", "시설유형": "생활밀착민간시설-금융기관", "주소": "경기도 성남시 수정구 수정로 126", "시간": "09:00 ~ 16:00 (월-금)", "구분": "누구나 이용가능" }, "geometry": { "type": "Point", "coordinates": [ 127.134292566947437, 37.441365065046284 ] } },
{ "type": "Feature", "properties": { "fid": 747, "시설명": "성남동광명경로당", "시설유형": "특정계층이용시설", "주소": "경기도 성남시 중원구 광명로 46", "시간": "09:00 ~ 17:00 (월-금)", "구분": "특정인 이용가능" }, "geometry": { "type": "Point", "coordinates": [ 127.13428578127774, 37.433561776001788 ] } },
{ "type": "Feature", "properties": { "fid": 697, "시설명": "태평3동복지회관", "시설유형": "공공시설-복지문화체육", "주소": "경기도 성남시 수정구 탄리로81번길 7", "시간": "09:00 ~ 18:00 (월-금)", "구분": "누구나 이용가능" }, "geometry": { "type": "Point", "coordinates": [ 127.134916205038678, 37.442990872772505 ] } },
{ "type": "Feature", "properties": { "fid": 693, "시설명": "낙원새마을금고서부지점", "시설유형": "생활밀착민간시설-금융기관", "주소": "경기도 성남시 수정구 탄리로 80", "시간": "09:00 ~ 16:00 (월-금)", "구분": "누구나 이용가능" }, "geometry": { "type": "Point", "coordinates": [ 127.135866624173573, 37.443141413873697 ] } },
{ "type": "Feature", "properties": { "fid": 737, "시설명": "중원구청", "시설유형": "공공시설-공공청사", "주소": "경기도 성남시 중원구 제일로 36", "시간": "00:00 ~ 24:00 (월-일)", "구분": "누구나 이용가능" }, "geometry": { "type": "Point", "coordinates": [ 127.137143710258627, 37.430481984140741 ] } },
{ "type": "Feature", "properties": { "fid": 742, "시설명": "NH농협은행중원구청", "시설유형": "생활밀착민간시설-금융기관", "주소": "경기도 성남시 중원구 제일로 36", "시간": "09:00 ~ 16:00 (월-금)", "구분": "누구나 이용가능" }, "geometry": { "type": "Point", "coordinates": [ 127.137143710258627, 37.430481984140741 ] } },
{ "type": "Feature", "properties": { "fid": 696, "시설명": "수정새마을금고본점", "시설유형": "생활밀착민간시설-금융기관", "주소": "경기도 성남시 수정구 수정로 157", "시간": "09:00 ~ 16:00 (월-금)", "구분": "누구나 이용가능" }, "geometry": { "type": "Point", "coordinates": [ 127.13755262596105, 37.443007878006583 ] } },
{ "type": "Feature", "properties": { "fid": 798, "시설명": "하대원동하나로경로당", "시설유형": "특정계층이용시설", "주소": "경기도 성남시 중원구 둔촌대로 104-2", "시간": "09:00 ~ 17:00 (월-금)", "구분": "특정인 이용가능" }, "geometry": { "type": "Point", "coordinates": [ 127.130275936565752, 37.429004260370128 ] } },
{ "type": "Feature", "properties": { "fid": 738, "시설명": "성남동행정복지센터", "시설유형": "공공시설-공공청사", "주소": "경기도 성남시 중원구 광명로 89", "시간": "09:00 ~ 18:00 (월-금)", "구분": "누구나 이용가능" }, "geometry": { "type": "Point", "coordinates": [ 127.13841310618146, 37.435316934236695 ] } },
{ "type": "Feature", "properties": { "fid": 705, "시설명": "수진1동복지회관", "시설유형": "공공시설-복지문화체육", "주소": "경기도 성남시 수정구 탄리로17번길 6", "시간": "09:00 ~ 18:00 (월-금)", "구분": "누구나 이용가능" }, "geometry": { "type": "Point", "coordinates": [ 127.138641285624246, 37.438480175907657 ] } },
{ "type": "Feature", "properties": { "fid": 695, "시설명": "태평2동복지회관", "시설유형": "공공시설-복지문화체육", "주소": "경기도 성남시 수정구 남문로111번길 3", "시간": "09:00 ~ 18:00 (월-금)", "구분": "누구나 이용가능" }, "geometry": { "type": "Point", "coordinates": [ 127.138677966001623, 37.447719823483261 ] } },
{ "type": "Feature", "properties": { "fid": 692, "시설명": "태평2동행정복지센터", "시설유형": "공공시설-공공청사", "주소": "경기도 성남시 수정구 남문로 108", "시간": "09:00 ~ 18:00 (월-금)", "구분": "누구나 이용가능" }, "geometry": { "type": "Point", "coordinates": [ 127.138687757159516, 37.447190735867061 ] } },
{ "type": "Feature", "properties": { "fid": 694, "시설명": "낙원새마을금고금빛지점", "시설유형": "생활밀착민간시설-금융기관", "주소": "경기도 성남시 수정구 남문로 111", "시간": "09:00 ~ 16:00 (월-금)", "구분": "누구나 이용가능" }, "geometry": { "type": "Point", "coordinates": [ 127.1387468647616, 37.447574687985401 ] } },
{ "type": "Feature", "properties": { "fid": 704, "시설명": "수진1동행정복지센터", "시설유형": "공공시설-공공청사", "주소": "경기도 성남시 수정구 탄리로 19", "시간": "09:00 ~ 18:00 (월-금)", "구분": "누구나 이용가능" }, "geometry": { "type": "Point", "coordinates": [ 127.13897036311711, 37.438484430749789 ] } },
{ "type": "Feature", "properties": { "fid": 678, "시설명": "신흥1동복지회관", "시설유형": "공공시설-복지문화체육", "주소": "경기도 성남시 수정구 탄리로52번길 32", "시간": "09:00 ~ 18:00 (월-금)", "구분": "누구나 이용가능" }, "geometry": { "type": "Point", "coordinates": [ 127.140256665371737, 37.440992998146335 ] } },
{ "type": "Feature", "properties": { "fid": 744, "시설명": "중원새마을금고성남지점", "시설유형": "생활밀착민간시설-금융기관", "주소": "경기도 성남시 중원구 광명로 108", "시간": "09:00 ~ 16:00 (월-금)", "구분": "누구나 이용가능" }, "geometry": { "type": "Point", "coordinates": [ 127.140647940314807, 37.435666255772929 ] } },
{ "type": "Feature", "properties": { "fid": 675, "시설명": "제일새마을금고신흥지점", "시설유형": "생활밀착민간시설-금융기관", "주소": "경기도 성남시 수정구 수정남로 119", "시간": "09:00 ~ 16:00 (월-금)", "구분": "누구나 이용가능" }, "geometry": { "type": "Point", "coordinates": [ 127.140699067853973, 37.442774098879568 ] } },
{ "type": "Feature", "properties": { "fid": 674, "시설명": "신흥1동행정복지센터", "시설유형": "공공시설-공공청사", "주소": "경기도 성남시 수정구 수정로188번길 7", "시간": "09:00 ~ 18:00 (월-금)", "구분": "누구나 이용가능" }, "geometry": { "type": "Point", "coordinates": [ 127.141175784838126, 37.443035424737474 ] } },
{ "type": "Feature", "properties": { "fid": 700, "시설명": "태평4동행정복지센터", "시설유형": "공공시설-공공청사", "주소": "경기도 성남시 수정구 남문로 134", "시간": "09:00 ~ 18:00 (월-금)", "구분": "누구나 이용가능" }, "geometry": { "type": "Point", "coordinates": [ 127.141492066952566, 37.447683425170347 ] } },
{ "type": "Feature", "properties": { "fid": 677, "시설명": "이동노동자간이쉼터(수진)", "시설유형": "특정계층이용시설", "주소": "경기도 성남시 수정구 산성대로 지하 208-3", "시간": "00:00 ~ 24:00 (월-일)", "구분": "특정인 이용가능" }, "geometry": { "type": "Point", "coordinates": [ 127.141574611859866, 37.438188126136289 ] } },
{ "type": "Feature", "properties": { "fid": 746, "시설명": "성남중앙경로당", "시설유형": "특정계층이용시설", "주소": "경기도 성남시 중원구 원터로93번길 10", "시간": "09:00 ~ 17:00 (월-금)", "구분": "특정인 이용가능" }, "geometry": { "type": "Point", "coordinates": [ 127.142022341865285, 37.4350057879874 ] } },
{ "type": "Feature", "properties": { "fid": 701, "시설명": "성남농협수정지점", "시설유형": "생활밀착민간시설-금융기관", "주소": "경기도 성남시 수정구 수정로 205", "시간": "09:00 ~ 16:00 (월-금)", "구분": "누구나 이용가능" }, "geometry": { "type": "Point", "coordinates": [ 127.142434369864148, 37.444418102709001 ] } },
{ "type": "Feature", "properties": { "fid": 702, "시설명": "태평4동복지회관", "시설유형": "공공시설-복지문화체육", "주소": "경기도 성남시 수정구 공원로409번길 11", "시간": "09:00 ~ 18:00 (월-금)", "구분": "누구나 이용가능" }, "geometry": { "type": "Point", "coordinates": [ 127.143049869776547, 37.446596512466854 ] } },
{ "type": "Feature", "properties": { "fid": 685, "시설명": "신흥3동대추나무경로당", "시설유형": "특정계층이용시설", "주소": "경기도 성남시 수정구 수정남로 142", "시간": "09:00 ~ 17:00 (월-금)", "구분": "특정인 이용가능" }, "geometry": { "type": "Point", "coordinates": [ 127.143231494711245, 37.443363030412044 ] } },
{ "type": "Feature", "properties": { "fid": 676, "시설명": "NH농협은행성남중앙로지점", "시설유형": "생활밀착민간시설-금융기관", "주소": "경기도 성남시 수정구 산성대로 241", "시간": "09:00 ~ 16:00 (월-금)", "구분": "누구나 이용가능" }, "geometry": { "type": "Point", "coordinates": [ 127.144075285263852, 37.439958976324256 ] } },
{ "type": "Feature", "properties": { "fid": 689, "시설명": "수정구보건소", "시설유형": "공공시설-공공청사", "주소": "경기도 성남시 수정구 수정로 218", "시간": "09:00 ~ 18:00 (월-금)", "구분": "누구나 이용가능" }, "geometry": { "type": "Point", "coordinates": [ 127.14411427829755, 37.444338710264304 ] } },
{ "type": "Feature", "properties": { "fid": 686, "시설명": "신흥3동종합경로당", "시설유형": "특정계층이용시설", "주소": "경기도 성남시 수정구 산성대로255번길 26-4", "시간": "09:00 ~ 17:00 (월-금)", "구분": "특정인 이용가능" }, "geometry": { "type": "Point", "coordinates": [ 127.144712003474424, 37.442299514492468 ] } },
{ "type": "Feature", "properties": { "fid": 684, "시설명": "수정새마을금고제1지점", "시설유형": "생활밀착민간시설-금융기관", "주소": "경기도 성남시 수정구 수정로 230", "시간": "09:00 ~ 16:00 (월-금)", "구분": "누구나 이용가능" }, "geometry": { "type": "Point", "coordinates": [ 127.145075452132261, 37.445430413091614 ] } },
{ "type": "Feature", "properties": { "fid": 683, "시설명": "수정새마을금고제3지점", "시설유형": "생활밀착민간시설-금융기관", "주소": "경기도 성남시 수정구 산성대로269번길 10", "시간": "09:00 ~ 16:00 (월-금)", "구분": "누구나 이용가능" }, "geometry": { "type": "Point", "coordinates": [ 127.146713501458166, 37.441698679169249 ] } },
{ "type": "Feature", "properties": { "fid": 687, "시설명": "신흥3동온고경로당", "시설유형": "특정계층이용시설", "주소": "경기도 성남시 수정구 공원로349번길 8", "시간": "09:00 ~ 17:00 (월-금)", "구분": "특정인 이용가능" }, "geometry": { "type": "Point", "coordinates": [ 127.148852244012787, 37.443539611608607 ] } },
{ "type": "Feature", "properties": { "fid": 688, "시설명": "신흥3동행정복지센터", "시설유형": "공공시설-공공청사", "주소": "경기도 성남시 수정구 공원로349번길 8", "시간": "09:00 ~ 18:00 (월-금)", "구분": "누구나 이용가능" }, "geometry": { "type": "Point", "coordinates": [ 127.148852244012787, 37.443539611608607 ] } },
{ "type": "Feature", "properties": { "fid": 749, "시설명": "중원새마을금고중앙동지점", "시설유형": "생활밀착민간시설-금융기관", "주소": "경기도 성남시 중원구 산성대로334번길 12", "시간": "09:00 ~ 16:00 (월-금)", "구분": "누구나 이용가능" }, "geometry": { "type": "Point", "coordinates": [ 127.154161535902944, 37.442147368062294 ] } },
{ "type": "Feature", "properties": { "fid": 751, "시설명": "중앙동행정복지센터", "시설유형": "공공시설-공공청사", "주소": "경기도 성남시 중원구 광명로264번길 1", "시간": "09:00 ~ 18:00 (월-금)", "구분": "누구나 이용가능" }, "geometry": { "type": "Point", "coordinates": [ 127.156220586440696, 37.442937420360089 ] } },
{ "type": "Feature", "properties": { "fid": 750, "시설명": "중앙동복지회관", "시설유형": "공공시설-복지문화체육", "주소": "경기도 성남시 중원구 광명로264번길 23", "시간": "09:00 ~ 18:00 (월-금)", "구분": "누구나 이용가능" }, "geometry": { "type": "Point", "coordinates": [ 127.157355797081081, 37.442234159811541 ] } },
{ "type": "Feature", "properties": { "fid": 753, "시설명": "NH농협은행단대지점", "시설유형": "생활밀착민간시설-금융기관", "주소": "경기도 성남시 중원구 산성대로372번길 10", "시간": "09:00 ~ 16:00 (월-금)", "구분": "누구나 이용가능" }, "geometry": { "type": "Point", "coordinates": [ 127.158085321771182, 37.444588468093208 ] } },
{ "type": "Feature", "properties": { "fid": 759, "시설명": "금광2동청로경로당", "시설유형": "특정계층이용시설", "주소": "경기도 성남시 중원구 자혜로8번길 59-9", "시간": "11:00 ~ 17:00 (월-금)", "구분": "특정인 이용가능" }, "geometry": { "type": "Point", "coordinates": [ 127.158825130266351, 37.44548698235603 ] } },
{ "type": "Feature", "properties": { "fid": 760, "시설명": "금광2동금광경로당", "시설유형": "특정계층이용시설", "주소": "경기도 성남시 중원구 산성대로408번길 26-1", "시간": "09:00 ~ 17:00 (월-금)", "구분": "특정인 이용가능" }, "geometry": { "type": "Point", "coordinates": [ 127.161335013653755, 37.447385327256413 ] } },
{ "type": "Feature", "properties": { "fid": 752, "시설명": "금광1동행정복지센터", "시설유형": "공공시설-공공청사", "주소": "경기도 성남시 중원구 광명로 328", "시간": "09:00 ~ 18:00 (월-금)", "구분": "누구나 이용가능" }, "geometry": { "type": "Point", "coordinates": [ 127.162397204758534, 37.445088320822357 ] } },
{ "type": "Feature", "properties": { "fid": 758, "시설명": "신구경로당", "시설유형": "특정계층이용시설", "주소": "경기도 성남시 중원구 광명로335번길 14-2", "시간": "09:00 ~ 17:00 (월-금)", "구분": "특정인 이용가능" }, "geometry": { "type": "Point", "coordinates": [ 127.162727588777685, 37.446685577887379 ] } },
{ "type": "Feature", "properties": { "fid": 784, "시설명": "동부새마을금고상대원시장지점", "시설유형": "생활밀착민간시설-금융기관", "주소": "경기도 성남시 중원구 금상로 7", "시간": "09:00 ~ 16:00 (월-금)", "구분": "누구나 이용가능" }, "geometry": { "type": "Point", "coordinates": [ 127.158657810985318, 37.43712618076092 ] } },
{ "type": "Feature", "properties": { "fid": 785, "시설명": "안마을경로당", "시설유형": "특정계층이용시설", "주소": "경기도 성남시 중원구 희망로360번길 7", "시간": "09:00 ~ 17:00 (월-금)", "구분": "특정인 이용가능" }, "geometry": { "type": "Point", "coordinates": [ 127.158879545995561, 37.438037022285776 ] } },
{ "type": "Feature", "properties": { "fid": 786, "시설명": "상대원2동제2복지회관", "시설유형": "공공시설-복지문화체육", "주소": "경기도 성남시 중원구 희망로 374", "시간": "09:00 ~ 18:00 (월-금)", "구분": "누구나 이용가능" }, "geometry": { "type": "Point", "coordinates": [ 127.159065962109466, 37.439169706285682 ] } },
{ "type": "Feature", "properties": { "fid": 788, "시설명": "상대원3동청산경로당", "시설유형": "특정계층이용시설", "주소": "경기도 성남시 중원구 금상로30번길 5-6", "시간": "10:00 ~ 16:00 (월-금)", "구분": "특정인 이용가능" }, "geometry": { "type": "Point", "coordinates": [ 127.161085104036161, 37.438385629817155 ] } },
{ "type": "Feature", "properties": { "fid": 789, "시설명": "상대원3동정든경로당", "시설유형": "특정계층이용시설", "주소": "경기도 성남시 중원구 둔촌대로389번길 21-3", "시간": "09:00 ~ 17:00 (월-금)", "구분": "특정인 이용가능" }, "geometry": { "type": "Point", "coordinates": [ 127.160422622346076, 37.435385599486487 ] } },
{ "type": "Feature", "properties": { "fid": 790, "시설명": "성남농협대원지점", "시설유형": "생활밀착민간시설-금융기관", "주소": "경기도 성남시 중원구 금상로 56", "시간": "09:00 ~ 16:00 (월-금)", "구분": "누구나 이용가능" }, "geometry": { "type": "Point", "coordinates": [ 127.162576840961464, 37.440063087409406 ] } },
{ "type": "Feature", "properties": { "fid": 793, "시설명": "하대원동장수경로당", "시설유형": "특정계층이용시설", "주소": "경기도 성남시 중원구 둔촌대로275번길 5", "시간": "09:00 ~ 17:00 (월-금)", "구분": "특정인 이용가능" }, "geometry": { "type": "Point", "coordinates": [ 127.148344167651132, 37.429781385732817 ] } },
{ "type": "Feature", "properties": { "fid": 794, "시설명": "성남농협하대원지점", "시설유형": "생활밀착민간시설-금융기관", "주소": "경기도 성남시 중원구 둔촌대로 274", "시간": "09:00 ~ 16:00 (월-금)", "구분": "누구나 이용가능" }, "geometry": { "type": "Point", "coordinates": [ 127.148876056551472, 37.42882870896095 ] } },
{ "type": "Feature", "properties": { "fid": 795, "시설명": "중원새마을금고하대원지점", "시설유형": "생활밀착민간시설-금융기관", "주소": "경기도 성남시 중원구 둔촌대로 299", "시간": "09:00 ~ 16:00 (월-금)", "구분": "누구나 이용가능" }, "geometry": { "type": "Point", "coordinates": [ 127.151199692769808, 37.430201670591792 ] } },
{ "type": "Feature", "properties": { "fid": 799, "시설명": "호야경로당", "시설유형": "특정계층이용시설", "주소": "경기도 성남시 중원구 둔촌대로363번길 9", "시간": "09:00 ~ 17:00 (월-금)", "구분": "특정인 이용가능" }, "geometry": { "type": "Point", "coordinates": [ 127.156518948080432, 37.432314968416371 ] } },
{ "type": "Feature", "properties": { "fid": 761, "시설명": "금광2동산성경로당", "시설유형": "특정계층이용시설", "주소": "경기도 성남시 중원구 금빛로85번길 22", "시간": "09:00 ~ 16:00 (월-금)", "구분": "특정인 이용가능" }, "geometry": { "type": "Point", "coordinates": [ 127.163892983822677, 37.448957036192965 ] } },
{ "type": "Feature", "properties": { "fid": 755, "시설명": "금광2동행정복지센터", "시설유형": "공공시설-공공청사", "주소": "경기도 성남시 중원구 광명로 345", "시간": "09:00 ~ 18:00 (월-금)", "구분": "누구나 이용가능" }, "geometry": { "type": "Point", "coordinates": [ 127.164035069055473, 37.44623738455077 ] } },
{ "type": "Feature", "properties": { "fid": 775, "시설명": "동부새마을금고상대원1동지점", "시설유형": "생활밀착민간시설-금융기관", "주소": "경기도 성남시 중원구 둔촌대로425번길 13", "시간": "09:00 ~ 16:00 (월-금)", "구분": "누구나 이용가능" }, "geometry": { "type": "Point", "coordinates": [ 127.164073520171016, 37.434288650670887 ] } },
{ "type": "Feature", "properties": { "fid": 780, "시설명": "상대원1동행정복지센터", "시설유형": "공공시설-공공청사", "주소": "경기도 성남시 중원구 둔촌대로 425", "시간": "09:00 ~ 18:00 (월-금)", "구분": "누구나 이용가능" }, "geometry": { "type": "Point", "coordinates": [ 127.164379323938448, 37.433277833750658 ] } },
{ "type": "Feature", "properties": { "fid": 769, "시설명": "제3복지회관경로당(은행2동)", "시설유형": "특정계층이용시설", "주소": "경기도 성남시 중원구 산성대로516번길 16-4", "시간": "09:00 ~ 17:00 (월-금)", "구분": "특정인 이용가능" }, "geometry": { "type": "Point", "coordinates": [ 127.164638886863628, 37.456021383280216 ] } },
{ "type": "Feature", "properties": { "fid": 756, "시설명": "동부새마을금고금광지점", "시설유형": "생활밀착민간시설-금융기관", "주소": "경기도 성남시 중원구 광명로 353", "시간": "09:00 ~ 16:00 (월-금)", "구분": "누구나 이용가능" }, "geometry": { "type": "Point", "coordinates": [ 127.164920036045316, 37.446411221285359 ] } },
{ "type": "Feature", "properties": { "fid": 782, "시설명": "상대원1동복지회관", "시설유형": "공공시설-복지문화체육", "주소": "경기도 성남시 중원구 둔촌대로425번길 44", "시간": "09:00 ~ 18:00 (월-금)", "구분": "누구나 이용가능" }, "geometry": { "type": "Point", "coordinates": [ 127.164925187756751, 37.436781130520693 ] } },
{ "type": "Feature", "properties": { "fid": 764, "시설명": "오거리경로당", "시설유형": "특정계층이용시설", "주소": "경기도 성남시 중원구 자혜로57번길 1", "시간": "09:00 ~ 17:00 (월-금)", "구분": "특정인 이용가능" }, "geometry": { "type": "Point", "coordinates": [ 127.165917070420988, 37.451103928042286 ] } },
{ "type": "Feature", "properties": { "fid": 773, "시설명": "은행2동행정복지센터", "시설유형": "공공시설-공공청사", "주소": "경기도 성남시 중원구 은이로 21", "시간": "09:00 ~ 18:00 (월-금)", "구분": "누구나 이용가능" }, "geometry": { "type": "Point", "coordinates": [ 127.166554937353681, 37.457085111619179 ] } },
{ "type": "Feature", "properties": { "fid": 772, "시설명": "은행2동제2복지회관", "시설유형": "공공시설-복지문화체육", "주소": "경기도 성남시 중원구 은이로27번길 9", "시간": "09:00 ~ 18:00 (월-금)", "구분": "누구나 이용가능" }, "geometry": { "type": "Point", "coordinates": [ 127.167604636740677, 37.457295072542152 ] } },
{ "type": "Feature", "properties": { "fid": 762, "시설명": "금광2동자혜경로당", "시설유형": "특정계층이용시설", "주소": "경기도 성남시 중원구 자혜로 80", "시간": "10:00 ~ 17:00 (월-금)", "구분": "특정인 이용가능" }, "geometry": { "type": "Point", "coordinates": [ 127.168311152050194, 37.451269512429228 ] } },
{ "type": "Feature", "properties": { "fid": 768, "시설명": "은행2동정자경로당", "시설유형": "특정계층이용시설", "주소": "경기도 성남시 중원구 은이로42번길 5", "시간": "09:00 ~ 17:00 (월-금)", "구분": "특정인 이용가능" }, "geometry": { "type": "Point", "coordinates": [ 127.168375701790225, 37.45530929375834 ] } },
{ "type": "Feature", "properties": { "fid": 766, "시설명": "동부새마을금고은행1동지점", "시설유형": "생활밀착민간시설-금융기관", "주소": "경기도 성남시 중원구 은행로 82", "시간": "09:00 ~ 16:00 (월-금)", "구분": "누구나 이용가능" }, "geometry": { "type": "Point", "coordinates": [ 127.168582881195974, 37.452095006012726 ] } },
{ "type": "Feature", "properties": { "fid": 765, "시설명": "은행1동복지회관", "시설유형": "공공시설-복지문화체육", "주소": "경기도 성남시 중원구 은행로 77", "시간": "09:00 ~ 18:00 (월-금)", "구분": "누구나 이용가능" }, "geometry": { "type": "Point", "coordinates": [ 127.16862984713886, 37.452607004037546 ] } },
{ "type": "Feature", "properties": { "fid": 763, "시설명": "은행1동행정복지센터", "시설유형": "공공시설-공공청사", "주소": "경기도 성남시 중원구 은행로 85", "시간": "09:00 ~ 18:00 (월-금)", "구분": "누구나 이용가능" }, "geometry": { "type": "Point", "coordinates": [ 127.16893418368285, 37.452040499727168 ] } },
{ "type": "Feature", "properties": { "fid": 777, "시설명": "NH농협은행황송지점", "시설유형": "생활밀착민간시설-금융기관", "주소": "경기도 성남시 중원구 금상로 134", "시간": "09:00 ~ 16:00 (월-금)", "구분": "누구나 이용가능" }, "geometry": { "type": "Point", "coordinates": [ 127.169265404577516, 37.440439072958263 ] } },
{ "type": "Feature", "properties": { "fid": 779, "시설명": "중원구보건소", "시설유형": "공공시설-공공청사", "주소": "경기도 성남시 중원구 금상로 137", "시간": "09:00 ~ 18:00 (월-금)", "구분": "누구나 이용가능" }, "geometry": { "type": "Point", "coordinates": [ 127.170471825909445, 37.441971926105843 ] } },
{ "type": "Feature", "properties": { "fid": 767, "시설명": "사회복지회관경로당", "시설유형": "특정계층이용시설", "주소": "경기도 성남시 중원구 순환로379번길 21", "시간": "09:00 ~ 17:00 (월-금)", "구분": "특정인 이용가능" }, "geometry": { "type": "Point", "coordinates": [ 127.171246540450028, 37.4565878994607 ] } },
{ "type": "Feature", "properties": { "fid": 778, "시설명": "NH농협은행성남금융센터", "시설유형": "생활밀착민간시설-금융기관", "주소": "경기도 성남시 중원구 사기막골로 99", "시간": "09:00 ~ 16:00 (월-금)", "구분": "누구나 이용가능" }, "geometry": { "type": "Point", "coordinates": [ 127.174174742570429, 37.43868645955294 ] } },
{ "type": "Feature", "properties": { "fid": 783, "시설명": "상대원1동우정경로당", "시설유형": "특정계층이용시설", "주소": "경기도 성남시 중원구 금상로96번길 35-1", "시간": "09:00 ~ 17:00 (월-금)", "구분": "특정인 이용가능" }, "geometry": { "type": "Point", "coordinates": [ 127.167757036652603, 37.439618365116246 ] } },
{ "type": "Feature", "properties": { "fid": 787, "시설명": "상대원3동행정복지센터", "시설유형": "공공시설-공공청사", "주소": "경기도 성남시 중원구 박석로 78", "시간": "09:00 ~ 18:00 (월-금)", "구분": "누구나 이용가능" }, "geometry": { "type": "Point", "coordinates": [ 127.165486677781232, 37.439675258174219 ] } },
{ "type": "Feature", "properties": { "fid": 791, "시설명": "상대원3동복지회관", "시설유형": "공공시설-복지문화체육", "주소": "경기도 성남시 중원구 박석로80번길 10", "시간": "09:00 ~ 18:00 (월-금)", "구분": "누구나 이용가능" }, "geometry": { "type": "Point", "coordinates": [ 127.166231013371316, 37.439954534566468 ] } },
{ "type": "Feature", "properties": { "fid": 792, "시설명": "동부새마을금고상대원3동지점", "시설유형": "생활밀착민간시설-금융기관", "주소": "경기도 성남시 중원구 박석로 90", "시간": "09:00 ~ 16:00 (월-금)", "구분": "누구나 이용가능" }, "geometry": { "type": "Point", "coordinates": [ 127.164773473474995, 37.440692802451181 ] } },
{ "type": "Feature", "properties": { "fid": 711, "시설명": "단대동행정복지센터", "시설유형": "공공시설-공공청사", "주소": "경기도 성남시 수정구 희망로506번길 21", "시간": "09:00 ~ 18:00 (월-금)", "구분": "누구나 이용가능" }, "geometry": { "type": "Point", "coordinates": [ 127.155468622474217, 37.449237667843065 ] } },
{ "type": "Feature", "properties": { "fid": 682, "시설명": "수정새마을금고수정지점", "시설유형": "생활밀착민간시설-금융기관", "주소": "경기도 성남시 수정구 수정로 282", "시간": "09:00 ~ 16:00 (월-금)", "구분": "누구나 이용가능" }, "geometry": { "type": "Point", "coordinates": [ 127.146523953025223, 37.449542303870992 ] } },
{ "type": "Feature", "properties": { "fid": 680, "시설명": "NH농협은행수정구청(출)", "시설유형": "생활밀착민간시설-금융기관", "주소": "경기도 성남시 수정구 수정로 283", "시간": "09:00 ~ 16:00 (월-금)", "구분": "누구나 이용가능" }, "geometry": { "type": "Point", "coordinates": [ 127.1458243333159, 37.450389526630033 ] } },
{ "type": "Feature", "properties": { "fid": 681, "시설명": "수정구청", "시설유형": "공공시설-공공청사", "주소": "경기도 성남시 수정구 수정로 283", "시간": "09:00 ~ 18:00 (월-금)", "구분": "누구나 이용가능" }, "geometry": { "type": "Point", "coordinates": [ 127.1458243333159, 37.450389526630033 ] } },
{ "type": "Feature", "properties": { "fid": 679, "시설명": "신흥2동행정복지센터", "시설유형": "공공시설-공공청사", "주소": "경기도 성남시 수정구 신흥동 840", "시간": "09:00 ~ 18:00 (월-금)", "구분": "누구나 이용가능" }, "geometry": { "type": "Point", "coordinates": [ 127.148335481252786, 37.450784459886677 ] } },
{ "type": "Feature", "properties": { "fid": 716, "시설명": "산성동행정복지센터", "시설유형": "공공시설-공공청사", "주소": "경기도 성남시 수정구 수정남로 261", "시간": "09:00 ~ 18:00 (월-금)", "구분": "누구나 이용가능" }, "geometry": { "type": "Point", "coordinates": [ 127.150114373324143, 37.452279948842268 ] } },
{ "type": "Feature", "properties": { "fid": 714, "시설명": "산성동복지회관", "시설유형": "공공시설-복지문화체육", "주소": "경기도 성남시 수정구 수정남로 269", "시간": "09:00 ~ 18:00 (월-금)", "구분": "누구나 이용가능" }, "geometry": { "type": "Point", "coordinates": [ 127.150501283314171, 37.452955817307867 ] } },
{ "type": "Feature", "properties": { "fid": 712, "시설명": "NH농협은행은행동지점", "시설유형": "생활밀착민간시설-금융기관", "주소": "경기도 성남시 수정구 산성대로 469", "시간": "09:00 ~ 16:00 (월-금)", "구분": "누구나 이용가능" }, "geometry": { "type": "Point", "coordinates": [ 127.160332403084126, 37.45366210770522 ] } },
{ "type": "Feature", "properties": { "fid": 713, "시설명": "제일새마을금고논골지점", "시설유형": "생활밀착민간시설-금융기관", "주소": "경기도 성남시 수정구 논골로 5", "시간": "09:00 ~ 16:00 (월-금)", "구분": "누구나 이용가능" }, "geometry": { "type": "Point", "coordinates": [ 127.160489737206319, 37.45466664733069 ] } },
{ "type": "Feature", "properties": { "fid": 718, "시설명": "양지동행정복지센터", "시설유형": "공공시설-공공청사", "주소": "경기도 성남시 수정구 산성대로 483", "시간": "09:00 ~ 18:00 (월-금)", "구분": "누구나 이용가능" }, "geometry": { "type": "Point", "coordinates": [ 127.160938717890275, 37.454882758553985 ] } },
{ "type": "Feature", "properties": { "fid": 715, "시설명": "제일새마을금고산성뉴타운지점", "시설유형": "생활밀착민간시설-금융기관", "주소": "경기도 성남시 수정구 수정로 354", "시간": "09:00 ~ 16:00 (월-금)", "구분": "누구나 이용가능" }, "geometry": { "type": "Point", "coordinates": [ 127.150116680236835, 37.455182174969671 ] } },
{ "type": "Feature", "properties": { "fid": 710, "시설명": "단대동논골경로당", "시설유형": "특정계층이용시설", "주소": "경기도 성남시 수정구 논골로 45-4", "시간": "09:00 ~ 17:00 (월-금)", "구분": "특정인 이용가능" }, "geometry": { "type": "Point", "coordinates": [ 127.158443653263319, 37.457828037257762 ] } },
{ "type": "Feature", "properties": { "fid": 717, "시설명": "양지동제1복지회관", "시설유형": "공공시설-복지문화체육", "주소": "경기도 성남시 수정구 양지로35번길 4", "시간": "09:00 ~ 18:00 (월-금)", "구분": "누구나 이용가능" }, "geometry": { "type": "Point", "coordinates": [ 127.162582334771017, 37.45812023898673 ] } },
{ "type": "Feature", "properties": { "fid": 721, "시설명": "복정도서관", "시설유형": "공공시설-복지문화체육", "주소": "경기도 성남시 수정구 복정로118번길 7", "시간": "07:00 ~ 23:00 (월-목)", "구분": "누구나 이용가능" }, "geometry": { "type": "Point", "coordinates": [ 127.127871814729275, 37.463767453806575 ] } },
{ "type": "Feature", "properties": { "fid": 720, "시설명": "복정동행정복지센터", "시설유형": "공공시설-공공청사", "주소": "경기도 성남시 수정구 복정로 144", "시간": "09:00 ~ 18:00 (월-금)", "구분": "누구나 이용가능" }, "geometry": { "type": "Point", "coordinates": [ 127.127110235135504, 37.465840258737344 ] } },
{ "type": "Feature", "properties": { "fid": 725, "시설명": "북부새마을금고위례지점", "시설유형": "생활밀착민간시설-금융기관", "주소": "경기도 성남시 수정구 위례광장로 27", "시간": "09:00 ~ 16:00 (월-금)", "구분": "누구나 이용가능" }, "geometry": { "type": "Point", "coordinates": [ 127.140068145240889, 37.467054132818099 ] } },
{ "type": "Feature", "properties": { "fid": 719, "시설명": "북부새마을금고본점", "시설유형": "생활밀착민간시설-금융기관", "주소": "경기도 성남시 수정구 복정로 159", "시간": "09:00 ~ 16:00 (월-금)", "구분": "누구나 이용가능" }, "geometry": { "type": "Point", "coordinates": [ 127.126899024340005, 37.467175563310064 ] } },
{ "type": "Feature", "properties": { "fid": 722, "시설명": "NH농협성남위례지점", "시설유형": "생활밀착민간시설-금융기관", "주소": "경기도 성남시 수정구 위례광장로 322", "시간": "09:00 ~ 16:00 (월-금)", "구분": "누구나 이용가능" }, "geometry": { "type": "Point", "coordinates": [ 127.142631162685575, 37.471744829152279 ] } },
{ "type": "Feature", "properties": { "fid": 724, "시설명": "수정새마을금고위례중앙역지점", "시설유형": "생활밀착민간시설-금융기관", "주소": "경기도 성남시 수정구 위례광장로 320", "시간": "09:00 ~ 16:00 (월-금)", "구분": "누구나 이용가능" }, "geometry": { "type": "Point", "coordinates": [ 127.14266287354512, 37.472256875980122 ] } },
{ "type": "Feature", "properties": { "fid": 723, "시설명": "수정새마을금고위례지점", "시설유형": "생활밀착민간시설-금융기관", "주소": "경기도 성남시 수정구 위례동로 141", "시간": "09:00 ~ 16:00 (월-금)", "구분": "누구나 이용가능" }, "geometry": { "type": "Point", "coordinates": [ 127.150097683162599, 37.472672854679921 ] } },
{ "type": "Feature", "properties": { "fid": 726, "시설명": "성남농협위례창곡지점", "시설유형": "생활밀착민간시설-금융기관", "주소": "경기도 성남시 수정구 위례광장로 19", "시간": "09:00 ~ 16:00 (월-금)", "구분": "누구나 이용가능" }, "geometry": { "type": "Point", "coordinates": [ 127.140436331452875, 37.465691675269738 ] } },
{ "type": "Feature", "properties": { "fid": 727, "시설명": "동부새마을금고위례지점", "시설유형": "생활밀착민간시설-금융기관", "주소": "경기도 성남시 수정구 위례광장로 9-9", "시간": "09:00 ~ 16:00 (월-금)", "구분": "누구나 이용가능" }, "geometry": { "type": "Point", "coordinates": [ 127.141314935390611, 37.464674556227664 ] } },
{ "type": "Feature", "properties": { "fid": 728, "시설명": "위례동행정복지센터", "시설유형": "공공시설-공공청사", "주소": "경기도 성남시 수정구 위례순환로 125", "시간": "09:00 ~ 18:00 (월-금)", "구분": "누구나 이용가능" }, "geometry": { "type": "Point", "coordinates": [ 127.142298130557478, 37.471324773812185 ] } },
{ "type": "Feature", "properties": { "fid": 729, "시설명": "신촌동행정복지센터", "시설유형": "공공시설-공공청사", "주소": "경기도 성남시 수정구 오야로 19", "시간": "09:00 ~ 18:00 (월-금)", "구분": "누구나 이용가능" }, "geometry": { "type": "Point", "coordinates": [ 127.104506159759254, 37.454699713594472 ] } },
{ "type": "Feature", "properties": { "fid": 730, "시설명": "심곡동심곡경로당", "시설유형": "특정계층이용시설", "주소": "경기도 성남시 수정구 심곡로 35-1", "시간": "09:00 ~ 17:00 (월-금)", "구분": "특정인 이용가능" }, "geometry": { "type": "Point", "coordinates": [ 127.101284735535046, 37.449962791327501 ] } },
{ "type": "Feature", "properties": { "fid": 754, "시설명": "청학경로당", "시설유형": "특정계층이용시설", "주소": "경기도 성남시 중원구 산성대로458번길 11", "시간": "10:00 ~ 17:00 (월-금)", "구분": "특정인 이용가능" }, "geometry": { "type": "Point", "coordinates": [ 127.161564249326517, 37.452213049376304 ] } },
{ "type": "Feature", "properties": { "fid": 757, "시설명": "동부새마을금고남한산성역지점", "시설유형": "생활밀착민간시설-금융기관", "주소": "경기도 성남시 중원구 산성대로 444", "시간": "09:00 ~ 16:00 (월-금)", "구분": "누구나 이용가능" }, "geometry": { "type": "Point", "coordinates": [ 127.160123547258223, 37.451281195327503 ] } },
{ "type": "Feature", "properties": { "fid": 770, "시설명": "가인경로당", "시설유형": "특정계층이용시설", "주소": "경기도 성남시 중원구 산성대로 546-1", "시간": "09:00 ~ 17:00 (월-금)", "구분": "특정인 이용가능" }, "geometry": { "type": "Point", "coordinates": [ 127.165723773445208, 37.459247446639026 ] } },
{ "type": "Feature", "properties": { "fid": 771, "시설명": "동부새마을금고본점", "시설유형": "생활밀착민간시설-금융기관", "주소": "경기도 성남시 중원구 산성대로 518", "시간": "09:00 ~ 16:00 (월-금)", "구분": "누구나 이용가능" }, "geometry": { "type": "Point", "coordinates": [ 127.163858649516285, 37.457037017718498 ] } },
{ "type": "Feature", "properties": { "fid": 774, "시설명": "은행2동제1복지회관", "시설유형": "공공시설-복지문화체육", "주소": "경기도 성남시 중원구 산성대로604번길 6", "시간": "09:00 ~ 18:00 (월-금)", "구분": "누구나 이용가능" }, "geometry": { "type": "Point", "coordinates": [ 127.170236031256877, 37.462542737811248 ] } },
{ "type": "Feature", "properties": { "fid": 776, "시설명": "NH농협은행성남하이테크밸리지점", "시설유형": "생활밀착민간시설-금융기관", "주소": "경기도 성남시 중원구 순환로 165", "시간": "09:00 ~ 16:00 (월-금)", "구분": "누구나 이용가능" }, "geometry": { "type": "Point", "coordinates": [ 127.177991431889481, 37.438613428456122 ] } },
{ "type": "Feature", "properties": { "fid": 781, "시설명": "사기막골경로당", "시설유형": "특정계층이용시설", "주소": "경기도 성남시 중원구 사기막골로199번길 9", "시간": "09:00 ~ 17:00 (월-금)", "구분": "특정인 이용가능" }, "geometry": { "type": "Point", "coordinates": [ 127.180224781221838, 37.445519919372224 ] } },
{ "type": "Feature", "properties": { "fid": 645, "시설명": "NH농협은행서판교지점", "시설유형": "생활밀착민간시설-금융기관", "주소": "경기도 성남시 분당구 운중로 242", "시간": "09:00 ~ 16:00 (월-금)", "구분": "누구나 이용가능" }, "geometry": { "type": "Point", "coordinates": [ 127.089706930623521, 37.389187178376382 ] } },
{ "type": "Feature", "properties": { "fid": 643, "시설명": "판교도서관", "시설유형": "공공시설-복지문화체육", "주소": "경기도 성남시 분당구 판교공원로4길 27", "시간": "07:00 ~ 23:00 (월-일)", "구분": "누구나 이용가능" }, "geometry": { "type": "Point", "coordinates": [ 127.090879385289824, 37.396347054826123 ] } },
{ "type": "Feature", "properties": { "fid": 658, "시설명": "금곡동경로당", "시설유형": "특정계층이용시설", "주소": "경기도 성남시 분당구 쇳골로 35-1", "시간": "09:00 ~ 17:00 (월-금)", "구분": "특정인 이용가능" }, "geometry": { "type": "Point", "coordinates": [ 127.097317686194728, 37.362732829280425 ] } },
{ "type": "Feature", "properties": { "fid": 659, "시설명": "하얀마을복지회관분관궁내동행복누리관", "시설유형": "공공시설-복지문화체육", "주소": "경기도 성남시 분당구 궁내로40번길 9", "시간": "09:00 ~ 18:00 (월-금)", "구분": "누구나 이용가능" }, "geometry": { "type": "Point", "coordinates": [ 127.097745998357695, 37.370384081532158 ] } },
{ "type": "Feature", "properties": { "fid": 644, "시설명": "낙생농협판교지점", "시설유형": "생활밀착민간시설-금융기관", "주소": "경기도 성남시 분당구 서판교로32번길 7", "시간": "09:00 ~ 16:00 (월-금)", "구분": "누구나 이용가능" }, "geometry": { "type": "Point", "coordinates": [ 127.09830799227683, 37.389943641198222 ] } },
{ "type": "Feature", "properties": { "fid": 646, "시설명": "판교동행정복지센터", "시설유형": "공공시설-공공청사", "주소": "경기도 성남시 분당구 서판교로32번길 9", "시간": "09:00 ~ 18:00 (월-금)", "구분": "누구나 이용가능" }, "geometry": { "type": "Point", "coordinates": [ 127.098694804088296, 37.389917074071583 ] } },
{ "type": "Feature", "properties": { "fid": 662, "시설명": "동원1통경로당", "시설유형": "특정계층이용시설", "주소": "경기도 성남시 분당구 동원북로 26", "시간": "09:00 ~ 17:00 (월-금)", "구분": "특정인 이용가능" }, "geometry": { "type": "Point", "coordinates": [ 127.098714352073344, 37.346164174252479 ] } },
{ "type": "Feature", "properties": { "fid": 607, "시설명": "정자1동행정복지센터", "시설유형": "공공시설-공공청사", "주소": "경기도 성남시 분당구 정자일로 159", "시간": "09:00 ~ 18:00 (월-금)", "구분": "누구나 이용가능" }, "geometry": { "type": "Point", "coordinates": [ 127.105686842406925, 37.364562174532324 ] } },
{ "type": "Feature", "properties": { "fid": 605, "시설명": "NH농협은행분당정자역지점", "시설유형": "생활밀착민간시설-금융기관", "주소": "경기도 성남시 분당구 정자일로 234", "시간": "09:00 ~ 16:00 (월-금)", "구분": "누구나 이용가능" }, "geometry": { "type": "Point", "coordinates": [ 127.106265735610393, 37.371216275943276 ] } },
{ "type": "Feature", "properties": { "fid": 598, "시설명": "낙원새마을금고정자역지점", "시설유형": "생활밀착민간시설-금융기관", "주소": "경기도 성남시 분당구 성남대로331번길 7", "시간": "09:00 ~ 16:00 (월-금)", "구분": "누구나 이용가능" }, "geometry": { "type": "Point", "coordinates": [ 127.107197502888127, 37.365443020328208 ] } },
{ "type": "Feature", "properties": { "fid": 606, "시설명": "이동노동자간이쉼터(정자)", "시설유형": "특정계층이용시설", "주소": "경기도 성남시 분당구 성남대로343번길 5", "시간": "00:00 ~ 24:00 (월-일)", "구분": "특정인 이용가능" }, "geometry": { "type": "Point", "coordinates": [ 127.107459177210515, 37.366150663214583 ] } },
{ "type": "Feature", "properties": { "fid": 604, "시설명": "동부새마을금고정자지점", "시설유형": "생활밀착민간시설-금융기관", "주소": "경기도 성남시 분당구 성남대로 385", "시간": "09:00 ~ 16:00 (월-금)", "구분": "누구나 이용가능" }, "geometry": { "type": "Point", "coordinates": [ 127.107486837965268, 37.37058494519659 ] } },
{ "type": "Feature", "properties": { "fid": 657, "시설명": "제일새마을금고미금지점", "시설유형": "생활밀착민간시설-금융기관", "주소": "경기도 성남시 분당구 성남대로 165", "시간": "09:00 ~ 16:00 (월-금)", "구분": "누구나 이용가능" }, "geometry": { "type": "Point", "coordinates": [ 127.108292300391199, 37.350839337747118 ] } },
{ "type": "Feature", "properties": { "fid": 655, "시설명": "백현동행정복지센터", "시설유형": "공공시설-공공청사", "주소": "경기도 성남시 분당구 동판교로 21", "시간": "09:00 ~ 18:00 (월-금)", "구분": "누구나 이용가능" }, "geometry": { "type": "Point", "coordinates": [ 127.110856681806766, 37.388458437011302 ] } },
{ "type": "Feature", "properties": { "fid": 661, "시설명": "벌말경로당", "시설유형": "특정계층이용시설", "주소": "경기도 성남시 분당구 미금일로86번길 24-9", "시간": "09:00 ~ 17:00 (월-금)", "구분": "특정인 이용가능" }, "geometry": { "type": "Point", "coordinates": [ 127.110984257891289, 37.34751395508011 ] } },
{ "type": "Feature", "properties": { "fid": 660, "시설명": "낙생농협미금지점", "시설유형": "생활밀착민간시설-금융기관", "주소": "경기도 성남시 분당구 돌마로 86", "시간": "09:00 ~ 16:00 (월-금)", "구분": "누구나 이용가능" }, "geometry": { "type": "Point", "coordinates": [ 127.111290005840658, 37.349711871595467 ] } },
{ "type": "Feature", "properties": { "fid": 602, "시설명": "정자동행정복지센터", "시설유형": "공공시설-공공청사", "주소": "경기도 성남시 분당구 황새울로18번길 14", "시간": "09:00 ~ 18:00 (월-금)", "구분": "누구나 이용가능" }, "geometry": { "type": "Point", "coordinates": [ 127.11153031504837, 37.361464685864945 ] } },
{ "type": "Feature", "properties": { "fid": 650, "시설명": "NH농협은행판교역지점", "시설유형": "생활밀착민간시설-금융기관", "주소": "경기도 성남시 분당구 대왕판교로606번길 41", "시간": "09:00 ~ 16:00 (월-금)", "구분": "누구나 이용가능" }, "geometry": { "type": "Point", "coordinates": [ 127.111939184698215, 37.396478184203147 ] } },
{ "type": "Feature", "properties": { "fid": 603, "시설명": "정자경로당", "시설유형": "특정계층이용시설", "주소": "경기도 성남시 분당구 황새울로116번길 19-8", "시간": "09:00 ~ 17:00 (월-금)", "구분": "특정인 이용가능" }, "geometry": { "type": "Point", "coordinates": [ 127.112360198361273, 37.371229083316223 ] } },
{ "type": "Feature", "properties": { "fid": 597, "시설명": "신기경로당", "시설유형": "특정계층이용시설", "주소": "경기도 성남시 분당구 내정로7번길 18", "시간": "09:00 ~ 17:00 (월-금)", "구분": "특정인 이용가능" }, "geometry": { "type": "Point", "coordinates": [ 127.112508062723975, 37.361180975152884 ] } },
{ "type": "Feature", "properties": { "fid": 599, "시설명": "성남농협정자지점", "시설유형": "생활밀착민간시설-금융기관", "주소": "경기도 성남시 분당구 느티로 73", "시간": "09:00 ~ 16:00 (월-금)", "구분": "누구나 이용가능" }, "geometry": { "type": "Point", "coordinates": [ 127.112768264967215, 37.368798351481509 ] } },
{ "type": "Feature", "properties": { "fid": 600, "시설명": "낙생농협신기지점", "시설유형": "생활밀착민간시설-금융기관", "주소": "경기도 성남시 분당구 정자로76번길 7", "시간": "09:00 ~ 16:00 (월-금)", "구분": "누구나 이용가능" }, "geometry": { "type": "Point", "coordinates": [ 127.113506999702125, 37.362646893573924 ] } },
{ "type": "Feature", "properties": { "fid": 653, "시설명": "중원새마을금고동판교지점", "시설유형": "생활밀착민간시설-금융기관", "주소": "경기도 성남시 분당구 대왕판교로606번길 58", "시간": "09:00 ~ 16:00 (월-금)", "구분": "누구나 이용가능" }, "geometry": { "type": "Point", "coordinates": [ 127.113637861383637, 37.395376098901167 ] } },
{ "type": "Feature", "properties": { "fid": 601, "시설명": "수정새마을금고정자동지점", "시설유형": "생활밀착민간시설-금융기관", "주소": "경기도 성남시 분당구 내정로17번길 2", "시간": "09:00 ~ 16:00 (월-금)", "구분": "누구나 이용가능" }, "geometry": { "type": "Point", "coordinates": [ 127.114475103640984, 37.361939348338446 ] } },
{ "type": "Feature", "properties": { "fid": 656, "시설명": "낙생농협백현지점", "시설유형": "생활밀착민간시설-금융기관", "주소": "경기도 성남시 분당구 동판교로 59", "시간": "09:00 ~ 16:00 (월-금)", "구분": "누구나 이용가능" }, "geometry": { "type": "Point", "coordinates": [ 127.115009154096924, 37.388375141262998 ] } },
{ "type": "Feature", "properties": { "fid": 608, "시설명": "정자2동행정복지센터", "시설유형": "공공시설-공공청사", "주소": "경기도 성남시 분당구 내정로 66", "시간": "09:00 ~ 18:00 (월-금)", "구분": "누구나 이용가능" }, "geometry": { "type": "Point", "coordinates": [ 127.115164607100382, 37.36600742030361 ] } },
{ "type": "Feature", "properties": { "fid": 663, "시설명": "구미도서관", "시설유형": "공공시설-복지문화체육", "주소": "경기도 성남시 분당구 미금일로 105", "시간": "07:00 ~ 23:00 (월-목)", "구분": "누구나 이용가능" }, "geometry": { "type": "Point", "coordinates": [ 127.107713360317533, 37.345431297457317 ] } },
{ "type": "Feature", "properties": { "fid": 664, "시설명": "구미1동행정복지센터", "시설유형": "공공시설-공공청사", "주소": "경기도 성남시 분당구 돌마로90번길 8", "시간": "09:00 ~ 18:00 (월-금)", "구분": "누구나 이용가능" }, "geometry": { "type": "Point", "coordinates": [ 127.111777204751419, 37.349303639150499 ] } },
{ "type": "Feature", "properties": { "fid": 665, "시설명": "하얀마을복지회관", "시설유형": "공공시설-복지문화체육", "주소": "경기도 성남시 분당구 금곡로25번길 10", "시간": "09:00 ~ 18:00 (월-금)", "구분": "누구나 이용가능" }, "geometry": { "type": "Point", "coordinates": [ 127.112306185410318, 37.344539848318263 ] } },
{ "type": "Feature", "properties": { "fid": 666, "시설명": "구미동행정복지센터", "시설유형": "공공시설-공공청사", "주소": "경기도 성남시 분당구 구미로 130", "시간": "09:00 ~ 18:00 (월-금)", "구분": "누구나 이용가능" }, "geometry": { "type": "Point", "coordinates": [ 127.122633846063891, 37.340210380899748 ] } },
{ "type": "Feature", "properties": { "fid": 667, "시설명": "낙생농협오리역지점", "시설유형": "생활밀착민간시설-금융기관", "주소": "경기도 성남시 분당구 성남대로 30", "시간": "09:00 ~ 16:00 (월-금)", "구분": "누구나 이용가능" }, "geometry": { "type": "Point", "coordinates": [ 127.109421999197494, 37.338415513218116 ] } },
{ "type": "Feature", "properties": { "fid": 668, "시설명": "NH농협은행성남유통센터(출)", "시설유형": "생활밀착민간시설-금융기관", "주소": "경기도 성남시 분당구 성남대로43번길 11", "시간": "09:00 ~ 16:00 (월-금)", "구분": "누구나 이용가능" }, "geometry": { "type": "Point", "coordinates": [ 127.10724301832218, 37.337929054910546 ] } },
{ "type": "Feature", "properties": { "fid": 669, "시설명": "운중1통경로당", "시설유형": "특정계층이용시설", "주소": "경기도 성남시 분당구 하오개로 361", "시간": "09:00 ~ 17:00 (월-금)", "구분": "특정인 이용가능" }, "geometry": { "type": "Point", "coordinates": [ 127.059202755229663, 37.391759002715354 ] } },
{ "type": "Feature", "properties": { "fid": 670, "시설명": "운중동행정복지센터", "시설유형": "공공시설-공공청사", "주소": "경기도 성남시 분당구 운중로138번길 10", "시간": "09:00 ~ 18:00 (월-금)", "구분": "누구나 이용가능" }, "geometry": { "type": "Point", "coordinates": [ 127.077900339121044, 37.390626174509983 ] } },
{ "type": "Feature", "properties": { "fid": 671, "시설명": "낙생농협운중지점", "시설유형": "생활밀착민간시설-금융기관", "주소": "경기도 성남시 분당구 운중로 131", "시간": "09:00 ~ 16:00 (월-금)", "구분": "누구나 이용가능" }, "geometry": { "type": "Point", "coordinates": [ 127.077782033233078, 37.391951384031316 ] } },
{ "type": "Feature", "properties": { "fid": 672, "시설명": "중원새마을금고서판교지점", "시설유형": "생활밀착민간시설-금융기관", "주소": "경기도 성남시 분당구 운중로 176", "시간": "09:00 ~ 16:00 (월-금)", "구분": "누구나 이용가능" }, "geometry": { "type": "Point", "coordinates": [ 127.082611318413925, 37.390943793082684 ] } },
{ "type": "Feature", "properties": { "fid": 673, "시설명": "동부새마을금고판교지점", "시설유형": "생활밀착민간시설-금융기관", "주소": "경기도 성남시 분당구 운중로 117", "시간": "09:00 ~ 16:00 (월-금)", "구분": "누구나 이용가능" }, "geometry": { "type": "Point", "coordinates": [ 127.076367025621067, 37.392052727430816 ] } },
{ "type": "Feature", "properties": { "fid": 609, "시설명": "분당도서관", "시설유형": "공공시설-복지문화체육", "주소": "경기도 성남시 분당구 불정로 110", "시간": "07:00 ~ 23:00 (화-일)", "구분": "누구나 이용가능" }, "geometry": { "type": "Point", "coordinates": [ 127.116649567169276, 37.358165781053124 ] } },
{ "type": "Feature", "properties": { "fid": 611, "시설명": "정자전원마을경로당", "시설유형": "특정계층이용시설", "주소": "경기도 성남시 분당구 불곡로13번길 6", "시간": "09:00 ~ 17:00 (월-금)", "구분": "특정인 이용가능" }, "geometry": { "type": "Point", "coordinates": [ 127.124480376068774, 37.359222540943271 ] } },
{ "type": "Feature", "properties": { "fid": 610, "시설명": "정자3동행정복지센터", "시설유형": "공공시설-공공청사", "주소": "경기도 성남시 분당구 돌마로 242", "시간": "09:00 ~ 18:00 (월-금)", "구분": "누구나 이용가능" }, "geometry": { "type": "Point", "coordinates": [ 127.119457811025327, 37.360789019047857 ] } },
{ "type": "Feature", "properties": { "fid": 595, "시설명": "녹색경로당", "시설유형": "특정계층이용시설", "주소": "경기도 성남시 분당구 발이봉로 17", "시간": "09:00 ~ 17:00 (월-금)", "구분": "특정인 이용가능" }, "geometry": { "type": "Point", "coordinates": [ 127.12818946223112, 37.364721760833753 ] } },
{ "type": "Feature", "properties": { "fid": 596, "시설명": "제일새마을금고분당지점", "시설유형": "생활밀착민간시설-금융기관", "주소": "경기도 성남시 분당구 불정로 258", "시간": "09:00 ~ 16:00 (월-금)", "구분": "누구나 이용가능" }, "geometry": { "type": "Point", "coordinates": [ 127.127159300899606, 37.366623973437029 ] } },
{ "type": "Feature", "properties": { "fid": 594, "시설명": "수내3동행정복지센터", "시설유형": "공공시설-공공청사", "주소": "경기도 성남시 분당구 돌마로356번길 43", "시간": "09:00 ~ 18:00 (월-금)", "구분": "누구나 이용가능" }, "geometry": { "type": "Point", "coordinates": [ 127.126072497077431, 37.366857491550853 ] } },
{ "type": "Feature", "properties": { "fid": 587, "시설명": "장안경로당", "시설유형": "특정계층이용시설", "주소": "경기도 성남시 분당구 분당로311번길 10-3", "시간": "09:00 ~ 17:00 (월-금)", "구분": "특정인 이용가능" }, "geometry": { "type": "Point", "coordinates": [ 127.142714159487113, 37.367550145307433 ] } },
{ "type": "Feature", "properties": { "fid": 585, "시설명": "분당동행정복지센터", "시설유형": "공공시설-공공청사", "주소": "경기도 성남시 분당구 불정로 312", "시간": "09:00 ~ 18:00 (월-금)", "구분": "누구나 이용가능" }, "geometry": { "type": "Point", "coordinates": [ 127.131015794250686, 37.370177893103218 ] } },
{ "type": "Feature", "properties": { "fid": 592, "시설명": "수내2동행정복지센터", "시설유형": "공공시설-공공청사", "주소": "경기도 성남시 분당구 내정로166번길 19", "시간": "09:00 ~ 18:00 (월-금)", "구분": "누구나 이용가능" }, "geometry": { "type": "Point", "coordinates": [ 127.120944443503689, 37.372268984410887 ] } },
{ "type": "Feature", "properties": { "fid": 593, "시설명": "수정새마을금고파크타운지점", "시설유형": "생활밀착민간시설-금융기관", "주소": "경기도 성남시 분당구 내정로 172", "시간": "09:00 ~ 16:00 (월-금)", "구분": "누구나 이용가능" }, "geometry": { "type": "Point", "coordinates": [ 127.119963613501099, 37.373595345857865 ] } },
{ "type": "Feature", "properties": { "fid": 591, "시설명": "NH농협은행분당수내동지점", "시설유형": "생활밀착민간시설-금융기관", "주소": "경기도 성남시 분당구 내정로 167", "시간": "09:00 ~ 16:00 (월-금)", "구분": "누구나 이용가능" }, "geometry": { "type": "Point", "coordinates": [ 127.119152906025164, 37.373981835887086 ] } },
{ "type": "Feature", "properties": { "fid": 622, "시설명": "낙원새마을금고효자촌지점", "시설유형": "생활밀착민간시설-금융기관", "주소": "경기도 성남시 분당구 불정로 379", "시간": "09:00 ~ 16:00 (월-금)", "구분": "누구나 이용가능" }, "geometry": { "type": "Point", "coordinates": [ 127.136425777212651, 37.374434609822181 ] } },
{ "type": "Feature", "properties": { "fid": 623, "시설명": "NH농협은행효자촌지점", "시설유형": "생활밀착민간시설-금융기관", "주소": "경기도 성남시 분당구 돌마로476번길 41", "시간": "09:00 ~ 16:00 (월-금)", "구분": "누구나 이용가능" }, "geometry": { "type": "Point", "coordinates": [ 127.136122837314389, 37.374538724607191 ] } },
{ "type": "Feature", "properties": { "fid": 586, "시설명": "양지경로당", "시설유형": "특정계층이용시설", "주소": "경기도 성남시 분당구 서현로421번길 7", "시간": "09:00 ~ 18:00 (월-금)", "구분": "특정인 이용가능" }, "geometry": { "type": "Point", "coordinates": [ 127.144213860889465, 37.375175816321118 ] } },
{ "type": "Feature", "properties": { "fid": 589, "시설명": "수내1동행정복지센터", "시설유형": "공공시설-공공청사", "주소": "경기도 성남시 분당구 내정로173번길 21", "시간": "09:00 ~ 18:00 (월-금)", "구분": "누구나 이용가능" }, "geometry": { "type": "Point", "coordinates": [ 127.118046685492644, 37.375502406754826 ] } },
{ "type": "Feature", "properties": { "fid": 624, "시설명": "서현2동행정복지센터", "시설유형": "공공시설-공공청사", "주소": "경기도 성남시 분당구 돌마로476번길 17", "시간": "09:00 ~ 18:00 (월-금)", "구분": "누구나 이용가능" }, "geometry": { "type": "Point", "coordinates": [ 127.134512608344266, 37.376000348377794 ] } },
{ "type": "Feature", "properties": { "fid": 615, "시설명": "수정새마을금고시범단지지점", "시설유형": "생활밀착민간시설-금융기관", "주소": "경기도 성남시 분당구 돌마로 481", "시간": "09:00 ~ 16:00 (월-금)", "구분": "누구나 이용가능" }, "geometry": { "type": "Point", "coordinates": [ 127.132872495571931, 37.377736551843341 ] } },
{ "type": "Feature", "properties": { "fid": 590, "시설명": "NH농협은행분당구청(출)", "시설유형": "생활밀착민간시설-금융기관", "주소": "경기도 성남시 분당구 분당로 50", "시간": "09:00 ~ 16:00 (월-금)", "구분": "누구나 이용가능" }, "geometry": { "type": "Point", "coordinates": [ 127.119174437863933, 37.38278260951467 ] } },
{ "type": "Feature", "properties": { "fid": 588, "시설명": "분당구청", "시설유형": "공공시설-공공청사", "주소": "경기도 성남시 분당구 분당로 50", "시간": "09:00 ~ 21:00 (월-일)", "구분": "누구나 이용가능" }, "geometry": { "type": "Point", "coordinates": [ 127.119174437863933, 37.38278260951467 ] } },
{ "type": "Feature", "properties": { "fid": 620, "시설명": "서현1동행정복지센터", "시설유형": "공공시설-공공청사", "주소": "경기도 성남시 분당구 중앙공원로39번길 35", "시간": "09:00 ~ 18:00 (월-금)", "구분": "누구나 이용가능" }, "geometry": { "type": "Point", "coordinates": [ 127.126063036789461, 37.382896066745111 ] } },
{ "type": "Feature", "properties": { "fid": 617, "시설명": "율동경로당", "시설유형": "특정계층이용시설", "주소": "경기도 성남시 분당구 문정로 150", "시간": "09:00 ~ 17:00 (월-금)", "구분": "특정인 이용가능" }, "geometry": { "type": "Point", "coordinates": [ 127.151112318641523, 37.383123532053752 ] } },
{ "type": "Feature", "properties": { "fid": 621, "시설명": "서현도서관", "시설유형": "공공시설-복지문화체육", "주소": "경기도 성남시 분당구 중앙공원로 77", "시간": "07:00 ~ 23:00 (월-일)", "구분": "누구나 이용가능" }, "geometry": { "type": "Point", "coordinates": [ 127.132513860091592, 37.383533888652238 ] } },
{ "type": "Feature", "properties": { "fid": 612, "시설명": "NH농협은행금융PLUS분당센터", "시설유형": "생활밀착민간시설-금융기관", "주소": "경기도 성남시 분당구 분당로53번길 3", "시간": "09:00 ~ 16:00 (월-금)", "구분": "누구나 이용가능" }, "geometry": { "type": "Point", "coordinates": [ 127.120880351943484, 37.383574848560762 ] } },
{ "type": "Feature", "properties": { "fid": 619, "시설명": "수정새마을금고서현역지점", "시설유형": "생활밀착민간시설-금융기관", "주소": "경기도 성남시 분당구 중앙공원로39번길 49", "시간": "09:00 ~ 16:00 (월-금)", "구분": "누구나 이용가능" }, "geometry": { "type": "Point", "coordinates": [ 127.124779986310941, 37.383831841676162 ] } },
{ "type": "Feature", "properties": { "fid": 616, "시설명": "서현동경로당", "시설유형": "특정계층이용시설", "주소": "경기도 성남시 분당구 새마을로1번길 3", "시간": "09:00 ~ 17:00 (월-금)", "구분": "특정인 이용가능" }, "geometry": { "type": "Point", "coordinates": [ 127.13051098922007, 37.384498538312037 ] } },
{ "type": "Feature", "properties": { "fid": 618, "시설명": "(주)페퍼저축은행본점영업부", "시설유형": "생활밀착민간시설-금융기관", "주소": "경기도 성남시 분당구 황새울로 340", "시간": "09:00 ~ 16:00 (월-금)", "구분": "누구나 이용가능" }, "geometry": { "type": "Point", "coordinates": [ 127.122851060733467, 37.385909493179703 ] } },
{ "type": "Feature", "properties": { "fid": 613, "시설명": "NH농협은행서현아이원지점", "시설유형": "생활밀착민간시설-금융기관", "주소": "경기도 성남시 분당구 서현로 170", "시간": "09:00 ~ 16:00 (월-금)", "구분": "누구나 이용가능" }, "geometry": { "type": "Point", "coordinates": [ 127.122500289752068, 37.388925034369763 ] } },
{ "type": "Feature", "properties": { "fid": 614, "시설명": "제일새마을금고서현지점", "시설유형": "생활밀착민간시설-금융기관", "주소": "경기도 성남시 분당구 서현로 170", "시간": "09:00 ~ 16:00 (월-금)", "구분": "누구나 이용가능" }, "geometry": { "type": "Point", "coordinates": [ 127.122500289752068, 37.388925034369763 ] } },
{ "type": "Feature", "properties": { "fid": 629, "시설명": "이매1통경로당", "시설유형": "특정계층이용시설", "주소": "경기도 성남시 분당구 이매로89번길 50", "시간": "09:00 ~ 17:00 (월-금)", "구분": "특정인 이용가능" }, "geometry": { "type": "Point", "coordinates": [ 127.133201491898319, 37.393371456131383 ] } },
{ "type": "Feature", "properties": { "fid": 625, "시설명": "수정새마을금고이매역지점", "시설유형": "생활밀착민간시설-금융기관", "주소": "경기도 성남시 분당구 이매로 47", "시간": "09:00 ~ 16:00 (월-금)", "구분": "누구나 이용가능" }, "geometry": { "type": "Point", "coordinates": [ 127.126113520783775, 37.395017912839918 ] } }
]
}
