{
"type": "FeatureCollection",
"name": "dust",
"crs": { "type": "name", "properties": { "name": "urn:ogc:def:crs:OGC:1.3:CRS84" } },
"features": [
{ "type": "Feature", "properties": { "fid": 6170, "사업자명(상호)": "성산종합건설(주)", "공사장명": "위례호반써밋에비뉴 도장공사", "주소": "경기도 성남시 수정구 창곡동 515 위례 호반써밋 에비뉴", "설치(공사)종료일": "2025-06-30", "사업명": "건설업" }, "geometry": { "type": "Point", "coordinates": [ 127.152387796272549, 37.472681656544516 ] } },
{ "type": "Feature", "properties": { "fid": 6147, "사업자명(상호)": "주 하나종합건설(주)", "공사장명": "도촌동 택시공동 차고지", "주소": "경기도 성남시 중원구 도촌동 17 외 1필지", "설치(공사)종료일": "2025-04-30", "사업명": "건설업" }, "geometry": { "type": "Point", "coordinates": [ 127.154312683251959, 37.420088698795659 ] } },
{ "type": "Feature", "properties": { "fid": 6165, "사업자명(상호)": "금호건설㈜", "공사장명": "야탑동 공공분양주택 건립사업", "주소": "경기도 성남시 분당구 야탑동 134-1 등 7필지", "설치(공사)종료일": "2025-06-29", "사업명": "건설업" }, "geometry": { "type": "Point", "coordinates": [ 127.155068104665204, 37.407689016516777 ] } },
{ "type": "Feature", "properties": { "fid": 6161, "사업자명(상호)": "더다움종합건설(주)", "공사장명": "금광동 3703 근린생활시설 신축공사", "주소": "경기도 성남시 금광동 3703번지", "설치(공사)종료일": "2025-06-15", "사업명": "건설업" }, "geometry": { "type": "Point", "coordinates": [ 127.161596204977059, 37.445450252088889 ] } },
{ "type": "Feature", "properties": { "fid": 6156, "사업자명(상호)": "이에스종합건설(주)", "공사장명": "은행동 복합공사 신축공사", "주소": "성남시 중원구 은행동 663-9", "설치(공사)종료일": "2025-05-31", "사업명": "건설업" }, "geometry": { "type": "Point", "coordinates": [ 127.167801717700598, 37.460879388884386 ] } },
{ "type": "Feature", "properties": { "fid": 6163, "사업자명(상호)": "주식회사 대기토건", "공사장명": "중원구 상대원동 442-13 ~ 440번지 노후 상수도관 교체공사", "주소": "중원구 상대원동 442-13 ~ 440번지 일원", "설치(공사)종료일": "2025-06-27", "사업명": "건설업" }, "geometry": { "type": "Point", "coordinates": [ 127.174584729926593, 37.431680855755033 ] } },
{ "type": "Feature", "properties": { "fid": 6191, "사업자명(상호)": "중일건설(주)", "공사장명": "하이콘(주) 아파트형공장 신축공사", "주소": "경기도 성남시 중원구 상대원동 138-3", "설치(공사)종료일": "2025-08-31", "사업명": "건설업" }, "geometry": { "type": "Point", "coordinates": [ 127.17504359689579, 37.439865021998472 ] } },
{ "type": "Feature", "properties": { "fid": 6196, "사업자명(상호)": "(주)아우리", "공사장명": "진흥더블파크아파트 내외부 균열보수 및 재도장 공사", "주소": "경기도 성남시 수정구 단대로 23번길 10", "설치(공사)종료일": "2025-09-10", "사업명": null }, "geometry": { "type": "Point", "coordinates": [ 127.156491270956025, 37.452356967656783 ] } },
{ "type": "Feature", "properties": { "fid": 6199, "사업자명(상호)": "(주)중앙종합건설", "공사장명": "성남 센트럴비즈타워 지식산업센터 3차 신축공사", "주소": "경기도 성남시 중원구 상대원동 333-5", "설치(공사)종료일": "2025-09-20", "사업명": "건설업" }, "geometry": { "type": "Point", "coordinates": [ 127.174828438320844, 37.432844582775218 ] } },
{ "type": "Feature", "properties": { "fid": 6201, "사업자명(상호)": "비비씨건설(주)", "공사장명": "원도심 대원공원 내 테마공원 조성공사(1구간)", "주소": "경기도 성남시 중원구 하대원동 187-2번지 일원", "설치(공사)종료일": "2025-09-25", "사업명": "건설업" }, "geometry": { "type": "Point", "coordinates": [ 127.152849897408871, 37.434531508717996 ] } },
{ "type": "Feature", "properties": { "fid": 6215, "사업자명(상호)": "(주)반석씨엔디", "공사장명": "성남시 혜성유치원 신축공사", "주소": "경기도 성남시 중원구 금광동 1013", "설치(공사)종료일": "2025-10-20", "사업명": "건설업" }, "geometry": { "type": "Point", "coordinates": [ 127.166342175478363, 37.444349167050653 ] } },
{ "type": "Feature", "properties": { "fid": 6224, "사업자명(상호)": "(주)플러스종합건설", "공사장명": "중원초 그린스마트 미래학교 임대형 민자사업", "주소": "경기도 성남시 중원구 상대원동 153 중원초등학교", "설치(공사)종료일": "2025-11-16", "사업명": "건설업" }, "geometry": { "type": "Point", "coordinates": [ 127.167536957242547, 37.438265468529714 ] } },
{ "type": "Feature", "properties": { "fid": 6228, "사업자명(상호)": "(주)와이엠건영", "공사장명": "원도심 대원공원 내 테마공원 조성공사(2~3구간)", "주소": "경기도 성남시 중원구 하대원동 187-2 일원", "설치(공사)종료일": "2025-11-30", "사업명": null }, "geometry": { "type": "Point", "coordinates": [ 127.152849897408871, 37.434531508717996 ] } },
{ "type": "Feature", "properties": { "fid": 6280, "사업자명(상호)": "(주)용운토건", "공사장명": "2025년 하반기 중원구 보도정비공사", "주소": "경기도 성남시 중원구 관내", "설치(공사)종료일": "2026-05-09", "사업명": "건설업" }, "geometry": { "type": "Point", "coordinates": [ 127.169746751759121, 37.440026613666952 ] } },
{ "type": "Feature", "properties": { "fid": 6282, "사업자명(상호)": "(주)에이원종합건설", "공사장명": "상대원동 2999-5외 2필지 공동주택 신축공사", "주소": "경기도 성남시 중원구 상대원동 2999-5, 2999-36, 2999-37", "설치(공사)종료일": "2026-05-11", "사업명": "건설업" }, "geometry": { "type": "Point", "coordinates": [ 127.158912198547753, 37.437617412556939 ] } },
{ "type": "Feature", "properties": { "fid": 6283, "사업자명(상호)": "만배토건 주식회사", "공사장명": "상대원동 275~2329번지 노후 상수관 정비공사", "주소": "상대원동 275 ~ 2329번지 일원", "설치(공사)종료일": "2026-05-12", "사업명": "건설업" }, "geometry": { "type": "Point", "coordinates": [ 127.168519414262462, 37.442236740774149 ] } },
{ "type": "Feature", "properties": { "fid": 6290, "사업자명(상호)": "조양종합건설(주)", "공사장명": "상대원2구역 주택재개발정비사업 중 정비기반시설 공사", "주소": "성남시 중원구 상대원동 3910번지 일원", "설치(공사)종료일": "2026-05-31", "사업명": "건설업" }, "geometry": { "type": "Point", "coordinates": [ 127.15579092635312, 37.43741425717851 ] } },
{ "type": "Feature", "properties": { "fid": 6292, "사업자명(상호)": "(주)벨이앤씨", "공사장명": "산성변전소 옥내화 공사", "주소": "경기도 성남시 수정구 산성동 2-1", "설치(공사)종료일": "2026-05-31", "사업명": "건설업" }, "geometry": { "type": "Point", "coordinates": [ 127.153443728153363, 37.461367609045261 ] } },
{ "type": "Feature", "properties": { "fid": 6298, "사업자명(상호)": "(주)경동하우징", "공사장명": "산성유원지 숲속커뮤니티센터 건립공사", "주소": "성남시 중원구 은행동 534번지외 37필지", "설치(공사)종료일": "2026-06-25", "사업명": "건설업" }, "geometry": { "type": "Point", "coordinates": [ 127.172034133714448, 37.463305055552873 ] } },
{ "type": "Feature", "properties": { "fid": 6300, "사업자명(상호)": "디엘이앤씨(주)", "공사장명": "상대원2구역주택재개발정비사업 중 건축물해체 및 잔재처리공사", "주소": "성남시 중원구 상대원동 5430-6번지 일대", "설치(공사)종료일": "2026-06-30", "사업명": "건설업" }, "geometry": { "type": "Point", "coordinates": [ 127.158989754544919, 37.433644272482681 ] } },
{ "type": "Feature", "properties": { "fid": 6308, "사업자명(상호)": "건웅토건(주)", "공사장명": "산성구역 주택재개발정비사업 정비기반시설공사", "주소": "성남시 수정구 산성동 1336번지 일원", "설치(공사)종료일": "2026-07-31", "사업명": "건설업" }, "geometry": { "type": "Point", "coordinates": [ 127.151543197029127, 37.454462652010292 ] } },
{ "type": "Feature", "properties": { "fid": 6316, "사업자명(상호)": "구보종합건설(주)", "공사장명": "선거관리위원회 복합청사 신축공사", "주소": "경기도 성남시 수정구 창곡동 516", "설치(공사)종료일": "2026-08-22", "사업명": "건설업" }, "geometry": { "type": "Point", "coordinates": [ 127.150788810546317, 37.471660518708056 ] } },
{ "type": "Feature", "properties": { "fid": 6327, "사업자명(상호)": "새롬건설(주)", "공사장명": "성남하이테크밸리 청년친화형 아름다운거리 조성공사", "주소": "경기도 성남시 중원구 상대원동 517-14 일원", "설치(공사)종료일": "2026-10-12", "사업명": "건설업" }, "geometry": { "type": "Point", "coordinates": [ 127.168645632481045, 37.432401481857866 ] } },
{ "type": "Feature", "properties": { "fid": 6334, "사업자명(상호)": "삼광건설(주)", "공사장명": "신흥동 장애인복지관 건립공사", "주소": "경기도 성남시 수정구 신흥동 2377", "설치(공사)종료일": "2026-12-29", "사업명": "건설업" }, "geometry": { "type": "Point", "coordinates": [ 127.152823419737359, 37.448323569915942 ] } },
{ "type": "Feature", "properties": { "fid": 6349, "사업자명(상호)": "엔에프종합건설(주)", "공사장명": "성남 하이테크밸리 주차장 신축 및 소공원 건립공사", "주소": "성남시 중원구 상대원동 252-5", "설치(공사)종료일": "2027-07-10", "사업명": "건설업" }, "geometry": { "type": "Point", "coordinates": [ 127.173524903195641, 37.435200856773079 ] } },
{ "type": "Feature", "properties": { "fid": 6351, "사업자명(상호)": "주식회사 수영로지콘", "공사장명": "박물관 건립공사", "주소": "경기도 성남시 수정구 신흥동 6960", "설치(공사)종료일": "2027-07-14", "사업명": "건설업" }, "geometry": { "type": "Point", "coordinates": [ 127.1535012008313, 37.446169683483888 ] } },
{ "type": "Feature", "properties": { "fid": 6366, "사업자명(상호)": "(주)대우건설", "공사장명": "산성구역 주택재개발 정비사업", "주소": "경기도 성남시 수정구 산성동 342 일원(산성구역 주택재개발 정비사업)", "설치(공사)종료일": "2027-11-30", "사업명": "건설업" }, "geometry": { "type": "Point", "coordinates": [ 127.152771844372637, 37.4566237559741 ] } },
{ "type": "Feature", "properties": { "fid": 6367, "사업자명(상호)": "홍문종합건설(주)", "공사장명": "성남 중1구역 도시환경정비사업관련 지하연결통로 설치공사", "주소": "경기도 성남시 중원구 중앙동 2 일대", "설치(공사)종료일": "2027-11-30", "사업명": "건설업" }, "geometry": { "type": "Point", "coordinates": [ 127.151629256768814, 37.442088852515319 ] } },
{ "type": "Feature", "properties": { "fid": 6368, "사업자명(상호)": "홍문종합건설(주)", "공사장명": "성남중1구역 도시환경정비사업중 지하주차장2BL 설치", "주소": "경기도 성남시 중원구 중앙동 2번지 중앙동사거리 일대", "설치(공사)종료일": "2027-11-30", "사업명": "건설업" }, "geometry": { "type": "Point", "coordinates": [ 127.151629256768814, 37.442088852515319 ] } },
{ "type": "Feature", "properties": { "fid": 6369, "사업자명(상호)": "홍문종합건설(주)", "공사장명": "성남중1구역 도시환경정비사업중 지하주차장1BL 설치", "주소": "경기도 성남시 중원구 중앙동 2번지 성호시장사거리 일대", "설치(공사)종료일": "2027-11-30", "사업명": "건설업" }, "geometry": { "type": "Point", "coordinates": [ 127.151629256768814, 37.442088852515319 ] } },
{ "type": "Feature", "properties": { "fid": 6378, "사업자명(상호)": "(주)동영종합건설", "공사장명": "양지동4 공동주택 신축공사", "주소": "경기도 성남시 수정구 양지동 4", "설치(공사)종료일": "2027-12-31", "사업명": "건설업" }, "geometry": { "type": "Point", "coordinates": [ 127.169594873642751, 37.463423756524541 ] } },
{ "type": "Feature", "properties": { "fid": 6387, "사업자명(상호)": "(주)중앙종합건설", "공사장명": "한솔생명과학 공장 신축공사", "주소": "성남시 중원구 상대원동 138-10", "설치(공사)종료일": "2028-05-07", "사업명": "건설업" }, "geometry": { "type": "Point", "coordinates": [ 127.175813298617172, 37.440708261668235 ] } },
{ "type": "Feature", "properties": { "fid": 6391, "사업자명(상호)": "태평양이앤씨(주)", "공사장명": "성남시 하수관로 정비사업(4단계)", "주소": "중원구 금광1동 등 11개동 일원", "설치(공사)종료일": "2028-06-07", "사업명": "건설업" }, "geometry": { "type": "Point", "coordinates": [ 127.167502927899292, 37.447776478423954 ] } },
{ "type": "Feature", "properties": { "fid": 6404, "사업자명(상호)": "현대엔지니어링(주)", "공사장명": "성남 단대동 오피스텔 신축공사", "주소": "경기도 성남시 수정구 단대동 180-3", "설치(공사)종료일": "2030-10-30", "사업명": "건설업" }, "geometry": { "type": "Point", "coordinates": [ 127.156566475444819, 37.445730928492836 ] } },
{ "type": "Feature", "properties": { "fid": 6355, "사업자명(상호)": "진산건설(주)", "공사장명": "이매1동 복합청사 신축공사", "주소": "경기도 성남시 분당구 이매동 96-2 성남시농업기술센터", "설치(공사)종료일": "2027-07-27", "사업명": "건설업" }, "geometry": { "type": "Point", "coordinates": [ 127.129456600596498, 37.397322082167889 ] } },
{ "type": "Feature", "properties": { "fid": 6172, "사업자명(상호)": "명진종합건설(주)", "공사장명": "23-D-교육장 시설 공사", "주소": "경기도 성남시 분당구 이매동 6", "설치(공사)종료일": "2025-07-02", "사업명": "건설업" }, "geometry": { "type": "Point", "coordinates": [ 127.133635075963781, 37.400647171025696 ] } },
{ "type": "Feature", "properties": { "fid": 6250, "사업자명(상호)": "주식회사 푸른숲", "공사장명": "야탑동 산 112-2 일원 산사태 발생 우려지역 피해예방사업", "주소": "경기도 성남시 분당구 야탑동 산 112-2 일원", "설치(공사)종료일": "2026-01-06", "사업명": "건설업" }, "geometry": { "type": "Point", "coordinates": [ 127.149680554875886, 37.402716242593577 ] } },
{ "type": "Feature", "properties": { "fid": 6173, "사업자명(상호)": "송암조경건설 주식회사", "공사장명": "야탑천 상류부 산책고 조성사업", "주소": "성남시 분당구 야탑동 199 일원", "설치(공사)종료일": "2025-07-11", "사업명": "건설업" }, "geometry": { "type": "Point", "coordinates": [ 127.145821389092916, 37.40680192985397 ] } },
{ "type": "Feature", "properties": { "fid": 6217, "사업자명(상호)": "경창산업개발(주)", "공사장명": "탑마을주공8단지아파트 균열보수 및 재도장 공사", "주소": "경기도 성남시 분당구 야탑동 518 탑마을", "설치(공사)종료일": "2025-10-30", "사업명": "건설업" }, "geometry": { "type": "Point", "coordinates": [ 127.135157043552823, 37.408776525491234 ] } },
{ "type": "Feature", "properties": { "fid": 6193, "사업자명(상호)": "(유)보국건설", "공사장명": "지천 교량 보도 개선 공사", "주소": "경기도 성남시 분당구 야탑동 197-12", "설치(공사)종료일": "2025-09-08", "사업명": "건설업" }, "geometry": { "type": "Point", "coordinates": [ 127.137970352795648, 37.408843785122556 ] } },
{ "type": "Feature", "properties": { "fid": 6266, "사업자명(상호)": "(주)우리마을", "공사장명": "야탑문화공원 시설 개선공사", "주소": "경기도 성남시 분당구 야탑동 364-2 외 2개소", "설치(공사)종료일": "2026-03-30", "사업명": "건설업" }, "geometry": { "type": "Point", "coordinates": [ 127.129296192842219, 37.411695262059169 ] } },
{ "type": "Feature", "properties": { "fid": 6209, "사업자명(상호)": "(주)아우리", "공사장명": "매화마을청구빌라 내,외부 균열보수 및 재도장공사", "주소": "경기도 성남시 분당구 야탑동 217 매화마을청구빌라", "설치(공사)종료일": "2025-09-30", "사업명": "건설업" }, "geometry": { "type": "Point", "coordinates": [ 127.139659727825133, 37.412613342092811 ] } },
{ "type": "Feature", "properties": { "fid": 6232, "사업자명(상호)": "주식회사 레인보우테크", "공사장명": "장미마을 현대아파트 외부 균열보수 및 재도장 공사", "주소": "경기도 성남시 분당구 야탑동 334 장미마을", "설치(공사)종료일": "2025-12-05", "사업명": "건설업" }, "geometry": { "type": "Point", "coordinates": [ 127.130038546370216, 37.415667832347864 ] } },
{ "type": "Feature", "properties": { "fid": 6370, "사업자명(상호)": "(주)범한종합건설", "공사장명": "여수동 복합문화센터 건립공사", "주소": "경기도 성남시 중원구 여수동 400", "설치(공사)종료일": "2027-12-07", "사업명": "건설업" }, "geometry": { "type": "Point", "coordinates": [ 127.130365948408325, 37.419203425568575 ] } },
{ "type": "Feature", "properties": { "fid": 6314, "사업자명(상호)": "(주)삼현비앤이", "공사장명": "상적소하천 정비사업", "주소": "경기도 성남시 수정구 상적동 404 일원(상적소하천 정비사업)", "설치(공사)종료일": "2026-08-11", "사업명": "건설업" }, "geometry": { "type": "Point", "coordinates": [ 127.066960302079721, 37.425568133888831 ] } },
{ "type": "Feature", "properties": { "fid": 6336, "사업자명(상호)": "금호건설(주)", "공사장명": "성남금토 공공주택지구 조성공사", "주소": "성남시 수정구 금토동 일원", "설치(공사)종료일": "2026-12-31", "사업명": "건설업" }, "geometry": { "type": "Point", "coordinates": [ 127.069991571377187, 37.410625452998339 ] } },
{ "type": "Feature", "properties": { "fid": 6371, "사업자명(상호)": "동원건설산업 주식회사", "공사장명": "판교제3 테크노밸리 상업 1-1블럭 업무시설 신축공사", "주소": "경기도 성남시 수정구 금토동 성남금토 공공주택지구 상업 1-1블럭 로트", "설치(공사)종료일": "2027-12-24", "사업명": "건설업" }, "geometry": { "type": "Point", "coordinates": [ 127.069991571377187, 37.410625452998339 ] } },
{ "type": "Feature", "properties": { "fid": 6268, "사업자명(상호)": "신동아건설(주)", "공사장명": "판교 제2테크노밸리 GMP공장 신축공사", "주소": "경기도 성남시 수정구 금토동 판교 제2테크노밸리 도시첨단산업단지 E11-1~2", "설치(공사)종료일": "2026-03-31", "사업명": "건설업" }, "geometry": { "type": "Point", "coordinates": [ 127.069991571377187, 37.410625452998339 ] } },
{ "type": "Feature", "properties": { "fid": 6270, "사업자명(상호)": "동원엔지니어링(주)", "공사장명": "판교 열수송관공사", "주소": "경기도 성남시 수정구 금토동 고등동 일원", "설치(공사)종료일": "2026-04-07", "사업명": "건설업" }, "geometry": { "type": "Point", "coordinates": [ 127.069991571377187, 37.410625452998339 ] } },
{ "type": "Feature", "properties": { "fid": 6342, "사업자명(상호)": "개인", "공사장명": "금토초등학교 신축공사", "주소": "경기도 성남시 수정구 금토동 464번지 일원", "설치(공사)종료일": "2027-02-19", "사업명": "건설업" }, "geometry": { "type": "Point", "coordinates": [ 127.081878875033681, 37.407110326798993 ] } },
{ "type": "Feature", "properties": { "fid": 6264, "사업자명(상호)": "우경건설", "공사장명": "대왕저수지 수변공원 조성공사", "주소": "경기도 성남시 수정구 상적동 128-1번지 일원", "설치(공사)종료일": "2026-03-25", "사업명": null }, "geometry": { "type": "Point", "coordinates": [ 127.082266410672219, 37.432361497788101 ] } },
{ "type": "Feature", "properties": { "fid": 6323, "사업자명(상호)": "주식회사 대림이엔씨", "공사장명": "적푸리 취락지구 정비공사(소로1-66, 2-280호선)", "주소": "경기도 성남시 수정구 상적동 94-22일원", "설치(공사)종료일": "2026-09-04", "사업명": "건설업" }, "geometry": { "type": "Point", "coordinates": [ 127.084656064776141, 37.433773321981107 ] } },
{ "type": "Feature", "properties": { "fid": 6356, "사업자명(상호)": "극동건설(주)", "공사장명": "성남금토 A-4BL(아파트건설공사2공구)", "주소": "경기도 성남시 수정구 금토동 416-1 일원(성남금토A-4BL)", "설치(공사)종료일": "2027-07-30", "사업명": "건설업" }, "geometry": { "type": "Point", "coordinates": [ 127.085095430136846, 37.407466835488052 ] } },
{ "type": "Feature", "properties": { "fid": 6315, "사업자명(상호)": "대보건설(주)", "공사장명": "성남금토 A-2BL 아파트 건설공사", "주소": "경기도 성남시 수정구 금토동 194 일원(성남금토 A-2BL)", "설치(공사)종료일": "2026-08-15", "사업명": "건설업" }, "geometry": { "type": "Point", "coordinates": [ 127.085594746576504, 37.410095691399313 ] } },
{ "type": "Feature", "properties": { "fid": 6340, "사업자명(상호)": "중흥토건(주)", "공사장명": "성남 금토지구A-3BL 공동주택 신축공사", "주소": "경기도 성남시 수정구 금토동 413-7 일원(성남 금토지구 A-3BL)", "설치(공사)종료일": "2027-01-31", "사업명": "건설업" }, "geometry": { "type": "Point", "coordinates": [ 127.08739659938071, 37.407638302499308 ] } },
{ "type": "Feature", "properties": { "fid": 6344, "사업자명(상호)": "디엘이앤씨 주식회사", "공사장명": "성남금토 공공주택지구 지구외 기반시설(방음벽등) 설치공사", "주소": "성남시 수정구 금토동 397-3번지 일원", "설치(공사)종료일": "2027-04-12", "사업명": "건설업" }, "geometry": { "type": "Point", "coordinates": [ 127.087736741738311, 37.404274899458308 ] } },
{ "type": "Feature", "properties": { "fid": 6278, "사업자명(상호)": "중앙건설(주)", "공사장명": "스마트모빌리티 실증허브 조성사업 건축공사", "주소": "경기도 성남시 수정구 금토동 330 일원(판교제2테크노밸리 E10-5BL)", "설치(공사)종료일": "2026-05-04", "사업명": "건설업" }, "geometry": { "type": "Point", "coordinates": [ 127.088481773497193, 37.404800848816613 ] } },
{ "type": "Feature", "properties": { "fid": 6276, "사업자명(상호)": "(주)세진이엔씨", "공사장명": "성남금토 공공주택지구 외동천구간 과천지선 이설공사", "주소": "경기도 성남시 수정구 금토동 410-311번지 일원", "설치(공사)종료일": "2026-04-30", "사업명": "건설업" }, "geometry": { "type": "Point", "coordinates": [ 127.090925503585623, 37.408715830839242 ] } },
{ "type": "Feature", "properties": { "fid": 6365, "사업자명(상호)": "계룡건설산업(주)", "공사장명": "경부선 판교 ex-HUB 및 대왕판교IC 개량공사", "주소": "경기도 성남시 수정구 고등동 572", "설치(공사)종료일": "2027-11-21", "사업명": "건설업" }, "geometry": { "type": "Point", "coordinates": [ 127.093887653926757, 37.428951645132557 ] } },
{ "type": "Feature", "properties": { "fid": 6288, "사업자명(상호)": "(주)이안알앤씨", "공사장명": "GST판교 R&D센터 신축공사", "주소": "경기도 성남시 수정구 시흥동 348", "설치(공사)종료일": "2026-05-31", "사업명": "건설업" }, "geometry": { "type": "Point", "coordinates": [ 127.095169317010985, 37.410448624232863 ] } },
{ "type": "Feature", "properties": { "fid": 6309, "사업자명(상호)": "케이엔건설(주)", "공사장명": "판교 제2테큰노밸리 주차전용 건축물 신축공사", "주소": "경기도 성남시 수정구 시흥동 353", "설치(공사)종료일": "2026-07-31", "사업명": "건설업" }, "geometry": { "type": "Point", "coordinates": [ 127.095631922298068, 37.410440236590176 ] } },
{ "type": "Feature", "properties": { "fid": 6329, "사업자명(상호)": "엘림종합건설(주)", "공사장명": "ACOM 연구소 신축공사", "주소": "경기도 성남시 수정구 금토동 270-1", "설치(공사)종료일": "2026-11-12", "사업명": "건설업" }, "geometry": { "type": "Point", "coordinates": [ 127.096092808739996, 37.409528810886542 ] } },
{ "type": "Feature", "properties": { "fid": 6254, "사업자명(상호)": "인플러스종합건설(주)", "공사장명": "LIG NEX1 판교연구소 승강기 및 창고 증축공사", "주소": "경기도 성남시 수정구 시흥동 234외 22필지", "설치(공사)종료일": "2026-02-20", "사업명": "건설업" }, "geometry": { "type": "Point", "coordinates": [ 127.099148937969872, 37.41712943846936 ] } },
{ "type": "Feature", "properties": { "fid": 5911, "사업자명(상호)": "(주)동현건설", "공사장명": "경기 수원시 팔달구 고등동 301번지 일원 도시가스 공급관공사", "주소": "고등동 300번지 ~ 고등동 116번지", "설치(공사)종료일": "2025-12-31", "사업명": "건설업" }, "geometry": { "type": "Point", "coordinates": [ 127.099856815903621, 37.43226667059281 ] } },
{ "type": "Feature", "properties": { "fid": 6190, "사업자명(상호)": "(주)시우종합건설", "공사장명": "근린생활시설 대수선공사", "주소": "경기도 성남시 수정구 시흥동 212", "설치(공사)종료일": "2025-08-30", "사업명": "건설업" }, "geometry": { "type": "Point", "coordinates": [ 127.100600616773207, 37.421564742194761 ] } },
{ "type": "Feature", "properties": { "fid": 6372, "사업자명(상호)": "동원건설산업 주식회사", "공사장명": "제3판교 테크노밸리 상업 1-2,3블럭 업무시설 신축공사", "주소": "경기도 성남시 수정구 금토동 성남금토 공공주택지구 상업 1-2,3블럭 로트", "설치(공사)종료일": "2027-12-24", "사업명": "건설업" }, "geometry": { "type": "Point", "coordinates": [ 127.069991571377187, 37.410625452998339 ] } },
{ "type": "Feature", "properties": { "fid": 6373, "사업자명(상호)": "동원건설산업 주식회사", "공사장명": "제3판교 테크노밸리 상업 1-7,8블럭 업무시설 신축공사", "주소": "경기도 성남시 수정구 금토동 성남금토 공공주택지구 상업 1-7,8블럭 로트", "설치(공사)종료일": "2027-12-24", "사업명": "건설업" }, "geometry": { "type": "Point", "coordinates": [ 127.069991571377187, 37.410625452998339 ] } },
{ "type": "Feature", "properties": { "fid": 6374, "사업자명(상호)": "동원건설산업 주식회사", "공사장명": "제3판교 테크노밸리 상업 1-9블럭 업무시설 신축공사", "주소": "경기도 성남시 수정구 금토동 성남금토 공공주택지구 상업 1-9블럭 로트", "설치(공사)종료일": "2027-12-24", "사업명": "건설업" }, "geometry": { "type": "Point", "coordinates": [ 127.069991571377187, 37.410625452998339 ] } },
{ "type": "Feature", "properties": { "fid": 6375, "사업자명(상호)": "동원건설산업 주식회사", "공사장명": "제3판교 테크노밸리 상업 1-10,11블럭 업무시설 신축공사", "주소": "경기도 성남시 수정구 금토동 성남금토 공공주택지구 상업 1-10,11블럭 로트", "설치(공사)종료일": "2027-12-24", "사업명": "건설업" }, "geometry": { "type": "Point", "coordinates": [ 127.069991571377187, 37.410625452998339 ] } },
{ "type": "Feature", "properties": { "fid": 6380, "사업자명(상호)": "동원건설산업 주식회사", "공사장명": "KAIST 김재철 AI대학원 건립사업", "주소": "경기도 성남시 분당구 판교동 493번지", "설치(공사)종료일": "2028-02-24", "사업명": "건설업" }, "geometry": { "type": "Point", "coordinates": [ 127.094773854450949, 37.401246233049768 ] } },
{ "type": "Feature", "properties": { "fid": 6394, "사업자명(상호)": "영진종합건설(주)", "공사장명": "영진종합건설(주)", "주소": "경기도 성남시 수정구 금토동 488-3번지 일원", "설치(공사)종료일": "2028-07-23", "사업명": null }, "geometry": { "type": "Point", "coordinates": [ 127.07991602698317, 37.407049399385542 ] } },
{ "type": "Feature", "properties": { "fid": 6398, "사업자명(상호)": "(주)포스코이앤씨", "공사장명": "성남 금토지구 자족 7-3BL 업무시설 신축공사", "주소": "경기도 성남시 수정구 금토동 273-3번지 일원", "설치(공사)종료일": "2028-10-09", "사업명": "건설업" }, "geometry": { "type": "Point", "coordinates": [ 127.099059517729188, 37.410010120109426 ] } },
{ "type": "Feature", "properties": { "fid": 6260, "사업자명(상호)": "남양진흥기업(주)", "공사장명": "154kv 복정변전소 신축공사", "주소": "경기도 성남시 수정구 복정동 7", "설치(공사)종료일": "2026-03-11", "사업명": "건설업" }, "geometry": { "type": "Point", "coordinates": [ 127.146991620415292, 37.458153971902533 ] } },
{ "type": "Feature", "properties": { "fid": 6235, "사업자명(상호)": "건국조경(주)", "공사장명": "성남복정A-2,3BL 조경공사", "주소": "경기도 성남시 수정구 복정동 109 , 756-1일원(성남복정A-2,3BL조경공사)", "설치(공사)종료일": "2025-12-11", "사업명": "건설업" }, "geometry": { "type": "Point", "coordinates": [ 127.138877791165925, 37.459065429672883 ] } },
{ "type": "Feature", "properties": { "fid": 6204, "사업자명(상호)": "㈜BS한양", "공사장명": "성남복정1 A-2BL 아파트건설공사 2공구", "주소": "성남시 수정구 복정동, 창곡동 일원", "설치(공사)종료일": "2025-09-30", "사업명": "건설업" }, "geometry": { "type": "Point", "coordinates": [ 127.132007255338493, 37.459275467143783 ] } },
{ "type": "Feature", "properties": { "fid": 6205, "사업자명(상호)": "㈜BS한양", "공사장명": "성남복정1 A-3BL 아파트건설공사 2공구", "주소": "성남시 수정구 복정동, 창곡동 일원", "설치(공사)종료일": "2025-09-30", "사업명": "건설업" }, "geometry": { "type": "Point", "coordinates": [ 127.132007255338493, 37.459275467143783 ] } },
{ "type": "Feature", "properties": { "fid": 6277, "사업자명(상호)": "디엘건설 주식회사", "공사장명": "성남복정1,2 공공주택지구 조성공사", "주소": "경기도 성남시 수정구 복정동, 창곡동, 신흥동 일원", "설치(공사)종료일": "2026-04-30", "사업명": "건설업" }, "geometry": { "type": "Point", "coordinates": [ 127.132007255338493, 37.459275467143783 ] } },
{ "type": "Feature", "properties": { "fid": 6301, "사업자명(상호)": "을묘종합건설(주)", "공사장명": "복정1 공공주택지구 6구간 공급관 공사", "주소": "경기도 성남시 수정구 복정동 28~69번지", "설치(공사)종료일": "2026-06-30", "사업명": null }, "geometry": { "type": "Point", "coordinates": [ 127.144441848439811, 37.459280186493764 ] } },
{ "type": "Feature", "properties": { "fid": 6251, "사업자명(상호)": "주식회사 에스엠건설", "공사장명": "복정1지구 내 유치원신축공사", "주소": "경기도 성남시 수정구 복정동 115-1 일원(복정1지구 내 유치원공사)", "설치(공사)종료일": "2026-01-26", "사업명": "건설업" }, "geometry": { "type": "Point", "coordinates": [ 127.139631014208604, 37.460189014736663 ] } },
{ "type": "Feature", "properties": { "fid": 6225, "사업자명(상호)": "주식회사 개성건설", "공사장명": "성남복정1지구 A-1BL 조경공사", "주소": "경기도 성남시 수정구 복정동 151 일원(성남복정A-1BL)", "설치(공사)종료일": "2025-11-18", "사업명": "건설업" }, "geometry": { "type": "Point", "coordinates": [ 127.136491661434889, 37.460194586566558 ] } },
{ "type": "Feature", "properties": { "fid": 6185, "사업자명(상호)": "금호건설㈜", "공사장명": "성남복정1 A-1BL 아파트 건설공사 1공구", "주소": "성남시 수정구 복정동 151번지 외", "설치(공사)종료일": "2025-08-14", "사업명": "건설업" }, "geometry": { "type": "Point", "coordinates": [ 127.136491661434889, 37.460194586566558 ] } },
{ "type": "Feature", "properties": { "fid": 6263, "사업자명(상호)": "태형종합건설(주)", "공사장명": "복정1초 신축공사", "주소": "경기도 성남시 수정구 복정동 115 일원(복정1지구 내)", "설치(공사)종료일": "2026-03-25", "사업명": "건설업" }, "geometry": { "type": "Point", "coordinates": [ 127.139887282165574, 37.460796148572932 ] } },
{ "type": "Feature", "properties": { "fid": 6247, "사업자명(상호)": "(주)이레인하우스", "공사장명": "위례 부영아파트 외부 도장공사(옥상방수공사)", "주소": "경기도 성남시 수정구 창곡동 597", "설치(공사)종료일": "2025-12-31", "사업명": "건설업" }, "geometry": { "type": "Point", "coordinates": [ 127.145514338811992, 37.461733837778574 ] } },
{ "type": "Feature", "properties": { "fid": 6179, "사업자명(상호)": "(주)리오트", "공사장명": "열수송관 및 유지보수 건설공사", "주소": "경기도 성남시 수정구 창곡동 534-7 일원(열수송관 및 유지보수 건설공사)", "설치(공사)종료일": "2025-07-31", "사업명": "건설업" }, "geometry": { "type": "Point", "coordinates": [ 127.141491543868099, 37.462769318655724 ] } },
{ "type": "Feature", "properties": { "fid": 6238, "사업자명(상호)": "개인", "공사장명": "위례신도시 개발사업 조경공사 2-1공구", "주소": "경기도 성남시 수정구 창곡동 일원", "설치(공사)종료일": "2025-12-20", "사업명": null }, "geometry": { "type": "Point", "coordinates": [ 127.149250750787374, 37.46565177389035 ] } },
{ "type": "Feature", "properties": { "fid": 6148, "사업자명(상호)": "(주)드림라인", "공사장명": "지역난방 열수송관 매설", "주소": "경기도 성남시 수정구 창곡동 566-3 일원", "설치(공사)종료일": "2025-04-30", "사업명": "건설업" }, "geometry": { "type": "Point", "coordinates": [ 127.143204073938023, 37.46613098105307 ] } },
{ "type": "Feature", "properties": { "fid": 6150, "사업자명(상호)": "주식회사 알지엘텍", "공사장명": "한빛중학교 교실 및 급식실 증축공사", "주소": "경기도 성남시 수정구 창곡동 568 위례한빛중학교", "설치(공사)종료일": "2025-05-05", "사업명": "건설업" }, "geometry": { "type": "Point", "coordinates": [ 127.148621871904055, 37.467699199628782 ] } },
{ "type": "Feature", "properties": { "fid": 6252, "사업자명(상호)": "에스지씨이앤씨㈜", "공사장명": "위례 154KV 성남 T/L 지장송전선로 이설공사(2단계)", "주소": "성남시 수정구 창곡동 499-299", "설치(공사)종료일": "2026-01-31", "사업명": "건설업" }, "geometry": { "type": "Point", "coordinates": [ 127.131582216612415, 37.467740962660564 ] } },
{ "type": "Feature", "properties": { "fid": 6208, "사업자명(상호)": "(주)주윤개발", "공사장명": "위례신도시 택지개발공사 중 LH사옥 철거 및 가설건축물 해체공사", "주소": "경기도 성남시 수정구 창곡동 499-265 일대", "설치(공사)종료일": "2025-09-30", "사업명": "건설업" }, "geometry": { "type": "Point", "coordinates": [ 127.134017466372043, 37.468285455600089 ] } },
{ "type": "Feature", "properties": { "fid": 6310, "사업자명(상호)": "을묘종합건설주식회사", "공사장명": "2025년 신규 열수송관 및 유지보수공사", "주소": "경기도 성남시 수정구 복정동 외", "설치(공사)종료일": "2026-07-31", "사업명": null }, "geometry": { "type": "Point", "coordinates": [ 127.132007255338493, 37.459275467143783 ] } },
{ "type": "Feature", "properties": { "fid": 6317, "사업자명(상호)": "(주)남선알미늄 건설사업부문", "공사장명": "위례신도시 택지개발사업 조성공사(2공구)", "주소": "경기도 성남시 수정구 창곡동 하남시 학암동, 송파구 장지동 일원", "설치(공사)종료일": "2026-08-31", "사업명": "건설업" }, "geometry": { "type": "Point", "coordinates": [ 127.149250750787374, 37.46565177389035 ] } },
{ "type": "Feature", "properties": { "fid": 6318, "사업자명(상호)": "한신공영㈜", "공사장명": "위례선 도시철도 건설공사", "주소": "성남시 수정구 위례, 복정동 등 일대", "설치(공사)종료일": "2026-08-31", "사업명": "건설업" }, "geometry": { "type": "Point", "coordinates": [ 127.132007255338493, 37.459275467143783 ] } },
{ "type": "Feature", "properties": { "fid": 6322, "사업자명(상호)": "지에스건설㈜", "공사장명": "위례A2-7BL 아파트 신축공사", "주소": "성남시 수정구 창곡동 514번지 위례A2-7BL", "설치(공사)종료일": "2026-09-03", "사업명": "건설업" }, "geometry": { "type": "Point", "coordinates": [ 127.148710812966584, 37.470933094919246 ] } },
{ "type": "Feature", "properties": { "fid": 6335, "사업자명(상호)": "디엘건설 주식회사", "공사장명": "성남복정1,2 공공주택지구 조성공사", "주소": "경기도 성남시 수정구 복정동, 창곡동, 신흥동 일원", "설치(공사)종료일": "2026-12-31", "사업명": "건설업" }, "geometry": { "type": "Point", "coordinates": [ 127.132007255338493, 37.459275467143783 ] } },
{ "type": "Feature", "properties": { "fid": 6337, "사업자명(상호)": "(주)포스코이앤씨", "공사장명": "포스코글로벌센터 지원2부지 건립사업 사전공사", "주소": "경기도 성남시 수정구 창곡동 499-189 일원", "설치(공사)종료일": "2026-12-31", "사업명": null }, "geometry": { "type": "Point", "coordinates": [ 127.135117028303895, 37.467363894309251 ] } },
{ "type": "Feature", "properties": { "fid": 6360, "사업자명(상호)": "(주)케이알산업", "공사장명": "성남 복정1지구 B3BL 공동주택 신축공사", "주소": "경기도 성남시 수정구 복정동 82-3 일원(복정1지구 B-3BL)", "설치(공사)종료일": "2027-09-30", "사업명": "건설업" }, "geometry": { "type": "Point", "coordinates": [ 127.141271130188258, 37.459949788117264 ] } },
{ "type": "Feature", "properties": { "fid": 6382, "사업자명(상호)": "에이치엘디앤아이한라 주식회사", "공사장명": "성남시 복정1지구 1BL 공동주택 신축공사", "주소": "경기도 성남시 수정구 복정동 243번지 일대", "설치(공사)종료일": "2028-03-07", "사업명": null }, "geometry": { "type": "Point", "coordinates": [ 127.131761388971142, 37.466404431804655 ] } },
{ "type": "Feature", "properties": { "fid": 6392, "사업자명(상호)": "디엘건설 주식회사", "공사장명": "성남지역 전기공급시설 전력구공사(산성-복정-수서)", "주소": "경기도 성남시 수정구 창곡동, 복정동, 산성동 일원", "설치(공사)종료일": "2028-06-23", "사업명": null }, "geometry": { "type": "Point", "coordinates": [ 127.149250750787374, 37.46565177389035 ] } },
{ "type": "Feature", "properties": { "fid": 6395, "사업자명(상호)": "(주)포스코이앤씨", "공사장명": "포스코글로벌센터 건립사업(지원3부지)", "주소": "경기도 성남시 수정구 창곡동 533일원", "설치(공사)종료일": "2028-08-01", "사업명": "건설업" }, "geometry": { "type": "Point", "coordinates": [ 127.132064839434122, 37.467630085891656 ] } },
{ "type": "Feature", "properties": { "fid": 6198, "사업자명(상호)": "풍산이앤씨(주)", "공사장명": "고등 취락지구 정비공사", "주소": "경기도 성남시 수정구 시흥동 157-38 일원", "설치(공사)종료일": "2025-09-19", "사업명": "건설업" }, "geometry": { "type": "Point", "coordinates": [ 127.102710951819617, 37.427329162239459 ] } },
{ "type": "Feature", "properties": { "fid": 6149, "사업자명(상호)": "대영종합건설(주)", "공사장명": "시흥동 테니스장 부대시설 신축공사", "주소": "경기도 성남시 수정구 시흥동 189-1", "설치(공사)종료일": "2025-04-30", "사업명": "건설업" }, "geometry": { "type": "Point", "coordinates": [ 127.103337416416466, 37.425009234479639 ] } },
{ "type": "Feature", "properties": { "fid": 6265, "사업자명(상호)": "건희건설㈜", "공사장명": "성남신촌공공주택조성공사(토목)", "주소": "경기도 성남시 수정구 신촌길 4로 일원", "설치(공사)종료일": "2026-03-26", "사업명": "건설업" }, "geometry": { "type": "Point", "coordinates": [ 127.103733222794915, 37.435118833184596 ] } },
{ "type": "Feature", "properties": { "fid": 6296, "사업자명(상호)": "지에스아이(주)", "공사장명": "샘골 취락지구 정비공사(소로3-673호선)", "주소": "경기도 성남시 수정구 샘골 소로3-673호선", "설치(공사)종료일": "2026-06-07", "사업명": null }, "geometry": { "type": "Point", "coordinates": [ 127.103733222794915, 37.435118833184596 ] } },
{ "type": "Feature", "properties": { "fid": 6244, "사업자명(상호)": "이지종합건설(주)", "공사장명": "23-F-통합수리 부속창고 신축 시설공사", "주소": "경기도 성남시 수정구 고등동 25-3 서울공항 내", "설치(공사)종료일": "2025-12-31", "사업명": "건설업" }, "geometry": { "type": "Point", "coordinates": [ 127.104028793047988, 37.43842206191723 ] } },
{ "type": "Feature", "properties": { "fid": 6203, "사업자명(상호)": "성진건설(주)", "공사장명": "고등동 396-56 공급관 공사", "주소": "경기도 성남시 고등동 396-56번지 일원", "설치(공사)종료일": "2025-09-28", "사업명": null }, "geometry": { "type": "Point", "coordinates": [ 127.104496261881735, 37.427808664775974 ] } },
{ "type": "Feature", "properties": { "fid": 6324, "사업자명(상호)": "광동건설(주)", "공사장명": "고등 취락지구 정비공사(소로2-310, 2-314호선)", "주소": "경기도 성남시 수정구 시흥동 154-26, 고등동 370-5", "설치(공사)종료일": "2026-09-11", "사업명": "건설업" }, "geometry": { "type": "Point", "coordinates": [ 127.104941411344626, 37.427541226595217 ] } },
{ "type": "Feature", "properties": { "fid": 6169, "사업자명(상호)": "장용종합건설(주)", "공사장명": "성남농협 경제사업장 신축공사", "주소": "경기도 성남시 수정구 시흥동 84-1 외 3필지", "설치(공사)종료일": "2025-06-30", "사업명": "건설업" }, "geometry": { "type": "Point", "coordinates": [ 127.105092505692795, 37.421808449798249 ] } },
{ "type": "Feature", "properties": { "fid": 6326, "사업자명(상호)": "금호건설(주)", "공사장명": "성남신촌A-1BL 공공주택 건설사업", "주소": "경기도 성남시 수정구 신촌동 179-1 일원(성남신촌 A-1BL)", "설치(공사)종료일": "2026-10-12", "사업명": "건설업" }, "geometry": { "type": "Point", "coordinates": [ 127.105231271831627, 37.461460125124731 ] } },
{ "type": "Feature", "properties": { "fid": 6286, "사업자명(상호)": "하임건설(주)", "공사장명": "지상장비 정비고 시설공사", "주소": "경기도 성남시 수정구 고등동 1 서울공항내", "설치(공사)종료일": "2026-05-30", "사업명": "건설업" }, "geometry": { "type": "Point", "coordinates": [ 127.106280587334723, 37.43751974100892 ] } },
{ "type": "Feature", "properties": { "fid": 6279, "사업자명(상호)": "계룡건설산업㈜", "공사장명": "성남신촌 A-2BL 공공주택건설사업", "주소": "성남시 수정구 신촌동 179-5", "설치(공사)종료일": "2026-05-05", "사업명": "건설업" }, "geometry": { "type": "Point", "coordinates": [ 127.106590014947926, 37.461296033274031 ] } },
{ "type": "Feature", "properties": { "fid": 6363, "사업자명(상호)": "(주)상지건설", "공사장명": "신촌동 184-2 씨아이테크 그룹사옥 신축공사", "주소": "경기도 성남시 수정구 신촌동 184-2", "설치(공사)종료일": "2027-10-31", "사업명": "건설업" }, "geometry": { "type": "Point", "coordinates": [ 127.107400516868594, 37.461528044675283 ] } },
{ "type": "Feature", "properties": { "fid": 6144, "사업자명(상호)": "(주)동양에너지", "공사장명": "성남(정) 그린수소 충전 인프라구축공사", "주소": "경기도 성남시 수정구 사송동 512 일원", "설치(공사)종료일": "2025-04-13", "사업명": "건설업" }, "geometry": { "type": "Point", "coordinates": [ 127.107939160630536, 37.412592042861171 ] } },
{ "type": "Feature", "properties": { "fid": 6330, "사업자명(상호)": "한일이앤씨 주식회사", "공사장명": "서울공항 내 24-F간부숙소 신축공사", "주소": "경기도 성남시 수정구 심곡동 144 일원(서울공항 내 24-F간부숙소 신축공사)", "설치(공사)종료일": "2026-11-21", "사업명": "건설업" }, "geometry": { "type": "Point", "coordinates": [ 127.10801240884102, 37.443313355540845 ] } },
{ "type": "Feature", "properties": { "fid": 6269, "사업자명(상호)": "탑스텐종합건설(주)", "공사장명": "근린생활시설 신축공사", "주소": "경기도 성남시 수정구 사송동 520 등 5필지", "설치(공사)종료일": "2026-03-31", "사업명": "건설업" }, "geometry": { "type": "Point", "coordinates": [ 127.109155314481285, 37.416170467943942 ] } },
{ "type": "Feature", "properties": { "fid": 6245, "사업자명(상호)": "주식회사 미르종합건설", "공사장명": "지반조성공사 및 건축물신축공사", "주소": "경기도 성남시 수정구 시흥동 30-2", "설치(공사)종료일": "2025-12-31", "사업명": "건설업" }, "geometry": { "type": "Point", "coordinates": [ 127.110358723922261, 37.421008469483674 ] } },
{ "type": "Feature", "properties": { "fid": 6180, "사업자명(상호)": "(주)하이테크알파", "공사장명": "안성구리고속도로 중 건설사업단 철거 및 폐기물처리", "주소": "경기도 성남시 사송동 517-4번지", "설치(공사)종료일": "2025-07-31", "사업명": null }, "geometry": { "type": "Point", "coordinates": [ 127.110485557721248, 37.415465319905884 ] } },
{ "type": "Feature", "properties": { "fid": 6289, "사업자명(상호)": "개인", "공사장명": "야영장 신축공사", "주소": "경기도 성남시 수정구 사송동 산 1-1", "설치(공사)종료일": "2026-05-31", "사업명": "건설업" }, "geometry": { "type": "Point", "coordinates": [ 127.11525144561719, 37.423267360340979 ] } },
{ "type": "Feature", "properties": { "fid": 6259, "사업자명(상호)": "일성건설(주)", "공사장명": "23-F-격납고신축 시설공사", "주소": "경기도 성남시 수정구 둔전동 2-1 일원(서울공항 내)", "설치(공사)종료일": "2026-03-09", "사업명": "건설업" }, "geometry": { "type": "Point", "coordinates": [ 127.116529753563881, 37.438525828550851 ] } },
{ "type": "Feature", "properties": { "fid": 6158, "사업자명(상호)": "대율건설(주)", "공사장명": "성남동 대형공영주차장 정비공사", "주소": "중원구 성남동 4596번지 일원", "설치(공사)종료일": "2025-05-31", "사업명": "건설업" }, "geometry": { "type": "Point", "coordinates": [ 127.119102702963716, 37.427962534734739 ] } },
{ "type": "Feature", "properties": { "fid": 6241, "사업자명(상호)": "주식회사 경동건설", "공사장명": "태평동 7046-1 외 2필지 신설급수공사", "주소": "경기도 성남시 수정구 태평동 7046-1번지 일원", "설치(공사)종료일": "2025-12-25", "사업명": "건설업" }, "geometry": { "type": "Point", "coordinates": [ 127.119568364694032, 37.44577211858676 ] } },
{ "type": "Feature", "properties": { "fid": 6239, "사업자명(상호)": "개인", "공사장명": "태평동 근린생활시설 신축공사", "주소": "경기도 성남시 수정구 태평동 7073-6,7", "설치(공사)종료일": "2025-12-20", "사업명": "건설업" }, "geometry": { "type": "Point", "coordinates": [ 127.120317723493301, 37.44473185860452 ] } },
{ "type": "Feature", "properties": { "fid": 6202, "사업자명(상호)": "개인", "공사장명": "야탑교 보수보강 및 보도교 신설공사", "주소": "경기도 성남시 분당구 야탑동 555", "설치(공사)종료일": "2025-09-26", "사업명": "건설업" }, "geometry": { "type": "Point", "coordinates": [ 127.123248907549453, 37.410927204678188 ] } },
{ "type": "Feature", "properties": { "fid": 6212, "사업자명(상호)": "(주)한진이앤씨", "공사장명": "사송교 보수보강 및 보도교 신설공사", "주소": "경기도 성남시 분당구 야탑동 555", "설치(공사)종료일": "2025-10-03", "사업명": "건설업" }, "geometry": { "type": "Point", "coordinates": [ 127.123248907549453, 37.410927204678188 ] } },
{ "type": "Feature", "properties": { "fid": 6189, "사업자명(상호)": "남우건설 주식회사", "공사장명": "하탑교 보수보강 및 보도교 신설공사", "주소": "경기도 성남시 분당구 이매동 152-7", "설치(공사)종료일": "2025-08-30", "사업명": "건설업" }, "geometry": { "type": "Point", "coordinates": [ 127.123736582222975, 37.40369394332842 ] } },
{ "type": "Feature", "properties": { "fid": 6303, "사업자명(상호)": "지에스아이(주)", "공사장명": "수진동 근린생활시설 신축공사", "주소": "경기도 성남시 수정구 수진동 4754, 4755번지", "설치(공사)종료일": "2026-06-30", "사업명": "건설업" }, "geometry": { "type": "Point", "coordinates": [ 127.124065547437198, 37.433868371683772 ] } },
{ "type": "Feature", "properties": { "fid": 6240, "사업자명(상호)": "(주)삼림엘엔씨", "공사장명": "둔촌대로 64번길, 80번길 노상주차장 조성공사", "주소": "둔촌대로 64번길, 80번길 일대", "설치(공사)종료일": "2025-12-25", "사업명": "건설업" }, "geometry": { "type": "Point", "coordinates": [ 127.12599313820381, 37.429326827251231 ] } },
{ "type": "Feature", "properties": { "fid": 6207, "사업자명(상호)": "주식회사 예은건설", "공사장명": "시청사 옥외 주차면 증설공사", "주소": "경기도 성남시 중원구 여수동 200 성남시청", "설치(공사)종료일": "2025-09-30", "사업명": "건설업" }, "geometry": { "type": "Point", "coordinates": [ 127.126460941084886, 37.419864891507309 ] } },
{ "type": "Feature", "properties": { "fid": 6145, "사업자명(상호)": "(주)풍전이엔씨", "공사장명": "밀란체1아파트 균열보수 및 도장공사", "주소": "경기도 성남시 수정구 수진동 4557 밀란체1", "설치(공사)종료일": "2025-04-15", "사업명": "건설업" }, "geometry": { "type": "Point", "coordinates": [ 127.127443124560472, 37.438129166309572 ] } },
{ "type": "Feature", "properties": { "fid": 6267, "사업자명(상호)": "라온이엔디 주식회사", "공사장명": "성남 제일주유소 해체공사", "주소": "경기도 성남시 수정구 태평동 6116-3번지", "설치(공사)종료일": "2026-03-30", "사업명": "건설업" }, "geometry": { "type": "Point", "coordinates": [ 127.127624680027608, 37.442788809142556 ] } },
{ "type": "Feature", "properties": { "fid": 6348, "사업자명(상호)": "주식회사 엔씨건설", "공사장명": "성남동 4134, 4135번지 업무시설 신축공사", "주소": "경기도 성남시 중원구 성남동 4134, 4135번지", "설치(공사)종료일": "2027-06-30", "사업명": "건설업" }, "geometry": { "type": "Point", "coordinates": [ 127.128172911598227, 37.432901774379872 ] } },
{ "type": "Feature", "properties": { "fid": 6377, "사업자명(상호)": "엘티삼보(주)", "공사장명": "LG복지재단 청년자립지원센터 신축공사", "주소": "성남시 중원구 여수동 203", "설치(공사)종료일": "2027-12-30", "사업명": null }, "geometry": { "type": "Point", "coordinates": [ 127.126887824433979, 37.41799426674654 ] } },
{ "type": "Feature", "properties": { "fid": 6383, "사업자명(상호)": "부소종합건설(주)", "공사장명": "여수동 보훈회관 건립공사", "주소": "경기도 성남시 중원구 여수동 374", "설치(공사)종료일": "2028-03-09", "사업명": "건설업" }, "geometry": { "type": "Point", "coordinates": [ 127.124212376535965, 37.417535961566564 ] } },
{ "type": "Feature", "properties": { "fid": 6390, "사업자명(상호)": "태평양이앤씨(주)", "공사장명": "성남시 하수관로 정비사업(4단계)", "주소": "경기도 성남시 수정구 일원", "설치(공사)종료일": "2028-06-07", "사업명": null }, "geometry": { "type": "Point", "coordinates": [ 127.103733222794915, 37.435118833184596 ] } },
{ "type": "Feature", "properties": { "fid": 6397, "사업자명(상호)": "코오롱글로벌(주)", "공사장명": "성남금토 공공주택지구 자족3BL 업무시설 신축공사", "주소": "경기도 성남시 수정구 성남금토 공공주택지구 자족시설용지 3BL 로트", "설치(공사)종료일": "2028-09-30", "사업명": "건설업" }, "geometry": { "type": "Point", "coordinates": [ 127.103733222794915, 37.435118833184596 ] } },
{ "type": "Feature", "properties": { "fid": 6256, "사업자명(상호)": "(주)우송종합건설", "공사장명": "하대원동 104-1 오피스텔 신축공사", "주소": "성남시 중원구 하대원동 104-1외 1필지", "설치(공사)종료일": "2026-02-28", "사업명": "건설업" }, "geometry": { "type": "Point", "coordinates": [ 127.133980627708695, 37.428706598632992 ] } },
{ "type": "Feature", "properties": { "fid": 6146, "사업자명(상호)": "계룡건설산업(주)", "공사장명": "삼남아파트 소규모재건축정비사업, 삼두아파트은영빌라 가로주택정비사업", "주소": "성남시 중원구 하대원동 119번지, 120-1번지 일대", "설치(공사)종료일": "2025-04-21", "사업명": "건설업" }, "geometry": { "type": "Point", "coordinates": [ 127.141912964987426, 37.42917240267861 ] } },
{ "type": "Feature", "properties": { "fid": 6222, "사업자명(상호)": "주식회사 레인보우테크", "공사장명": "성남동현대아파트 외부 균열보수 및 재도장 공사", "주소": "경기도 성남시 중원구 성남동 3121 현대아파트", "설치(공사)종료일": "2025-11-10", "사업명": "건설업" }, "geometry": { "type": "Point", "coordinates": [ 127.139863656996027, 37.429623170990922 ] } },
{ "type": "Feature", "properties": { "fid": 6221, "사업자명(상호)": "주식회사 지앤필드종합건설", "공사장명": "스위티아파트 내, 외부 균열보수 및 재도장 공사", "주소": "경기도 성남시 중원구 성남동 4031 한빛스위티아파트", "설치(공사)종료일": "2025-10-31", "사업명": "건설업" }, "geometry": { "type": "Point", "coordinates": [ 127.132431249040735, 37.430461135806389 ] } },
{ "type": "Feature", "properties": { "fid": 6200, "사업자명(상호)": "주식회사 동의종합조경", "공사장명": "원도심 대원공원 내 테마공원 조성공사(4구간)", "주소": "하대원동 107 외", "설치(공사)종료일": "2025-09-25", "사업명": "건설업" }, "geometry": { "type": "Point", "coordinates": [ 127.144135496887856, 37.430906269338315 ] } },
{ "type": "Feature", "properties": { "fid": 6151, "사업자명(상호)": "개인", "공사장명": "우원아파트 외벽 도장공사", "주소": "경기도 성남시 중원구 성남동 3300 우원아파트", "설치(공사)종료일": "2025-05-08", "사업명": null }, "geometry": { "type": "Point", "coordinates": [ 127.134988693371056, 37.433320560463173 ] } },
{ "type": "Feature", "properties": { "fid": 6331, "사업자명(상호)": "피엔지건설(주)", "공사장명": "성남 포레디움 오피스 신축공사", "주소": "경기도 성남시 중원구 성남동 3199외 8필지", "설치(공사)종료일": "2026-11-30", "사업명": "건설업" }, "geometry": { "type": "Point", "coordinates": [ 127.130150632963037, 37.433442015598963 ] } },
{ "type": "Feature", "properties": { "fid": 6188, "사업자명(상호)": "주식회사 우진디앤씨", "공사장명": "성남동 2486번지 해체공사", "주소": "경기도 성남시 중원구 성남동 2486", "설치(공사)종료일": "2025-08-29", "사업명": "건설업" }, "geometry": { "type": "Point", "coordinates": [ 127.140769164570258, 37.43541979996894 ] } },
{ "type": "Feature", "properties": { "fid": 6293, "사업자명(상호)": "켑코이에스 주식회사", "공사장명": "성남동 2486번지 철거공사", "주소": "경기도 성남시 중원구 성남동 2486", "설치(공사)종료일": "2026-05-31", "사업명": "건설업" }, "geometry": { "type": "Point", "coordinates": [ 127.140769164570258, 37.43541979996894 ] } },
{ "type": "Feature", "properties": { "fid": 6304, "사업자명(상호)": "주식회사 국대건설", "공사장명": "성남동 2195번지 해체공사", "주소": "경기도 성남시 중원구 성남동 2195", "설치(공사)종료일": "2026-06-30", "사업명": "건설업" }, "geometry": { "type": "Point", "coordinates": [ 127.139392121995229, 37.435900674100196 ] } },
{ "type": "Feature", "properties": { "fid": 6220, "사업자명(상호)": "(주)동북아건설", "공사장명": "더 스타뷰 오피스텔 신축공사", "주소": "경기도 성남시 중원구 성남동 2197", "설치(공사)종료일": "2025-10-31", "사업명": "건설업" }, "geometry": { "type": "Point", "coordinates": [ 127.139734910637046, 37.43625069143885 ] } },
{ "type": "Feature", "properties": { "fid": 6273, "사업자명(상호)": "한신공영 주식회사", "공사장명": "성남중원 행복주택 및 공영주차장 건설공사 1공구 중 해체공사", "주소": "경기도 성남시 중원구 성남동 2811", "설치(공사)종료일": "2026-04-30", "사업명": "건설업" }, "geometry": { "type": "Point", "coordinates": [ 127.146266744056845, 37.436506287275812 ] } },
{ "type": "Feature", "properties": { "fid": 6352, "사업자명(상호)": "(주)플러스종합건설", "공사장명": "성남중1구역 제일초등학교 기부채납시설 공사", "주소": "경기도 성남시 중원구 중앙동 2970 성남제일초등학교 기부채납동", "설치(공사)종료일": "2027-07-14", "사업명": "건설업" }, "geometry": { "type": "Point", "coordinates": [ 127.149339439037831, 37.438473931269442 ] } },
{ "type": "Feature", "properties": { "fid": 6354, "사업자명(상호)": "(주)플러스종합건설", "공사장명": "그린스마트스쿨 성남제일초 임대형 민자사업", "주소": "경기도 성남시 중원구 중앙동 2970 성남제일초등학교", "설치(공사)종료일": "2027-07-26", "사업명": null }, "geometry": { "type": "Point", "coordinates": [ 127.149339439037831, 37.438473931269442 ] } },
{ "type": "Feature", "properties": { "fid": 6178, "사업자명(상호)": "주식회사 신유산업개발", "공사장명": "성남시 성호시장 철거공사", "주소": "경기도 성남시 중원구 성남동 2070번지 일원", "설치(공사)종료일": "2025-07-31", "사업명": "건설업" }, "geometry": { "type": "Point", "coordinates": [ 127.143822901899838, 37.438499288978939 ] } },
{ "type": "Feature", "properties": { "fid": 6253, "사업자명(상호)": "(주)라인건설", "공사장명": "성남시 성호시장 도시개발사업 오피스텔 신축공사", "주소": "경기도 성남시 중원구 성남동 2070번지", "설치(공사)종료일": "2026-02-07", "사업명": null }, "geometry": { "type": "Point", "coordinates": [ 127.143822901899838, 37.438499288978939 ] } },
{ "type": "Feature", "properties": { "fid": 6233, "사업자명(상호)": "(주)수엔테크", "공사장명": "성남동 2001번지 외 2개소 노후 상수관 정비공사", "주소": "성남시 중원구 성남동 2001~2144번지", "설치(공사)종료일": "2025-12-08", "사업명": "건설업" }, "geometry": { "type": "Point", "coordinates": [ 127.144643968449273, 37.439207985766082 ] } },
{ "type": "Feature", "properties": { "fid": 6246, "사업자명(상호)": "하우텍씨엔알건설(주)", "공사장명": "WMC 성남중앙교회 신축공사", "주소": "경기도 성남시 중원구 중앙동 3003", "설치(공사)종료일": "2025-12-31", "사업명": "건설업" }, "geometry": { "type": "Point", "coordinates": [ 127.148638701624478, 37.439562277308092 ] } },
{ "type": "Feature", "properties": { "fid": 6381, "사업자명(상호)": "(주)나라이엔씨", "공사장명": "분당사업소 열수송관 추가 및 개선공사", "주소": "경기도 성남시 중원구 중앙동 1372 일원(도환 중1구역 인근)", "설치(공사)종료일": "2028-03-02", "사업명": "건설업" }, "geometry": { "type": "Point", "coordinates": [ 127.148877791368889, 37.440018218874407 ] } },
{ "type": "Feature", "properties": { "fid": 6302, "사업자명(상호)": "을묘종합건설(주)", "공사장명": "도환중1구역 공급관 이설, 마감 공사(수탁)", "주소": "광명로 206 인근 중앙동 사거리 근처", "설치(공사)종료일": "2026-06-30", "사업명": "건설업" }, "geometry": { "type": "Point", "coordinates": [ 127.150609648034418, 37.440355228374088 ] } },
{ "type": "Feature", "properties": { "fid": 6350, "사업자명(상호)": "효성중공업(주)", "공사장명": "성남중1구역 도시환경정비사업", "주소": "성남시 중원구 중앙동 912번지 일원", "설치(공사)종료일": "2027-07-14", "사업명": "건설업" }, "geometry": { "type": "Point", "coordinates": [ 127.149419988120854, 37.440640315632862 ] } },
{ "type": "Feature", "properties": { "fid": 6332, "사업자명(상호)": "(주)다우건축", "공사장명": "제일병원 리모델링공사", "주소": "경기도 성남시 수정구 신흥동 5539", "설치(공사)종료일": "2026-11-30", "사업명": "건설업" }, "geometry": { "type": "Point", "coordinates": [ 127.13758660586798, 37.442252561387072 ] } },
{ "type": "Feature", "properties": { "fid": 6255, "사업자명(상호)": "(주)케이제이건설", "공사장명": "성남 제일병원 대수선 공사", "주소": "경기도 성남시 수정구 신흥동 5539 외 1필지", "설치(공사)종료일": "2026-02-28", "사업명": "건설업" }, "geometry": { "type": "Point", "coordinates": [ 127.13758660586798, 37.442252561387072 ] } },
{ "type": "Feature", "properties": { "fid": 6346, "사업자명(상호)": "(주)제효", "공사장명": "성남 산후조리원 신축공사", "주소": "경기도 성남시 수정구 태평동 3495-1 외 3필지", "설치(공사)종료일": "2027-06-04", "사업명": null }, "geometry": { "type": "Point", "coordinates": [ 127.136971570571518, 37.442675932042533 ] } },
{ "type": "Feature", "properties": { "fid": 6357, "사업자명(상호)": "서로종합건설 주식회사", "공사장명": "희망대초 공간재구조화 증개축공사", "주소": "경기도 성남시 수정구 신흥동 1232 희망대초등학교", "설치(공사)종료일": "2027-07-30", "사업명": "건설업" }, "geometry": { "type": "Point", "coordinates": [ 127.148678839364223, 37.446782248289935 ] } },
{ "type": "Feature", "properties": { "fid": 6333, "사업자명(상호)": "(주)금강주택", "공사장명": "성남복정 1,2지구 내 조경공사", "주소": "경기도 성남시 수정구 복정동 신흥2동 일원(성남복정1,2지구 내)", "설치(공사)종료일": "2026-12-04", "사업명": "건설업" }, "geometry": { "type": "Point", "coordinates": [ 127.149288116860774, 37.447409216252076 ] } },
{ "type": "Feature", "properties": { "fid": 6307, "사업자명(상호)": "(주)한울건설", "공사장명": "트리타워, 스카이워크 부지조성공사", "주소": "경기도 성남시 수정구 신흥동 2345 일원(희망대근린공원 내)", "설치(공사)종료일": "2026-07-30", "사업명": "건설업" }, "geometry": { "type": "Point", "coordinates": [ 127.150348446938338, 37.447725967938133 ] } },
{ "type": "Feature", "properties": { "fid": 6285, "사업자명(상호)": "(주)명신건설", "공사장명": "수정청소년수련관 증축 및 리모델링공사", "주소": "경기도 성남시 수정구 신흥동 466 수정청소년수련관", "설치(공사)종료일": "2026-05-22", "사업명": "건설업" }, "geometry": { "type": "Point", "coordinates": [ 127.150336448782838, 37.448751974986962 ] } },
{ "type": "Feature", "properties": { "fid": 6320, "사업자명(상호)": "(주)아키웍스", "공사장명": "신흥동 859-1 근린생활시설 신축공사", "주소": "경기도 성남시 수정구 신흥동 859-1", "설치(공사)종료일": "2026-08-31", "사업명": "건설업" }, "geometry": { "type": "Point", "coordinates": [ 127.147619462804826, 37.450704945482428 ] } },
{ "type": "Feature", "properties": { "fid": 6192, "사업자명(상호)": "(주)신의환경", "공사장명": "산학협렵관 해체공사", "주소": "경기도 성남시 수정구 복정동 620-2 가천대학교", "설치(공사)종료일": "2025-08-31", "사업명": "건설업" }, "geometry": { "type": "Point", "coordinates": [ 127.130155825675487, 37.450860275112724 ] } },
{ "type": "Feature", "properties": { "fid": 6386, "사업자명(상호)": "켑코이에스 주식회사", "공사장명": "성남동 2486번지 오피스텔 신축공사", "주소": "경기도 성남시 중원구 성남동 2486", "설치(공사)종료일": "2028-04-30", "사업명": "건설업" }, "geometry": { "type": "Point", "coordinates": [ 127.140769164570258, 37.43541979996894 ] } },
{ "type": "Feature", "properties": { "fid": 6396, "사업자명(상호)": "(주)남성건설", "공사장명": "성남동 2314 오피스텔 신축공사", "주소": "성남시 중원구 성남동 2314 외 7필지", "설치(공사)종료일": "2028-08-01", "사업명": "건설업" }, "geometry": { "type": "Point", "coordinates": [ 127.1372536171897, 37.434284735430666 ] } },
{ "type": "Feature", "properties": { "fid": 6401, "사업자명(상호)": "(주)디에이건설", "공사장명": "성남동 LH청년임대주택(오피스텔) 신축공사", "주소": "경기도 성남시 중원구 성남동 3199외 8필지", "설치(공사)종료일": "2029-01-15", "사업명": "건설업" }, "geometry": { "type": "Point", "coordinates": [ 127.130150632963037, 37.433442015598963 ] } },
{ "type": "Feature", "properties": { "fid": 6341, "사업자명(상호)": "계룡건설산업(주)", "공사장명": "판교수질복원센터 하수처리용량 증설사업", "주소": "경기도 성남시 분당구 판교로228번길51~수정구 금토동 410-406(오수중계펌프장)", "설치(공사)종료일": "2027-02-01", "사업명": "건설업" }, "geometry": { "type": "Point", "coordinates": [ 127.102772292748099, 37.398225712787514 ] } },
{ "type": "Feature", "properties": { "fid": 6167, "사업자명(상호)": "동원건설산업 주식회사", "공사장명": "성남복합공장 신축공사", "주소": "경기도 성남시 중원구 상대원동 369-3번지 외 1필지", "설치(공사)종료일": "2025-06-30", "사업명": "건설업" }, "geometry": { "type": "Point", "coordinates": [ 127.177681462039857, 37.435607815899132 ] } },
{ "type": "Feature", "properties": { "fid": 6229, "사업자명(상호)": "(주)부영씨엔씨", "공사장명": "늘푸른 산성 아파트 각동 내외부 균열보수 및 재도장 공사", "주소": "경기도 성남시 중원구 상대원동 174 산성아파트", "설치(공사)종료일": "2025-11-30", "사업명": "건설업" }, "geometry": { "type": "Point", "coordinates": [ 127.178533794900304, 37.442480941068332 ] } },
{ "type": "Feature", "properties": { "fid": 6249, "사업자명(상호)": "주식회사 화성건설", "공사장명": "상대원동 378-39외 2개소 노후상수관 정비공사", "주소": "상대원동 378-39 일원 외 2개소", "설치(공사)종료일": "2026-01-06", "사업명": null }, "geometry": { "type": "Point", "coordinates": [ 127.179880567253747, 37.434601852090438 ] } },
{ "type": "Feature", "properties": { "fid": 6291, "사업자명(상호)": "대양한주종합건설(주)", "공사장명": "중원구 상대원동 공장(R&D CENTER) 신축공사", "주소": "경기도 성남시 중원구 상대원동 441-7, 11번지", "설치(공사)종료일": "2026-05-31", "사업명": "건설업" }, "geometry": { "type": "Point", "coordinates": [ 127.1793706394174, 37.432596458235452 ] } },
{ "type": "Feature", "properties": { "fid": 6362, "사업자명(상호)": "지에스건설(주)", "공사장명": "성남시 생활폐기물처리시설 민간투자사업", "주소": "성남시 중원구 상대원동 420번지", "설치(공사)종료일": "2027-10-31", "사업명": "건설업" }, "geometry": { "type": "Point", "coordinates": [ 127.181846648700898, 37.431885736037827 ] } },
{ "type": "Feature", "properties": { "fid": 6155, "사업자명(상호)": "다울건설주식회사", "공사장명": "율동공원 생태문화공원 조성공사", "주소": "경기도 성남시 분당구 율동 318 율동공원", "설치(공사)종료일": "2025-05-30", "사업명": "건설업" }, "geometry": { "type": "Point", "coordinates": [ 127.150860326128068, 37.381437781186264 ] } },
{ "type": "Feature", "properties": { "fid": 6157, "사업자명(상호)": "(주)형호엘엔씨", "공사장명": "율동공원 생태문화공원 조성공사", "주소": "경기도 성남시 분당구 율동 124-2 일원", "설치(공사)종료일": "2025-05-31", "사업명": "건설업" }, "geometry": { "type": "Point", "coordinates": [ 127.152825508196202, 37.385005478322348 ] } },
{ "type": "Feature", "properties": { "fid": 6177, "사업자명(상호)": "(주)벨이앤씨", "공사장명": "오리교 보수보강 및 보도교 신설공사", "주소": "경기도 성남시 분당구 구미동 200-1 일원", "설치(공사)종료일": "2025-07-26", "사업명": "건설업" }, "geometry": { "type": "Point", "coordinates": [ 127.112536886381434, 37.338538460590755 ] } },
{ "type": "Feature", "properties": { "fid": 6305, "사업자명(상호)": "(주)서영", "공사장명": "탄천 구미 보도교 설치사업", "주소": "경기도 성남시 분당구 구미동 200-1", "설치(공사)종료일": "2026-07-14", "사업명": "건설업" }, "geometry": { "type": "Point", "coordinates": [ 127.112536886381434, 37.338538460590755 ] } },
{ "type": "Feature", "properties": { "fid": 6295, "사업자명(상호)": "주식회사 지앤필드종합건설", "공사장명": "무지개마을 신한건영아파트 외벽 균열보수 및 재도장 공사", "주소": "경기도 성남시 분당구 구미동 201 무지개마을", "설치(공사)종료일": "2026-05-31", "사업명": "건설업" }, "geometry": { "type": "Point", "coordinates": [ 127.114847923576278, 37.339250843502128 ] } },
{ "type": "Feature", "properties": { "fid": 6171, "사업자명(상호)": "(주)동일인테리어", "공사장명": "용인 고림 로제비앙 견본주택 신축공사", "주소": "경기도 성남시 분당구 구미동 183", "설치(공사)종료일": "2025-06-30", "사업명": "건설업" }, "geometry": { "type": "Point", "coordinates": [ 127.110071239844771, 37.339556416804712 ] } },
{ "type": "Feature", "properties": { "fid": 6162, "사업자명(상호)": "(주)신원건설", "공사장명": "구미동 하수처리장 임시개방 토목 공사", "주소": "경기도 성남시 분당구 구미동 195", "설치(공사)종료일": "2025-06-17", "사업명": "건설업" }, "geometry": { "type": "Point", "coordinates": [ 127.113446613290066, 37.340924782334824 ] } },
{ "type": "Feature", "properties": { "fid": 6187, "사업자명(상호)": "주식회사 세광종합건설", "공사장명": "구미동 하수처리장 1단계 사업 건축공사", "주소": "경기도 성남시 분당구 구미동 195 외 4필지", "설치(공사)종료일": "2025-08-25", "사업명": "건설업" }, "geometry": { "type": "Point", "coordinates": [ 127.113446613290066, 37.340924782334824 ] } },
{ "type": "Feature", "properties": { "fid": 6214, "사업자명(상호)": "(주)플러스종합건설", "공사장명": "미금교 보수보강 및 보도교 신설 공사", "주소": "경기도 성남시 분당구 구미동 79", "설치(공사)종료일": "2025-10-15", "사업명": "건설업" }, "geometry": { "type": "Point", "coordinates": [ 127.1199829524884, 37.345279118775302 ] } },
{ "type": "Feature", "properties": { "fid": 6262, "사업자명(상호)": "정진씨앤씨(주)", "공사장명": "구미공원 체육시설 지붕설치 공사", "주소": "경기도 성남시 분당구 구미동 299", "설치(공사)종료일": "2026-03-22", "사업명": "건설업" }, "geometry": { "type": "Point", "coordinates": [ 127.122227018810676, 37.345951763212909 ] } },
{ "type": "Feature", "properties": { "fid": 6237, "사업자명(상호)": "(주)힐스산업개발", "공사장명": "경기도 성남시 분당구 동원동 115-1번지 근린생활시설 신축공사", "주소": "경기도 성남시 분당구 동원동 115-1", "설치(공사)종료일": "2025-12-20", "사업명": "건설업" }, "geometry": { "type": "Point", "coordinates": [ 127.098278206275623, 37.346319693914879 ] } },
{ "type": "Feature", "properties": { "fid": 6164, "사업자명(상호)": "선혜종합건설 주식회사", "공사장명": "구미교 보수보강 및 보도교 신설공사", "주소": "경기도 성남시 분당구 구미동 99", "설치(공사)종료일": "2025-06-28", "사업명": "건설업" }, "geometry": { "type": "Point", "coordinates": [ 127.12103183530013, 37.347104675563074 ] } },
{ "type": "Feature", "properties": { "fid": 6284, "사업자명(상호)": "(주)이강종합건설", "공사장명": "분당 어린이종합지원센터 건립공사", "주소": "성남시 분당구 구미동 28", "설치(공사)종료일": "2026-05-19", "사업명": "건설업" }, "geometry": { "type": "Point", "coordinates": [ 127.111196245542686, 37.349324293344807 ] } },
{ "type": "Feature", "properties": { "fid": 6223, "사업자명(상호)": "케이건설 주식회사", "공사장명": "균열보수 및 재도장 공사", "주소": "경기도 성남시 분당구 구미동 77 까치마을", "설치(공사)종료일": "2025-11-15", "사업명": "건설업" }, "geometry": { "type": "Point", "coordinates": [ 127.117241860669083, 37.350275852741319 ] } },
{ "type": "Feature", "properties": { "fid": 6184, "사업자명(상호)": "북부종합건설", "공사장명": "돌마교 보수보강 및 보도교 신설공사", "주소": "경기도 성남시 분당구 구미동 74(돌마교)", "설치(공사)종료일": "2025-08-13", "사업명": "건설업" }, "geometry": { "type": "Point", "coordinates": [ 127.119053678372694, 37.35113976325411 ] } },
{ "type": "Feature", "properties": { "fid": 6182, "사업자명(상호)": "한누리건설 주식회사", "공사장명": "아파트 내외부 및 지하주자창 재도장 공사", "주소": "경기도 성남시 분당구 금곡동 202 분당하우스토리", "설치(공사)종료일": "2025-08-07", "사업명": "건설업" }, "geometry": { "type": "Point", "coordinates": [ 127.104912360973458, 37.352125980974606 ] } },
{ "type": "Feature", "properties": { "fid": 6159, "사업자명(상호)": "(주)가람엘앤씨", "공사장명": "보행자 도로내 노후시설 정비공사", "주소": "경기도 성남시 분당구 금곡동 128번지", "설치(공사)종료일": "2025-06-05", "사업명": "건설업" }, "geometry": { "type": "Point", "coordinates": [ 127.112519866907249, 37.354283429296466 ] } },
{ "type": "Feature", "properties": { "fid": 6257, "사업자명(상호)": "(주)포레스트건설", "공사장명": "판교142 프로젝트 신축공사", "주소": "경기도 성남시 분당구 금곡동 338-1", "설치(공사)종료일": "2026-02-28", "사업명": "건설업" }, "geometry": { "type": "Point", "coordinates": [ 127.102795365822956, 37.356535459123499 ] } },
{ "type": "Feature", "properties": { "fid": 6321, "사업자명(상호)": "(주)세창토건", "공사장명": "분당서울대학교병원 교수동 증축공사", "주소": "경기도 성남시 분당구 구미동 300 분당서울대학교병원", "설치(공사)종료일": "2026-09-01", "사업명": "건설업" }, "geometry": { "type": "Point", "coordinates": [ 127.124130838480824, 37.349209177286909 ] } },
{ "type": "Feature", "properties": { "fid": 6328, "사업자명(상호)": "(주)포스코이앤씨", "공사장명": "무지개마을4단지 리모델링사업", "주소": "경기도 성남시 분당구 구미동 220-1 무지개마을아파트", "설치(공사)종료일": "2026-10-30", "사업명": "건설업" }, "geometry": { "type": "Point", "coordinates": [ 127.116463047107416, 37.339365321299205 ] } },
{ "type": "Feature", "properties": { "fid": 6339, "사업자명(상호)": "(주)안도종합건설", "공사장명": "성남지역 전기공급시설 전력구공사(동서울-신성남 용량증대)", "주소": "경기도 성남시 분당구 구미동 산 71-25", "설치(공사)종료일": "2027-01-20", "사업명": "건설업" }, "geometry": { "type": "Point", "coordinates": [ 127.128838157329611, 37.338393770386283 ] } },
{ "type": "Feature", "properties": { "fid": 6345, "사업자명(상호)": "요진건설산업(주)", "공사장명": "구미동 업무시설 신축공사", "주소": "경기도 성남시 분당구 구미동 192-3", "설치(공사)종료일": "2027-04-30", "사업명": "건설업" }, "geometry": { "type": "Point", "coordinates": [ 127.111286898336346, 37.335439831544818 ] } },
{ "type": "Feature", "properties": { "fid": 6384, "사업자명(상호)": "현송건설주식회사", "공사장명": "금곡동 복합청사 신축공사", "주소": "경기도 성남시 분당구 금곡동 173, 174 금곡동 행정복지센터", "설치(공사)종료일": "2028-03-11", "사업명": "건설업" }, "geometry": { "type": "Point", "coordinates": [ 127.107310356390343, 37.351587347489968 ] } },
{ "type": "Feature", "properties": { "fid": 6385, "사업자명(상호)": "강산건설(주)", "공사장명": "성남낙생 공공주택지구 조성 공사", "주소": "경기도 성남시 분당구 동원동 284-6", "설치(공사)종료일": "2028-04-25", "사업명": "건설업" }, "geometry": { "type": "Point", "coordinates": [ 127.081668671114585, 37.352579217281132 ] } },
{ "type": "Feature", "properties": { "fid": 6226, "사업자명(상호)": "주식회사 한석개발", "공사장명": "분당동 노후 상수관 정비공사", "주소": "경기도 성남시 분당구 분당동 148-6 일원", "설치(공사)종료일": "2025-11-23", "사업명": "건설업" }, "geometry": { "type": "Point", "coordinates": [ 127.145017869686868, 37.367692119780159 ] } },
{ "type": "Feature", "properties": { "fid": 6236, "사업자명(상호)": "천명토건 주식회사", "공사장명": "양영디지컬 미디어고 증개축 리모델링 공사", "주소": "경기도 성남시 분당구 서현동 316 양영디지털고등학교", "설치(공사)종료일": "2025-12-20", "사업명": "건설업" }, "geometry": { "type": "Point", "coordinates": [ 127.14051116910143, 37.373695201965226 ] } },
{ "type": "Feature", "properties": { "fid": 6234, "사업자명(상호)": "(주)수산기업", "공사장명": "효자촌 동아아파트 외부 균열보수 및 재도장공사", "주소": "경기도 성남시 분당구 서현동 291 효자촌", "설치(공사)종료일": "2025-12-10", "사업명": "건설업" }, "geometry": { "type": "Point", "coordinates": [ 127.135546581995229, 37.377776302670682 ] } },
{ "type": "Feature", "properties": { "fid": 6261, "사업자명(상호)": "(유)성우이앤씨", "공사장명": "서현동 327-9~329-10외 7개소 노후상수관 정비공사", "주소": "경기도 성남시 분당구 서현동 327-9 ~ 329-10 일원", "설치(공사)종료일": "2026-03-19", "사업명": "건설업" }, "geometry": { "type": "Point", "coordinates": [ 127.138307898354796, 37.378170479212081 ] } },
{ "type": "Feature", "properties": { "fid": 6287, "사업자명(상호)": "(주)일주종합건설", "공사장명": "율동공원 생태문화공원 조성공사(3구간)", "주소": "경기도 성남시 분당구 율동 307번지 일원", "설치(공사)종료일": "2026-05-30", "사업명": "건설업" }, "geometry": { "type": "Point", "coordinates": [ 127.148185917118496, 37.383708698081989 ] } },
{ "type": "Feature", "properties": { "fid": 6343, "사업자명(상호)": "디에이피종합건설 주식회사", "공사장명": "서현동 77-2 상가주택 신축공사", "주소": "경기도 성남시 분당구 서현동 77-2", "설치(공사)종료일": "2027-02-28", "사업명": "건설업" }, "geometry": { "type": "Point", "coordinates": [ 127.131000421113413, 37.384561207380443 ] } },
{ "type": "Feature", "properties": { "fid": 6152, "사업자명(상호)": "지에프종합건설(주)", "공사장명": "단독주택신축공사", "주소": "경기도 성남시 분당구 서현동 23-11", "설치(공사)종료일": "2025-05-17", "사업명": "건설업" }, "geometry": { "type": "Point", "coordinates": [ 127.141169646906988, 37.384975509767301 ] } },
{ "type": "Feature", "properties": { "fid": 6211, "사업자명(상호)": "주식회사 팍스하미", "공사장명": "취사식당 신축공사", "주소": "경기도 성남시 분당구 서현동 4외 22필지", "설치(공사)종료일": "2025-10-03", "사업명": "건설업" }, "geometry": { "type": "Point", "coordinates": [ 127.144037480425652, 37.387138174409458 ] } },
{ "type": "Feature", "properties": { "fid": 6306, "사업자명(상호)": "미가건설 주식회사", "공사장명": "24-D-00부대 지하주차장 신축 시설공사", "주소": "경기도 성남시 분당구 서현동 산43 외 29필지", "설치(공사)종료일": "2026-07-25", "사업명": "건설업" }, "geometry": { "type": "Point", "coordinates": [ 127.145594612865295, 37.389863493999357 ] } },
{ "type": "Feature", "properties": { "fid": 6379, "사업자명(상호)": "(주)백천종합건설", "공사장명": "의무사 간부숙소 신축공사", "주소": "경기도 성남시 분당구 율동 222번지 외 1필지(산 22)", "설치(공사)종료일": "2028-02-14", "사업명": "건설업" }, "geometry": { "type": "Point", "coordinates": [ 127.149554336689093, 37.390592422446986 ] } },
{ "type": "Feature", "properties": { "fid": 6312, "사업자명(상호)": "동호건설 주식회사", "공사장명": "경기교육청 송림고등학교 급식소 신축(증축)공사", "주소": "경기도 성남시 분당구 이매동 378", "설치(공사)종료일": "2026-07-31", "사업명": "건설업" }, "geometry": { "type": "Point", "coordinates": [ 127.130789311698379, 37.392274847173198 ] } },
{ "type": "Feature", "properties": { "fid": 6216, "사업자명(상호)": "(주)미래에이앤씨", "공사장명": "돌마고 체육관 증축공사", "주소": "경기도 성남시 분당구 이매동 265 돌마고등학교", "설치(공사)종료일": "2025-10-20", "사업명": "건설업" }, "geometry": { "type": "Point", "coordinates": [ 127.131600268004277, 37.393359593511256 ] } },
{ "type": "Feature", "properties": { "fid": 6388, "사업자명(상호)": "디엘이앤씨(주)", "공사장명": "분당복합 현대화사업 건설공사", "주소": "경기도 성남시 분당구 분당동 186", "설치(공사)종료일": "2028-05-31", "사업명": "건설업" }, "geometry": { "type": "Point", "coordinates": [ 127.146564877769634, 37.365619558465305 ] } },
{ "type": "Feature", "properties": { "fid": 6403, "사업자명(상호)": "대양종합건설(주)", "공사장명": "성남서현 공공주택지구 조성공사", "주소": "경기도 성남시 분당구 서현동 110번지 일원", "설치(공사)종료일": "2030-02-14", "사업명": "건설업" }, "geometry": { "type": "Point", "coordinates": [ 127.136465684931835, 37.38273730725539 ] } },
{ "type": "Feature", "properties": { "fid": 6294, "사업자명(상호)": "아이디에이치종합건설(주)", "공사장명": "대장동 608-2번지 주차시설 및 근린생활시설 신축공사", "주소": "경기도 성남시 분당구 대장동 608-2번지", "설치(공사)종료일": "2026-05-31", "사업명": "건설업" }, "geometry": { "type": "Point", "coordinates": [ 127.069527950426703, 37.371216400421481 ] } },
{ "type": "Feature", "properties": { "fid": 6393, "사업자명(상호)": "건웅건설산업(주)", "공사장명": "판교대장 종합사회복지관 건립공사", "주소": "경기도 성남시 분당구 대장동 631-2", "설치(공사)종료일": "2028-06-27", "사업명": "건설업" }, "geometry": { "type": "Point", "coordinates": [ 127.070504811468041, 37.367142344152832 ] } },
{ "type": "Feature", "properties": { "fid": 6210, "사업자명(상호)": "(주)탱크마스타", "공사장명": "외부 균열보수 및 재도장공사", "주소": "경기도 성남시 분당구 운중동 989 산운마을한성필하우스아파트", "설치(공사)종료일": "2025-10-02", "사업명": null }, "geometry": { "type": "Point", "coordinates": [ 127.072115563410478, 37.3935439389642 ] } },
{ "type": "Feature", "properties": { "fid": 6219, "사업자명(상호)": "(주)금강주택", "공사장명": "판교대장 연립 B2,B3 BL", "주소": "경기도 성남시 분당구 대장동 산 19-47", "설치(공사)종료일": "2025-10-31", "사업명": "건설업" }, "geometry": { "type": "Point", "coordinates": [ 127.072538068500663, 37.372757254664577 ] } },
{ "type": "Feature", "properties": { "fid": 6218, "사업자명(상호)": "㈜금강주택", "공사장명": "판교대장지구 연립 B2, B3블록 신축공사", "주소": "경기도 성남시 분당구 대장동 산 19-47 일원", "설치(공사)종료일": "2025-10-31", "사업명": "건설업" }, "geometry": { "type": "Point", "coordinates": [ 127.072538068500663, 37.372757254664577 ] } },
{ "type": "Feature", "properties": { "fid": 6281, "사업자명(상호)": "주식회사 인스그린", "공사장명": "대장지구 공공도서관 건립공사", "주소": "경기도 성남시 분당구 대장동 187-4번지", "설치(공사)종료일": "2026-05-11", "사업명": "건설업" }, "geometry": { "type": "Point", "coordinates": [ 127.074874491765272, 37.364442260425108 ] } },
{ "type": "Feature", "properties": { "fid": 6272, "사업자명(상호)": "대흥건설(주)", "공사장명": "대장동 단독주택 신축공사", "주소": "경기도 성남시 분당구 대장동 1-18", "설치(공사)종료일": "2026-04-30", "사업명": "건설업" }, "geometry": { "type": "Point", "coordinates": [ 127.076102103475392, 37.374697902759507 ] } },
{ "type": "Feature", "properties": { "fid": 6325, "사업자명(상호)": "주식회사 시공작", "공사장명": "하산운동 376-32, 61 단독주택 신축공사", "주소": "경기도 성남시 분당구 하산운동 376-32, 61번지", "설치(공사)종료일": "2026-09-30", "사업명": "건설업" }, "geometry": { "type": "Point", "coordinates": [ 127.079035910493147, 37.378133107743054 ] } },
{ "type": "Feature", "properties": { "fid": 6319, "사업자명(상호)": "개인", "공사장명": "운중동 단독주택 신축공사", "주소": "경기도 성남시 분당구 운중동 996-32", "설치(공사)종료일": "2026-08-31", "사업명": "건설업" }, "geometry": { "type": "Point", "coordinates": [ 127.081321597656824, 37.393508304763621 ] } },
{ "type": "Feature", "properties": { "fid": 6399, "사업자명(상호)": "계룡건설산업(주)", "공사장명": "월곶~판교 복선전철 제10공구 노반신설 기타 공사", "주소": "경기도 성남시 분당구 운중동 898-6", "설치(공사)종료일": "2028-11-21", "사업명": "건설업" }, "geometry": { "type": "Point", "coordinates": [ 127.08245439459138, 37.391231132192999 ] } },
{ "type": "Feature", "properties": { "fid": 6271, "사업자명(상호)": "(주)콘크리트 공작소", "공사장명": "백현동 치과병원  신축공사", "주소": "경기도 성남시 분당구 백현동 504-3", "설치(공사)종료일": "2026-04-30", "사업명": "건설업" }, "geometry": { "type": "Point", "coordinates": [ 127.089605492594742, 37.383490064577749 ] } },
{ "type": "Feature", "properties": { "fid": 6311, "사업자명(상호)": "㈜성도이엔지", "공사장명": "백현동 주택 증축공사", "주소": "경기도 성남시 분당구 백현동 502", "설치(공사)종료일": "2026-07-31", "사업명": "건설업" }, "geometry": { "type": "Point", "coordinates": [ 127.090265065421576, 37.383167744789503 ] } },
{ "type": "Feature", "properties": { "fid": 6274, "사업자명(상호)": "미래조건설(주)", "공사장명": "판교공원로(판교동 595-3) 노상주차장 조성공사", "주소": "경기도 성남시 분당구 판교동 595-3번지 일원", "설치(공사)종료일": "2026-04-30", "사업명": "건설업" }, "geometry": { "type": "Point", "coordinates": [ 127.093337950588733, 37.389973257391219 ] } },
{ "type": "Feature", "properties": { "fid": 6242, "사업자명(상호)": "(주)에이치제이중공업 건설부문", "공사장명": "광역급행철도 성남정거장 등 공사", "주소": "성남시 분당구 (서현동 288-1, 288-2, 백현동 545-1, 545-2, 수내동45, 이매동 153-2,150-6)", "설치(공사)종료일": "2025-12-31", "사업명": "건설업" }, "geometry": { "type": "Point", "coordinates": [ 127.094518398721036, 37.375370122936815 ] } },
{ "type": "Feature", "properties": { "fid": 6389, "사업자명(상호)": "태평양이앤씨(주)", "공사장명": "성남시 하수관로 정비사업(4단계)", "주소": "경기도 성남시 분당구 일원", "설치(공사)종료일": "2028-06-07", "사업명": "건설업" }, "geometry": { "type": "Point", "coordinates": [ 127.094518398721036, 37.375370122936815 ] } },
{ "type": "Feature", "properties": { "fid": 6364, "사업자명(상호)": "주식회사 케이티건설", "공사장명": "궁내동 근린생활시설 & 운동시설 신축공사", "주소": "경기도 성남시 분당구 궁내동 317-5 외 1필지", "설치(공사)종료일": "2027-10-31", "사업명": "건설업" }, "geometry": { "type": "Point", "coordinates": [ 127.10130387392492, 37.372077765983633 ] } },
{ "type": "Feature", "properties": { "fid": 6174, "사업자명(상호)": "청구종합건설 주식회사", "공사장명": "고덕 일반산단(2차) 판교(가)개량 공사", "주소": "경기도 성남시 분당구 판교동 655", "설치(공사)종료일": "2025-07-21", "사업명": "건설업" }, "geometry": { "type": "Point", "coordinates": [ 127.101314205728315, 37.383976997391301 ] } },
{ "type": "Feature", "properties": { "fid": 6206, "사업자명(상호)": "(주)다짐산업개발", "공사장명": "백현동 골프연습장 신축공사", "주소": "경기도 성남시 분당구 백현동 472-109", "설치(공사)종료일": "2025-09-30", "사업명": "건설업" }, "geometry": { "type": "Point", "coordinates": [ 127.102553662260917, 37.376149378454393 ] } },
{ "type": "Feature", "properties": { "fid": 6275, "사업자명(상호)": "명성종합건설주식회사", "공사장명": "정자동 5-1번지 체육공원 조성공사", "주소": "경기도 성남시 분당구 정자동 5-1", "설치(공사)종료일": "2026-04-30", "사업명": "건설업" }, "geometry": { "type": "Point", "coordinates": [ 127.10380610361473, 37.375762734745813 ] } },
{ "type": "Feature", "properties": { "fid": 6402, "사업자명(상호)": "주식회사 영신", "공사장명": "정자동 163 업무시설 신축공사", "주소": "경기도 성남시 분당구 정자동 163", "설치(공사)종료일": "2029-08-31", "사업명": "건설업" }, "geometry": { "type": "Point", "coordinates": [ 127.105586027585602, 37.363022275521253 ] } },
{ "type": "Feature", "properties": { "fid": 6227, "사업자명(상호)": "일신건설(주)", "공사장명": "정자1동 복합청사 신축공사", "주소": "경기도 성남시 분당구 정자동 161-1", "설치(공사)종료일": "2025-11-30", "사업명": "건설업" }, "geometry": { "type": "Point", "coordinates": [ 127.105686842406925, 37.364562174532324 ] } },
{ "type": "Feature", "properties": { "fid": 6243, "사업자명(상호)": "케이비아이건설(주)", "공사장명": "분당 N타워 업무시설 신축공사", "주소": "경기도 성남시 분당구 정자동 23-2", "설치(공사)종료일": "2025-12-31", "사업명": "건설업" }, "geometry": { "type": "Point", "coordinates": [ 127.106286034270269, 37.367130989114131 ] } },
{ "type": "Feature", "properties": { "fid": 6197, "사업자명(상호)": "(주)레비코건설", "공사장명": "뉴본타워 외장 대수선공사", "주소": "경기도 성남시 분당구 정자동 155-1 뉴본타워", "설치(공사)종료일": "2025-09-15", "사업명": "건설업" }, "geometry": { "type": "Point", "coordinates": [ 127.106301906765381, 37.363962862416706 ] } },
{ "type": "Feature", "properties": { "fid": 6358, "사업자명(상호)": "삼성물산(주)", "공사장명": "판교641 PSM타워 신축공사", "주소": "경기도 성남시 분당구 삼평동 641", "설치(공사)종료일": "2027-09-10", "사업명": "건설업" }, "geometry": { "type": "Point", "coordinates": [ 127.10840177243152, 37.3969854424397 ] } },
{ "type": "Feature", "properties": { "fid": 6359, "사업자명(상호)": "삼성물산(주)", "공사장명": "엔씨소프트 글로벌 RDI센터 신축공사", "주소": "경기도 성남시 분당구 삼평동 641", "설치(공사)종료일": "2027-09-10", "사업명": "건설업" }, "geometry": { "type": "Point", "coordinates": [ 127.10840177243152, 37.3969854424397 ] } },
{ "type": "Feature", "properties": { "fid": 6186, "사업자명(상호)": "(주)풍산건설", "공사장명": "지천교량 보수 보강 공사", "주소": "경기도 성남시 분당구 정자동 1번지,서당교,당우교,동막천1교,장안교,점골교,벌터교,분당천보도5교,분당교,동막교", "설치(공사)종료일": "2025-08-18", "사업명": "건설업" }, "geometry": { "type": "Point", "coordinates": [ 127.10898448789969, 37.381187489996115 ] } },
{ "type": "Feature", "properties": { "fid": 6176, "사업자명(상호)": "(주)동강건설", "공사장명": "불정교 보수보강 및 보도교 신설공사", "주소": "경기도 성남시 분당구 정자동 100-3", "설치(공사)종료일": "2025-07-24", "사업명": "건설업" }, "geometry": { "type": "Point", "coordinates": [ 127.109000005137361, 37.37055801358327 ] } },
{ "type": "Feature", "properties": { "fid": 6175, "사업자명(상호)": "부광건설(주)", "공사장명": "궁내교 보수보강 및 보도교 신설공사", "주소": "경기도 성남시 분당구 정자동 100-3", "설치(공사)종료일": "2025-07-24", "사업명": "건설업" }, "geometry": { "type": "Point", "coordinates": [ 127.109000005137361, 37.37055801358327 ] } },
{ "type": "Feature", "properties": { "fid": 6181, "사업자명(상호)": "미도건설주식회사", "공사장명": "정자교 보수보강 및 보도교 신설 공사", "주소": "경기도 성남시 분당구 정자동 100-3", "설치(공사)종료일": "2025-08-06", "사업명": "건설업" }, "geometry": { "type": "Point", "coordinates": [ 127.109000005137361, 37.37055801358327 ] } },
{ "type": "Feature", "properties": { "fid": 6154, "사업자명(상호)": "세신종합건설(주)", "공사장명": "금곡교 보수,보강 및 보도교 공사", "주소": "경기도 성남시 분당구 정자동 120-3", "설치(공사)종료일": "2025-05-29", "사업명": "건설업" }, "geometry": { "type": "Point", "coordinates": [ 127.109686930387525, 37.365295255318131 ] } },
{ "type": "Feature", "properties": { "fid": 6347, "사업자명(상호)": "(주)포스코이앤씨", "공사장명": "느티마을3단지 리모델링사업", "주소": "경기도 성남시 분당구 정자동 88 느티마을공무원아파트", "설치(공사)종료일": "2027-06-30", "사업명": "건설업" }, "geometry": { "type": "Point", "coordinates": [ 127.111129586580333, 37.36750580373527 ] } },
{ "type": "Feature", "properties": { "fid": 6338, "사업자명(상호)": "에스지신성건설(주)", "공사장명": "판교 에스지세계물산 사옥 신축공사", "주소": "경기도 성남시 분당구 삼평동 650번지", "설치(공사)종료일": "2027-01-15", "사업명": "건설업" }, "geometry": { "type": "Point", "coordinates": [ 127.111406131693784, 37.396741537550483 ] } },
{ "type": "Feature", "properties": { "fid": 6299, "사업자명(상호)": "원일종합건설(주)", "공사장명": "판교특급호텔신축공사", "주소": "경기도 성남시 분당구 삼평동 654번지", "설치(공사)종료일": "2026-06-30", "사업명": "건설업" }, "geometry": { "type": "Point", "coordinates": [ 127.112518960353228, 37.396595920279609 ] } },
{ "type": "Feature", "properties": { "fid": 6297, "사업자명(상호)": "미주종합건설주식회사", "공사장명": "수내교 교통우회용 가설교량 설치 공사", "주소": "경기도 성남시 분당구 수내동 41-1", "설치(공사)종료일": "2026-06-16", "사업명": "건설업" }, "geometry": { "type": "Point", "coordinates": [ 127.113037487586112, 37.382643348253623 ] } },
{ "type": "Feature", "properties": { "fid": 6361, "사업자명(상호)": "(주)포스코이앤씨", "공사장명": "분당느티마을4단지 리모델링", "주소": "경기도 성남시 분당구 정자동 90 느티마을공무원아파트", "설치(공사)종료일": "2027-10-31", "사업명": "건설업" }, "geometry": { "type": "Point", "coordinates": [ 127.113557610949798, 37.367414946703619 ] } },
{ "type": "Feature", "properties": { "fid": 6160, "사업자명(상호)": "주식회사 지우산업개발", "공사장명": "외벽 균열보수 및 재도장", "주소": "경기도 성남시 분당구 삼평동 741 판교푸르지오월드마크", "설치(공사)종료일": "2025-06-13", "사업명": "건설업" }, "geometry": { "type": "Point", "coordinates": [ 127.113637861383637, 37.395376098901167 ] } },
{ "type": "Feature", "properties": { "fid": 6231, "사업자명(상호)": "백두이앤씨(주)", "공사장명": "탄천 맴돌공원 보도교 설치 사업", "주소": "경기도 성남시 분당구 수내동 44", "설치(공사)종료일": "2025-12-01", "사업명": "건설업" }, "geometry": { "type": "Point", "coordinates": [ 127.114808969845456, 37.38192852949097 ] } },
{ "type": "Feature", "properties": { "fid": 6166, "사업자명(상호)": "(주)도림", "공사장명": "백현교 보수보강 및 보도교 신설 공사", "주소": "경기도 성남시 분당구 수내동 44", "설치(공사)종료일": "2025-06-29", "사업명": "건설업" }, "geometry": { "type": "Point", "coordinates": [ 127.114808969845456, 37.38192852949097 ] } },
{ "type": "Feature", "properties": { "fid": 6353, "사업자명(상호)": "성민종합건설(주)", "공사장명": "수내교 전면개축 공사", "주소": "경기도 성남시 분당구 수내동44", "설치(공사)종료일": "2027-07-22", "사업명": "건설업" }, "geometry": { "type": "Point", "coordinates": [ 127.114808969845456, 37.38192852949097 ] } },
{ "type": "Feature", "properties": { "fid": 6313, "사업자명(상호)": "주식회사한은이앤씨", "공사장명": "2024년 분당사업소 열수송시설 유지보수 공사", "주소": "경기도 성남시 분당구 수내동 55 파크타운 외 186개소", "설치(공사)종료일": "2026-08-05", "사업명": "건설업" }, "geometry": { "type": "Point", "coordinates": [ 127.11884354792312, 37.371866530026928 ] } },
{ "type": "Feature", "properties": { "fid": 6153, "사업자명(상호)": "주식회사 아산", "공사장명": "서현교 보수보강 및 보도교 신설공사", "주소": "경기도 성남시 분당구 서현동 290-3 서현동 293", "설치(공사)종료일": "2025-05-17", "사업명": "건설업" }, "geometry": { "type": "Point", "coordinates": [ 127.119462660338684, 37.388431286864936 ] } },
{ "type": "Feature", "properties": { "fid": 6400, "사업자명(상호)": "(주)에이치제이중공업 건설부문", "공사장명": "분당~수서간 도시 고속도로 소음저감시설(2단계)", "주소": "경기도 성남시 분당구 백현동 545-2, 545-3, 545-5, 이매동 149-1, 153-1, 수내동 45, 서현동 288-1, 288-2, 288-3", "설치(공사)종료일": "2028-12-31", "사업명": "건설업" }, "geometry": { "type": "Point", "coordinates": [ 127.120275252007147, 37.393359926519068 ] } },
{ "type": "Feature", "properties": { "fid": 6230, "사업자명(상호)": "주식회사 한국전문건설", "공사장명": "한솔마을 외,내부 균열보수 및 재도장, 지하주차장 도장공사", "주소": "경기도 성남시 분당구 정자동 107 한솔마을", "설치(공사)종료일": "2025-11-30", "사업명": "건설업" }, "geometry": { "type": "Point", "coordinates": [ 127.120635756415894, 37.367153893322524 ] } },
{ "type": "Feature", "properties": { "fid": 6195, "사업자명(상호)": "서강종합건설(주)", "공사장명": "지천교량 보수보강 공사(3구역_내정교, 낙생교, 서현·수내 고가차도)", "주소": "경기도 성남시 분당구 수내동 40-2", "설치(공사)종료일": "2025-09-08", "사업명": "건설업" }, "geometry": { "type": "Point", "coordinates": [ 127.120679002233359, 37.381499497461242 ] } },
{ "type": "Feature", "properties": { "fid": 6213, "사업자명(상호)": "건국조경 주식회사", "공사장명": "서현역 공공공간 디자인 개선사업 조경공사", "주소": "경기도 성남시 분당구 서현동 262-3", "설치(공사)종료일": "2025-10-13", "사업명": "건설업" }, "geometry": { "type": "Point", "coordinates": [ 127.122797654683183, 37.385618667656409 ] } },
{ "type": "Feature", "properties": { "fid": 6376, "사업자명(상호)": "주식회사 신세계토건", "공사장명": "분당선 서현 등 4개 시설개량공사", "주소": "경기도 성남시 분당구 서현동 263, 수내동 14, 금곡동 222, 구미동 197-1", "설치(공사)종료일": "2027-12-25", "사업명": "건설업" }, "geometry": { "type": "Point", "coordinates": [ 127.123346946085434, 37.385050116492863 ] } },
{ "type": "Feature", "properties": { "fid": 6183, "사업자명(상호)": "(주)건영", "공사장명": "방아교 보수보강 및 보도교 신설공사", "주소": "경기도 성남시 분당구 이매동 130", "설치(공사)종료일": "2025-08-11", "사업명": "건설업" }, "geometry": { "type": "Point", "coordinates": [ 127.124464383042678, 37.396651992669746 ] } },
{ "type": "Feature", "properties": { "fid": 6258, "사업자명(상호)": "광진기업(주)", "공사장명": "열수송관 매설 공사", "주소": "경기도 성남시 분당구 이매동130 등 15개소", "설치(공사)종료일": "2026-03-02", "사업명": "건설업" }, "geometry": { "type": "Point", "coordinates": [ 127.124464383042678, 37.396651992669746 ] } },
{ "type": "Feature", "properties": { "fid": 6194, "사업자명(상호)": "승전종합건설(주)", "공사장명": "지천교량 보수 보강 공사(2구역_운중천, 여수천, 야탑천 교량 일원)", "주소": "경기도 성남시 분당구 이매동 130 매송교", "설치(공사)종료일": "2025-09-08", "사업명": "건설업" }, "geometry": { "type": "Point", "coordinates": [ 127.124464383042678, 37.396651992669746 ] } },
{ "type": "Feature", "properties": { "fid": 6168, "사업자명(상호)": "해피인건설(주)", "공사장명": "양현교 보수공사", "주소": "경기도 성남시 서현동 280-1", "설치(공사)종료일": "2025-06-30", "사업명": "건설업" }, "geometry": { "type": "Point", "coordinates": [ 127.124576648612631, 37.388120713518347 ] } },
{ "type": "Feature", "properties": { "fid": 6248, "사업자명(상호)": "주식회사 예은건설", "공사장명": "시범한양아파트 외벽방수, 균열보수 및 도장(지하주차장 누수공사포함)", "주소": "경기도 성남시 분당구 서현동 91 한양아파트", "설치(공사)종료일": "2025-12-31", "사업명": "건설업" }, "geometry": { "type": "Point", "coordinates": [ 127.125950568631808, 37.381123677273045 ] } }
]
}
