{
"type": "FeatureCollection",
"name": "olive",
"crs": { "type": "name", "properties": { "name": "urn:ogc:def:crs:OGC:1.3:CRS84" } },
"features": [
{ "type": "Feature", "properties": { "fid": 14, "매장명": "판교유스페이스점", "주소": "경기도 성남시 분당구 대왕판교로 660 유스페이스 1B동 225호", "영업시간": "수 10:00~22:00", "field4": "픽업 서비스/스마트 반품" }, "geometry": { "type": "Point", "coordinates": [ 127.106611592671953, 37.400660703034958 ] } },
{ "type": "Feature", "properties": { "fid": 18, "매장명": "판교아브뉴프랑점", "주소": "경기도 성남시 분당구 동판교로177번길 25", "영업시간": "수 10:00~22:00", "field4": "픽업 서비스/스마트 반품" }, "geometry": { "type": "Point", "coordinates": [ 127.113568296719862, 37.397321119913187 ] } },
{ "type": "Feature", "properties": { "fid": 16, "매장명": "분당아름마을점", "주소": "경기도 성남시 분당구 판교로 440", "영업시간": "수 11:00~22:30", "field4": "픽업 서비스/스마트 반품" }, "geometry": { "type": "Point", "coordinates": [ 127.122652362859668, 37.405142705810484 ] } },
{ "type": "Feature", "properties": { "fid": 13, "매장명": "야탑광장점", "주소": "경기도 성남시 분당구 성남대로925번길 11 현대에이엔씨플라자", "영업시간": "수 10:00~23:00", "field4": "픽업 서비스/스마트 반품" }, "geometry": { "type": "Point", "coordinates": [ 127.127266992302339, 37.41202340491396 ] } },
{ "type": "Feature", "properties": { "fid": 4, "매장명": "가천대점", "주소": "경기도 성남시 수정구 성남대로 1342 가천대학교 비전타워 지하3층 B304-3", "영업시간": "수 09:00~20:00", "field4": "스마트 반품" }, "geometry": { "type": "Point", "coordinates": [ 127.128739863693326, 37.452334505676696 ] } },
{ "type": "Feature", "properties": { "fid": 7, "매장명": "모란시장점", "주소": "경기도 성남시 중원구 성남대로 1129", "영업시간": "수 10:00~22:30", "field4": "픽업 서비스/스마트 반품" }, "geometry": { "type": "Point", "coordinates": [ 127.128867994956494, 37.430505521639503 ] } },
{ "type": "Feature", "properties": { "fid": 5, "매장명": "태평역점", "주소": "경기도 성남시 수정구 수정로 80 (수진동 우리빌) 제1층 제101호", "영업시간": "수 10:00~22:30", "field4": "픽업 서비스/스마트 반품" }, "geometry": { "type": "Point", "coordinates": [ 127.129558478132495, 37.439943015494102 ] } },
{ "type": "Feature", "properties": { "fid": 8, "매장명": "모란중앙점", "주소": "경기도 성남시 중원구 성남대로 1144 창원빌딩 1층", "영업시간": "수 10:00~23:00", "field4": "픽업 서비스/스마트 반품" }, "geometry": { "type": "Point", "coordinates": [ 127.129582347098818, 37.431808833479103 ] } },
{ "type": "Feature", "properties": { "fid": 15, "매장명": "분당야탑점", "주소": "경기도 성남시 분당구 성남대로926번길 6 대덕프라자 1층 105호", "영업시간": "수 10:00~23:00", "field4": "픽업 서비스/스마트 반품" }, "geometry": { "type": "Point", "coordinates": [ 127.129878623640195, 37.412191259161297 ] } },
{ "type": "Feature", "properties": { "fid": 6, "매장명": "성남수정점", "주소": "경기도 성남시 수정구 수정로 185", "영업시간": "수 10:00~22:30", "field4": "픽업 서비스/스마트 반품" }, "geometry": { "type": "Point", "coordinates": [ 127.140468276995392, 37.443808953622195 ] } },
{ "type": "Feature", "properties": { "fid": 2, "매장명": "남위례역점", "주소": "경기도 성남시 수정구 위례서일로 46", "영업시간": "수 10:00~22:30", "field4": "픽업 서비스/스마트 반품" }, "geometry": { "type": "Point", "coordinates": [ 127.140521379224836, 37.463903131172167 ] } },
{ "type": "Feature", "properties": { "fid": 1, "매장명": "위례센터점", "주소": "경기도 성남시 수정구 위례광장로 104", "영업시간": "수 10:00~22:30", "field4": "픽업 서비스/스마트 반품" }, "geometry": { "type": "Point", "coordinates": [ 127.141263392453183, 37.473058466371299 ] } },
{ "type": "Feature", "properties": { "fid": 10, "매장명": "신흥역점", "주소": "경기도 성남시 수정구 산성대로 257-1", "영업시간": "수 10:00~22:30", "field4": "픽업 서비스/스마트 반품" }, "geometry": { "type": "Point", "coordinates": [ 127.145602236007633, 37.440635739296305 ] } },
{ "type": "Feature", "properties": { "fid": 3, "매장명": "성남위례점", "주소": "경기도 성남시 수정구 위례동로 147 1층 102~103호(창곡동 위례건아타워)", "영업시간": "수 10:00~22:30", "field4": "픽업 서비스/스마트 반품" }, "geometry": { "type": "Point", "coordinates": [ 127.150107515252571, 37.473082626708852 ] } },
{ "type": "Feature", "properties": { "fid": 11, "매장명": "단대오거리역점", "주소": "경기도 성남시 중원구 산성대로372번길 13 1층 일부", "영업시간": "수 10:00~22:30", "field4": "픽업 서비스/스마트 반품" }, "geometry": { "type": "Point", "coordinates": [ 127.158557579225715, 37.445130715932422 ] } },
{ "type": "Feature", "properties": { "fid": 9, "매장명": "성남은행점", "주소": "경기도 성남시 중원구 산성대로 532", "영업시간": "수 10:00~22:30", "field4": "픽업 서비스/스마트 반품" }, "geometry": { "type": "Point", "coordinates": [ 127.164778670809397, 37.458125441569145 ] } },
{ "type": "Feature", "properties": { "fid": 12, "매장명": "서판교점", "주소": "경기도 성남시 분당구 운중로 120", "영업시간": "수 10:00~22:00", "field4": "픽업 서비스/스마트 반품" }, "geometry": { "type": "Point", "coordinates": [ 127.076348982111057, 37.39142125443081 ] } },
{ "type": "Feature", "properties": { "fid": 17, "매장명": "판교도서관점", "주소": "경기도 성남시 분당구 판교공원로2길 9 하진빌딩 1층", "영업시간": "수 10:00~22:00", "field4": "픽업 서비스/스마트 반품" }, "geometry": { "type": "Point", "coordinates": [ 127.090859763135285, 37.389924928259227 ] } },
{ "type": "Feature", "properties": { "fid": 25, "매장명": "정자역점", "주소": "경기도 성남시 분당구 성남대로331번길 7 정자동 스타빌딩 104호", "영업시간": "수 09:00~23:00", "field4": "-" }, "geometry": { "type": "Point", "coordinates": [ 127.107204584048233, 37.365440091821483 ] } },
{ "type": "Feature", "properties": { "fid": 26, "매장명": "분당미금역점", "주소": "경기도 성남시 분당구 성남대로 165 천사의도시 오피스텔 1층", "영업시간": "수 10:00~23:00", "field4": "픽업 서비스/스마트 반품" }, "geometry": { "type": "Point", "coordinates": [ 127.108327569556081, 37.350756614504768 ] } },
{ "type": "Feature", "properties": { "fid": 28, "매장명": "오리역점", "주소": "경기도 성남시 분당구 성남대로 45", "영업시간": "수 10:00~22:30", "field4": "픽업 서비스/스마트 반품" }, "geometry": { "type": "Point", "coordinates": [ 127.108410301650167, 37.34004450407906 ] } },
{ "type": "Feature", "properties": { "fid": 27, "매장명": "미금역사거리점", "주소": "경기도 성남시 분당구 성남대로 168 미도프라자 1층", "영업시간": "수 10:00~23:00", "field4": "픽업 서비스/스마트 반품" }, "geometry": { "type": "Point", "coordinates": [ 127.109492357561194, 37.350887567313222 ] } },
{ "type": "Feature", "properties": { "fid": 19, "매장명": "판교카카오점", "주소": "경기도 성남시 분당구 판교역로 166 판교카카오아지트 1층", "영업시간": "수 08:00~22:00", "field4": "픽업 서비스/스마트 반품" }, "geometry": { "type": "Point", "coordinates": [ 127.110366900464399, 37.395440808999034 ] } },
{ "type": "Feature", "properties": { "fid": 24, "매장명": "분당수내점", "주소": "경기도 성남시 분당구 백현로101번길 16", "영업시간": "수 10:00~22:30", "field4": "픽업 서비스/스마트 반품" }, "geometry": { "type": "Point", "coordinates": [ 127.11272996022997, 37.377010308087868 ] } },
{ "type": "Feature", "properties": { "fid": 23, "매장명": "수내역점", "주소": "경기도 성남시 분당구 황새울로258번길 10-3", "영업시간": "수 10:00~22:30", "field4": "픽업 서비스/스마트 반품" }, "geometry": { "type": "Point", "coordinates": [ 127.116432168521357, 37.380297203787066 ] } },
{ "type": "Feature", "properties": { "fid": 22, "매장명": "분당서현점", "주소": "경기도 성남시 분당구 분당로53번길 11 서원플라자 1층", "영업시간": "수 10:00~23:00", "field4": "픽업 서비스/스마트 반품" }, "geometry": { "type": "Point", "coordinates": [ 127.121552072472355, 37.384068547297403 ] } },
{ "type": "Feature", "properties": { "fid": 20, "매장명": "분당서현로점", "주소": "경기도 성남시 분당구 황새울로359번길 11", "영업시간": "수 10:00~22:30", "field4": "픽업 서비스/스마트 반품" }, "geometry": { "type": "Point", "coordinates": [ 127.12327262408688, 37.388014630132254 ] } },
{ "type": "Feature", "properties": { "fid": 21, "매장명": "서현중앙점", "주소": "경기도 성남시 분당구 서현로210번길 20 코코프라자 1층", "영업시간": "수 10:00~23:00", "field4": "픽업 서비스/스마트 반품" }, "geometry": { "type": "Point", "coordinates": [ 127.124035953906798, 37.385853792559871 ] } }
]
}
