{
"type": "FeatureCollection",
"name": "safehouse",
"crs": { "type": "name", "properties": { "name": "urn:ogc:def:crs:OGC:1.3:CRS84" } },
"features": [
{ "type": "Feature", "properties": { "안전시설명": "(분당)삼평동우체국", "안전시설전화번호": "031-8017-3004", "소재지도로명주소": "경기도 성남시 분당구 동판교로266번길 20", "소재지지번주소": "경기도 성남시 분당구 삼평동 715번지 삼평동우체국" }, "geometry": { "type": "Point", "coordinates": [ 127.116137228200003, 37.406478349 ] } },
{ "type": "Feature", "properties": { "안전시설명": "(분당)CU 동판교골드점", "안전시설전화번호": null, "소재지도로명주소": null, "소재지지번주소": "경기도 성남시 분당구 삼평동 728번지 봇들마을6단지아파트 제4상가동 101호" }, "geometry": { "type": "Point", "coordinates": [ 127.119083393899999, 37.400367533299999 ] } },
{ "type": "Feature", "properties": { "안전시설명": "(분당)유정약국", "안전시설전화번호": "031-708-0927", "소재지도로명주소": null, "소재지지번주소": "경기도 성남시 분당구 야탑동 165번지 목련마을아파트" }, "geometry": { "type": "Point", "coordinates": [ 127.139235659299999, 37.408299754700003 ] } },
{ "type": "Feature", "properties": { "안전시설명": "(분당)파리바게트 상탑점", "안전시설전화번호": "031-702-0268", "소재지도로명주소": "경기도 성남시 분당구 야탑로 253", "소재지지번주소": "경기도 성남시 분당구 야탑동 175-5번지" }, "geometry": { "type": "Point", "coordinates": [ 127.146609134299993, 37.406997000499999 ] } },
{ "type": "Feature", "properties": { "안전시설명": "(분당)파리바게트 분당중탑점", "안전시설전화번호": "031-706-8203", "소재지도로명주소": "경기도 성남시 분당구 벌말로 48", "소재지지번주소": "경기도 성남시 분당구 야탑동 272-1번지" }, "geometry": { "type": "Point", "coordinates": [ 127.138788189899998, 37.412066138699998 ] } },
{ "type": "Feature", "properties": { "안전시설명": "(분당)한국야쿠르트 야탑점", "안전시설전화번호": "031-704-2918", "소재지도로명주소": "경기도 성남시 분당구 야탑로161번길 16-8", "소재지지번주소": "경기도 성남시 분당구 야탑동 306-4번지" }, "geometry": { "type": "Point", "coordinates": [ 127.137550355399995, 37.410989713600003 ] } },
{ "type": "Feature", "properties": { "안전시설명": "(분당)세븐일레븐 야탑엔즈빌점", "안전시설전화번호": null, "소재지도로명주소": "경기도 성남시 분당구 장미로48번길 14", "소재지지번주소": "경기도 성남시 분당구 야탑동 342-3번지" }, "geometry": { "type": "Point", "coordinates": [ 127.125496233600003, 37.412655744200002 ] } },
{ "type": "Feature", "properties": { "안전시설명": "(분당)탑마을 오렌지약국", "안전시설전화번호": "031-705-7634", "소재지도로명주소": "경기도 성남시 분당구 야탑로69번길 21", "소재지지번주소": "경기도 성남시 분당구 야탑동 353-1번지" }, "geometry": { "type": "Point", "coordinates": [ 127.126360100100001, 37.411639923700001 ] } },
{ "type": "Feature", "properties": { "안전시설명": "(분당)홈케어굿모닝약국", "안전시설전화번호": "031-707-1661", "소재지도로명주소": "경기도 성남시 분당구 야탑로69번길 3", "소재지지번주소": "경기도 성남시 분당구 야탑동 354-6번지" }, "geometry": { "type": "Point", "coordinates": [ 127.126367845, 37.410080569 ] } },
{ "type": "Feature", "properties": { "안전시설명": "(분당)탑마을약국", "안전시설전화번호": "031-703-5773", "소재지도로명주소": "경기도 성남시 분당구 성남대로916번길 20", "소재지지번주소": "경기도 성남시 분당구 야탑동 367-5번지" }, "geometry": { "type": "Point", "coordinates": [ 127.129768703799996, 37.4101633776 ] } },
{ "type": "Feature", "properties": { "안전시설명": "(분당)야탑동우체국", "안전시설전화번호": "031-709-8003", "소재지도로명주소": "경기도 성남시 분당구 장미로86번길 17", "소재지지번주소": "경기도 성남시 분당구 야탑동 374번지" }, "geometry": { "type": "Point", "coordinates": [ 127.130719844699996, 37.412068254099999 ] } },
{ "type": "Feature", "properties": { "안전시설명": "(분당)GS25 프리아점", "안전시설전화번호": "031-703-6525", "소재지도로명주소": "경기도 성남시 분당구 야탑로 106", "소재지지번주소": "경기도 성남시 분당구 야탑동 514-4번지" }, "geometry": { "type": "Point", "coordinates": [ 127.130585161200003, 37.409580037399998 ] } },
{ "type": "Feature", "properties": { "안전시설명": "(분당)CU 이매아름점", "안전시설전화번호": "031-704-3235", "소재지도로명주소": null, "소재지지번주소": "경기도 성남시 분당구 이매동 133번지 아름마을두산,삼호아파트" }, "geometry": { "type": "Point", "coordinates": [ 127.120946423700005, 37.400607878400002 ] } },
{ "type": "Feature", "properties": { "안전시설명": "(분당)GS25 이매아름점", "안전시설전화번호": null, "소재지도로명주소": "경기도 성남시 분당구 탄천로 95", "소재지지번주소": "경기도 성남시 분당구 이매동 133번지 아름마을두산,삼호아파트 상가동 103호" }, "geometry": { "type": "Point", "coordinates": [ 127.120946423700005, 37.400607878400002 ] } },
{ "type": "Feature", "properties": { "안전시설명": "(분당)비엠디온누리약국", "안전시설전화번호": "031-707-1959", "소재지도로명주소": "경기도 성남시 분당구 성남대로779번길 50", "소재지지번주소": "경기도 성남시 분당구 이매동 137-5번지" }, "geometry": { "type": "Point", "coordinates": [ 127.123030951499999, 37.399487821599998 ] } },
{ "type": "Feature", "properties": { "안전시설명": "(분당)CU 분당이매점", "안전시설전화번호": "031-709-0350", "소재지도로명주소": "경기도 성남시 분당구 판교로 476", "소재지지번주소": "경기도 성남시 분당구 이매동 97-5번지" }, "geometry": { "type": "Point", "coordinates": [ 127.126697446099996, 37.405142071100002 ] } },
{ "type": "Feature", "properties": { "안전시설명": "[성남시수정구] 고등동우체국", "안전시설전화번호": "031-723-9990", "소재지도로명주소": "경기도 성남시 수정구 대왕판교로982번길 2", "소재지지번주소": "경기도 성남시 수정구 고등동 419-53번지" }, "geometry": { "type": "Point", "coordinates": [ 127.102385671299999, 37.427903622099997 ] } },
{ "type": "Feature", "properties": { "안전시설명": "[성남시수정구] CU 성남고등행복점", "안전시설전화번호": "031-755-0723", "소재지도로명주소": null, "소재지지번주소": "경기도 성남시 수정구 고등동 578번지 고등마을" }, "geometry": { "type": "Point", "coordinates": [ 127.100246450100002, 37.430600522299997 ] } },
{ "type": "Feature", "properties": { "안전시설명": "[성남시수정구]이지수학", "안전시설전화번호": null, "소재지도로명주소": null, "소재지지번주소": "경기도 성남시 수정구 고등동 592번지 판교밸리호반써밋" }, "geometry": { "type": "Point", "coordinates": [ 127.096723676799996, 37.427794304499997 ] } },
{ "type": "Feature", "properties": { "안전시설명": "[성남시수정구] 레전드태권도", "안전시설전화번호": "031-8039-7371", "소재지도로명주소": "경기도 성남시 수정구 고등로 34", "소재지지번주소": "경기도 성남시 수정구 고등동 592번지 판교밸리호반써밋 228동 105호" }, "geometry": { "type": "Point", "coordinates": [ 127.096723676799996, 37.427794304499997 ] } },
{ "type": "Feature", "properties": { "안전시설명": "[성남시수정구] 예탑태권도아카데미", "안전시설전화번호": "031-747-6636", "소재지도로명주소": "경기도 성남시 수정구 산성대로 425", "소재지지번주소": "경기도 성남시 수정구 단대동 111-2번지" }, "geometry": { "type": "Point", "coordinates": [ 127.158742075800006, 37.449910974600002 ] } },
{ "type": "Feature", "properties": { "안전시설명": "[성남시수정구] 진로세탁소", "안전시설전화번호": "031-748-0340", "소재지도로명주소": null, "소재지지번주소": "경기도 성남시 수정구 단대동 124번지 진로아파트" }, "geometry": { "type": "Point", "coordinates": [ 127.155968785499994, 37.450642057700001 ] } },
{ "type": "Feature", "properties": { "안전시설명": "[성남시수정구] 용마태권도", "안전시설전화번호": null, "소재지도로명주소": null, "소재지지번주소": "경기도 성남시 수정구 단대동 124번지 진로아파트" }, "geometry": { "type": "Point", "coordinates": [ 127.155968785499994, 37.450642057700001 ] } },
{ "type": "Feature", "properties": { "안전시설명": "[성남시수정구] 부동산여기로", "안전시설전화번호": "031-748-0606", "소재지도로명주소": "경기도 성남시 수정구 논골로 33", "소재지지번주소": "경기도 성남시 수정구 단대동 56-1번지" }, "geometry": { "type": "Point", "coordinates": [ 127.159309678599996, 37.4568801992 ] } },
{ "type": "Feature", "properties": { "안전시설명": "[성남시수정구] GS25 성남복지회관점", "안전시설전화번호": "031-747-8279", "소재지도로명주소": "경기도 성남시 수정구 산성대로475번길 10", "소재지지번주소": "경기도 성남시 수정구 단대동 64-7번지" }, "geometry": { "type": "Point", "coordinates": [ 127.159806485700003, 37.454538070300003 ] } },
{ "type": "Feature", "properties": { "안전시설명": "자광원", "안전시설전화번호": "031-759-5320", "소재지도로명주소": "경기도 성남시 수정구 남위례로 134", "소재지지번주소": "경기도 성남시 수정구 복정동 116-3" }, "geometry": { "type": "Point", "coordinates": [ 127.139182286199997, 37.459452456800001 ] } },
{ "type": "Feature", "properties": { "안전시설명": "[성남시수정구] CU 성남복정타운점", "안전시설전화번호": "031-705-5145", "소재지도로명주소": "경기도 성남시 수정구 성남대로1542번길 23-6", "소재지지번주소": "경기도 성남시 수정구 복정동 631-15번지" }, "geometry": { "type": "Point", "coordinates": [ 127.1294188639, 37.467381316800001 ] } },
{ "type": "Feature", "properties": { "안전시설명": "[성남시수정구] 행운세탁소", "안전시설전화번호": "031-753-6421", "소재지도로명주소": "경기도 성남시 수정구 복정로118번길 5-12", "소재지지번주소": "경기도 성남시 수정구 복정동 650-1번지" }, "geometry": { "type": "Point", "coordinates": [ 127.127838329599996, 37.464564084899997 ] } },
{ "type": "Feature", "properties": { "안전시설명": "[성남시수정구] 블랙벨트센터 태권도장", "안전시설전화번호": "031-752-9993", "소재지도로명주소": "경기도 성남시 수정구 성남대로1480번길 19", "소재지지번주소": "경기도 성남시 수정구 복정동 664-8번지" }, "geometry": { "type": "Point", "coordinates": [ 127.128325754800002, 37.462041790500002 ] } },
{ "type": "Feature", "properties": { "안전시설명": "[성남시수정구] 독수리태권도", "안전시설전화번호": "031-721-2276", "소재지도로명주소": "경기도 성남시 수정구 성남대로1480번길 7", "소재지지번주소": "경기도 성남시 수정구 복정동 664번지" }, "geometry": { "type": "Point", "coordinates": [ 127.127081345, 37.462155047899998 ] } },
{ "type": "Feature", "properties": { "안전시설명": "[성남시수정구] 줄리어드음악학원", "안전시설전화번호": "031-753-4385", "소재지도로명주소": "경기도 성남시 수정구 성남대로1480번길 28-1", "소재지지번주소": "경기도 성남시 수정구 복정동 668-4번지" }, "geometry": { "type": "Point", "coordinates": [ 127.129288630199994, 37.461693281700001 ] } },
{ "type": "Feature", "properties": { "안전시설명": "[성남시수정구] 휴베이스 복정약국", "안전시설전화번호": "031-759-5398", "소재지도로명주소": "경기도 성남시 수정구 복정로 86", "소재지지번주소": "경기도 성남시 수정구 복정동 678-7번지" }, "geometry": { "type": "Point", "coordinates": [ 127.126964708700001, 37.460595313900001 ] } },
{ "type": "Feature", "properties": { "안전시설명": "[성남시수정구] CU 성남복정점", "안전시설전화번호": "031-755-3690", "소재지도로명주소": "경기도 성남시 수정구 복정로32번길 1", "소재지지번주소": "경기도 성남시 수정구 복정동 695-1번지" }, "geometry": { "type": "Point", "coordinates": [ 127.127541476900007, 37.456018183499999 ] } },
{ "type": "Feature", "properties": { "안전시설명": "실버릿지그랜드", "안전시설전화번호": "031-723-5812", "소재지도로명주소": "경기도 성남시 수정구 사송로80번길 7", "소재지지번주소": "경기도 성남시 수정구 사송동 507" }, "geometry": { "type": "Point", "coordinates": [ 127.110308502300001, 37.414869108600001 ] } },
{ "type": "Feature", "properties": { "안전시설명": "[성남시수정구] 꿈돌이문구", "안전시설전화번호": "031-742-7825", "소재지도로명주소": "경기도 성남시 수정구 희망로534번길 6", "소재지지번주소": "경기도 성남시 수정구 산성동 2171번지" }, "geometry": { "type": "Point", "coordinates": [ 127.151772145300001, 37.451098479300001 ] } },
{ "type": "Feature", "properties": { "안전시설명": "[성남시수정구] 새강약국", "안전시설전화번호": "031-747-4655", "소재지도로명주소": "경기도 성남시 수정구 수정남로324번길 2", "소재지지번주소": "경기도 성남시 수정구 산성동 402번지" }, "geometry": { "type": "Point", "coordinates": [ 127.153578968600002, 37.456466937199998 ] } },
{ "type": "Feature", "properties": { "안전시설명": "[성남시수정구] 바른태권도", "안전시설전화번호": "031-742-3425", "소재지도로명주소": "경기도 성남시 수정구 수정남로306번길 21-1", "소재지지번주소": "경기도 성남시 수정구 산성동 538번지" }, "geometry": { "type": "Point", "coordinates": [ 127.154106134700001, 37.454936153799999 ] } },
{ "type": "Feature", "properties": { "안전시설명": "[성남시수정구] 모란마트", "안전시설전화번호": "031-752-4469", "소재지도로명주소": "경기도 성남시 수정구 성남대로1194번길 15", "소재지지번주소": "경기도 성남시 수정구 수진동 3809번지" }, "geometry": { "type": "Point", "coordinates": [ 127.13028145, 37.43688169 ] } },
{ "type": "Feature", "properties": { "안전시설명": "[성남시수정구] 대진설비", "안전시설전화번호": "031-721-7831", "소재지도로명주소": "경기도 성남시 수정구 성남대로1194번길 11", "소재지지번주소": "경기도 성남시 수정구 수진동 3855번지" }, "geometry": { "type": "Point", "coordinates": [ 127.129886396, 37.436763275399997 ] } },
{ "type": "Feature", "properties": { "안전시설명": "[성남시수정구] CU 성남모란월드점", "안전시설전화번호": null, "소재지도로명주소": "경기도 성남시 수정구 성남대로1180번길 6", "소재지지번주소": "경기도 성남시 수정구 수진동 4523번지" }, "geometry": { "type": "Point", "coordinates": [ 127.129431209399996, 37.435085298200001 ] } },
{ "type": "Feature", "properties": { "안전시설명": "[성남시수정구] 이삭빵집", "안전시설전화번호": "031-753-0960", "소재지도로명주소": "경기도 성남시 수정구 성남대로1221번길 14-1", "소재지지번주소": "경기도 성남시 수정구 수진동 4542-5번지" }, "geometry": { "type": "Point", "coordinates": [ 127.126213724199999, 37.438815858200002 ] } },
{ "type": "Feature", "properties": { "안전시설명": "인보의집", "안전시설전화번호": "031-751-1937", "소재지도로명주소": "경기도 성남시 수정구 탄리로 49", "소재지지번주소": "경기도 성남시 수정구 수진동 661" }, "geometry": { "type": "Point", "coordinates": [ 127.136763984799998, 37.440444178100002 ] } },
{ "type": "Feature", "properties": { "안전시설명": "[성남시수정구] 신촌슈퍼", "안전시설전화번호": "031-723-7385", "소재지도로명주소": "경기도 성남시 수정구 신촌남로 3", "소재지지번주소": "경기도 성남시 수정구 신촌동 108-3번지" }, "geometry": { "type": "Point", "coordinates": [ 127.107127299499993, 37.459215032800003 ] } },
{ "type": "Feature", "properties": { "안전시설명": "[성남시수정구] 태영약국", "안전시설전화번호": "031-732-5001", "소재지도로명주소": null, "소재지지번주소": "경기도 성남시 수정구 신흥동 2465-7번지 신동아파라디움" }, "geometry": { "type": "Point", "coordinates": [ 127.152100786199995, 37.4436090596 ] } },
{ "type": "Feature", "properties": { "안전시설명": "[성남시수정구] CU성남파라디움점", "안전시설전화번호": null, "소재지도로명주소": null, "소재지지번주소": "경기도 성남시 수정구 신흥동 2465-7번지 신동아파라디움" }, "geometry": { "type": "Point", "coordinates": [ 127.152100786199995, 37.4436090596 ] } },
{ "type": "Feature", "properties": { "안전시설명": "[성남시수정구] 까꼬보꼬", "안전시설전화번호": null, "소재지도로명주소": "경기도 성남시 수정구 공원로367번길 21-1", "소재지지번주소": "경기도 성남시 수정구 신흥동 2785번지" }, "geometry": { "type": "Point", "coordinates": [ 127.146348733099998, 37.443150316900002 ] } },
{ "type": "Feature", "properties": { "안전시설명": "[성남시수정구]GS25수정행복점", "안전시설전화번호": "031-747-1233", "소재지도로명주소": "경기도 성남시 수정구 공원로 367", "소재지지번주소": "경기도 성남시 수정구 신흥동 2833-1번지" }, "geometry": { "type": "Point", "coordinates": [ 127.1479254371, 37.444425956899998 ] } },
{ "type": "Feature", "properties": { "안전시설명": "[성남시수정구] 신흥선후합기도체육관", "안전시설전화번호": "031-745-2399", "소재지도로명주소": "경기도 성남시 수정구 수정로 224-2", "소재지지번주소": "경기도 성남시 수정구 신흥동 3417번지" }, "geometry": { "type": "Point", "coordinates": [ 127.144610117699997, 37.445046994 ] } },
{ "type": "Feature", "properties": { "안전시설명": "[성남시수정구] 백세약국", "안전시설전화번호": "031-731-9655", "소재지도로명주소": "경기도 성남시 수정구 수정로 208", "소재지지번주소": "경기도 성남시 수정구 신흥동 3436-13번지" }, "geometry": { "type": "Point", "coordinates": [ 127.142829157, 37.443941953299998 ] } },
{ "type": "Feature", "properties": { "안전시설명": "[성남시수정구] 아이비클럽 성남점", "안전시설전화번호": "031-751-6234", "소재지도로명주소": "경기도 성남시 수정구 시민로 135", "소재지지번주소": "경기도 성남시 수정구 신흥동 4506번지" }, "geometry": { "type": "Point", "coordinates": [ 127.144056449700003, 37.44021398 ] } },
{ "type": "Feature", "properties": { "안전시설명": "[성남시수정구] 리틀바하피아노", "안전시설전화번호": "031-741-2277", "소재지도로명주소": "경기도 성남시 수정구 논골로36번길 34", "소재지지번주소": "경기도 성남시 수정구 양지동 387번지" }, "geometry": { "type": "Point", "coordinates": [ 127.161809232699994, 37.459230937900003 ] } },
{ "type": "Feature", "properties": { "안전시설명": "[성남시수정구] 농장정육점", "안전시설전화번호": "031-745-9340", "소재지도로명주소": "경기도 성남시 수정구 산성대로515번길 16", "소재지지번주소": "경기도 성남시 수정구 양지동 479번지" }, "geometry": { "type": "Point", "coordinates": [ 127.161950477199994, 37.457996466700003 ] } },
{ "type": "Feature", "properties": { "안전시설명": "[성남시수정구] 용인대승리태권도", "안전시설전화번호": "031-736-4515", "소재지도로명주소": "경기도 성남시 수정구 산성대로 519-1", "소재지지번주소": "경기도 성남시 수정구 양지동 532번지" }, "geometry": { "type": "Point", "coordinates": [ 127.163455837900003, 37.457658243 ] } },
{ "type": "Feature", "properties": { "안전시설명": "[성남시수정구] GS25 양지일등점", "안전시설전화번호": null, "소재지도로명주소": "경기도 성남시 수정구 산성대로515번길 17", "소재지지번주소": "경기도 성남시 수정구 양지동 710번지" }, "geometry": { "type": "Point", "coordinates": [ 127.161622778400002, 37.457950460399999 ] } },
{ "type": "Feature", "properties": { "안전시설명": "[성남시수정구] CU 위례한마음점", "안전시설전화번호": null, "소재지도로명주소": null, "소재지지번주소": "경기도 성남시 수정구 창곡동 500번지 위례LH31단지아파트정문 1층 상가동 105 106호" }, "geometry": { "type": "Point", "coordinates": [ 127.135092328100001, 37.4727350625 ] } },
{ "type": "Feature", "properties": { "안전시설명": "[성남시수정구] 위례수약국", "안전시설전화번호": "031-756-0365", "소재지도로명주소": "경기도 성남시 수정구 위례서일로 18", "소재지지번주소": "경기도 성남시 수정구 창곡동 559-4번지" }, "geometry": { "type": "Point", "coordinates": [ 127.137820740600006, 37.465108881 ] } },
{ "type": "Feature", "properties": { "안전시설명": "[성남시수정구] 태광안경", "안전시설전화번호": "031-755-9624", "소재지도로명주소": "경기도 성남시 수정구 남문로 111-1", "소재지지번주소": "경기도 성남시 수정구 태평동 2643번지" }, "geometry": { "type": "Point", "coordinates": [ 127.139001720500005, 37.447616929399999 ] } },
{ "type": "Feature", "properties": { "안전시설명": "[성남시수정구] 한양대탑수정태권도", "안전시설전화번호": "031-753-6651", "소재지도로명주소": "경기도 성남시 수정구 남문로 105", "소재지지번주소": "경기도 성남시 수정구 태평동 2705번지" }, "geometry": { "type": "Point", "coordinates": [ 127.138279088299996, 37.447425432300001 ] } },
{ "type": "Feature", "properties": { "안전시설명": "[성남시수정구] 함약국", "안전시설전화번호": "031-756-5635", "소재지도로명주소": "경기도 성남시 수정구 남문로69번길 5-8", "소재지지번주소": "경기도 성남시 수정구 태평동 3155번지" }, "geometry": { "type": "Point", "coordinates": [ 127.134437861500004, 37.446881805399997 ] } },
{ "type": "Feature", "properties": { "안전시설명": "[성남시수정구] 동성태비태권도", "안전시설전화번호": "031-753-3256", "소재지도로명주소": "경기도 성남시 수정구 탄리로 79", "소재지지번주소": "경기도 성남시 수정구 태평동 3521번지" }, "geometry": { "type": "Point", "coordinates": [ 127.135609838700006, 37.443000518600002 ] } },
{ "type": "Feature", "properties": { "안전시설명": "[성남시수정구] CU 뉴성남태평동점", "안전시설전화번호": null, "소재지도로명주소": "경기도 성남시 수정구 탄리로95번길 23", "소재지지번주소": "경기도 성남시 수정구 태평동 3617번지" }, "geometry": { "type": "Point", "coordinates": [ 127.132735721499998, 37.443550472399998 ] } },
{ "type": "Feature", "properties": { "안전시설명": "[성남시수정구] 보령온누리약국", "안전시설전화번호": "031-753-3993", "소재지도로명주소": "경기도 성남시 수정구 남문로 66", "소재지지번주소": "경기도 성남시 수정구 태평동 3798번지" }, "geometry": { "type": "Point", "coordinates": [ 127.1341938857, 37.445907570899998 ] } },
{ "type": "Feature", "properties": { "안전시설명": "[성남시수정구] CU 태평성대점", "안전시설전화번호": "031-753-1129", "소재지도로명주소": "경기도 성남시 수정구 남문로43번길 16-1", "소재지지번주소": "경기도 성남시 수정구 태평동 4550번지" }, "geometry": { "type": "Point", "coordinates": [ 127.131205312099993, 37.44671853 ] } },
{ "type": "Feature", "properties": { "안전시설명": "[성남시수정구] CU 태평빌리지점", "안전시설전화번호": "031-758-0973", "소재지도로명주소": "경기도 성남시 수정구 성남대로1258번길 7", "소재지지번주소": "경기도 성남시 수정구 태평동 6064번지" }, "geometry": { "type": "Point", "coordinates": [ 127.128197011799998, 37.442364500499998 ] } },
{ "type": "Feature", "properties": { "안전시설명": "[성남시수정구] 행복이열리는약국", "안전시설전화번호": "031-757-5701", "소재지도로명주소": "경기도 성남시 수정구 수정로 89", "소재지지번주소": "경기도 성남시 수정구 태평동 6452번지" }, "geometry": { "type": "Point", "coordinates": [ 127.130251387900003, 37.4406943957 ] } },
{ "type": "Feature", "properties": { "안전시설명": "[성남시수정구] 온누리한솔약국", "안전시설전화번호": "031-757-1665", "소재지도로명주소": "경기도 성남시 수정구 성남대로 1275-1", "소재지지번주소": "경기도 성남시 수정구 태평동 6795번지" }, "geometry": { "type": "Point", "coordinates": [ 127.126663730199994, 37.443801859899999 ] } },
{ "type": "Feature", "properties": { "안전시설명": "[성남시수정구] 태평약국", "안전시설전화번호": "031-751-4327", "소재지도로명주소": "경기도 성남시 수정구 성남대로 1251", "소재지지번주소": "경기도 성남시 수정구 태평동 6827번지" }, "geometry": { "type": "Point", "coordinates": [ 127.127082288400004, 37.441468631900001 ] } },
{ "type": "Feature", "properties": { "안전시설명": "[성남시수정구] 태평아이태권도", "안전시설전화번호": "031-721-6314", "소재지도로명주소": "경기도 성남시 수정구 모란로 84", "소재지지번주소": "경기도 성남시 수정구 태평동 6940번지 태화빌딩 203호" }, "geometry": { "type": "Point", "coordinates": [ 127.125968578599995, 37.440374454299999 ] } },
{ "type": "Feature", "properties": { "안전시설명": "[성남시수정구] 굿모닝세탁소", "안전시설전화번호": "031-754-2589", "소재지도로명주소": "경기도 성남시 수정구 시민로205번길 12-2", "소재지지번주소": "경기도 성남시 수정구 태평동 7311-9번지" }, "geometry": { "type": "Point", "coordinates": [ 127.1404340916, 37.445971788500003 ] } },
{ "type": "Feature", "properties": { "안전시설명": "[성남시수정구]GS25태평프리미엄점", "안전시설전화번호": null, "소재지도로명주소": null, "소재지지번주소": "경기도 성남시 수정구 태평동 7327-1번지 신한주택" }, "geometry": { "type": "Point", "coordinates": [ 127.143103942500005, 37.445592291399997 ] } },
{ "type": "Feature", "properties": { "안전시설명": "[성남시수정구] 한국야쿠르트 신흥점", "안전시설전화번호": "031-742-5410", "소재지도로명주소": null, "소재지지번주소": "경기도 성남시 수정구 태평동 7337-2번지 엘지빌리지" }, "geometry": { "type": "Point", "coordinates": [ 127.143128222300007, 37.445240830300001 ] } },
{ "type": "Feature", "properties": { "안전시설명": "[성남시수정구]동부센트레빌 1단지 경비실", "안전시설전화번호": null, "소재지도로명주소": "경기도 성남시 수정구 태평로 28", "소재지지번주소": "경기도 성남시 수정구 태평동 7343번지 가천대역동부센트레빌1단지 경비실" }, "geometry": { "type": "Point", "coordinates": [ 127.130012670599996, 37.447850528399997 ] } },
{ "type": "Feature", "properties": { "안전시설명": "풍년문구", "안전시설전화번호": "031-747-1210", "소재지도로명주소": "경기도 성남시 중원구 금빛로42번길 11", "소재지지번주소": "경기도 성남시 중원구 금광동 2351번지" }, "geometry": { "type": "Point", "coordinates": [ 127.168832661300002, 37.446045758700002 ] } },
{ "type": "Feature", "properties": { "안전시설명": "크린토피아 신구대점", "안전시설전화번호": "031-744-0365", "소재지도로명주소": "경기도 성남시 중원구 금빛로42번길 1", "소재지지번주소": "경기도 성남시 중원구 금광동 2357-1번지" }, "geometry": { "type": "Point", "coordinates": [ 127.167985411, 37.445899162400003 ] } },
{ "type": "Feature", "properties": { "안전시설명": "CU삼익금광점", "안전시설전화번호": "031-733-3323", "소재지도로명주소": "경기도 성남시 중원구 황송로 4", "소재지지번주소": "경기도 성남시 중원구 금광동 2450-2번지" }, "geometry": { "type": "Point", "coordinates": [ 127.168655634399997, 37.445170932700002 ] } },
{ "type": "Feature", "properties": { "안전시설명": "까치분식", "안전시설전화번호": "031-736-1927", "소재지도로명주소": "경기도 성남시 중원구 금빛로93번길 20", "소재지지번주소": "경기도 성남시 중원구 금광동 3335번지" }, "geometry": { "type": "Point", "coordinates": [ 127.163921315799996, 37.4496554049 ] } },
{ "type": "Feature", "properties": { "안전시설명": "진주중화요리", "안전시설전화번호": "031-745-2587", "소재지도로명주소": "경기도 성남시 중원구 산성대로448번길 10", "소재지지번주소": "경기도 성남시 중원구 금광동 4017번지" }, "geometry": { "type": "Point", "coordinates": [ 127.161008509799998, 37.4512515248 ] } },
{ "type": "Feature", "properties": { "안전시설명": "메디칼성심약국", "안전시설전화번호": "031-732-6335", "소재지도로명주소": "경기도 성남시 중원구 산성대로476번길 8", "소재지지번주소": "경기도 성남시 중원구 금광동 4847번지" }, "geometry": { "type": "Point", "coordinates": [ 127.161721414499993, 37.453624170099999 ] } },
{ "type": "Feature", "properties": { "안전시설명": "고은에스테틱", "안전시설전화번호": "031-736-0908", "소재지도로명주소": "경기도 성남시 중원구 박석로33번길 14", "소재지지번주소": "경기도 성남시 중원구 상대원동 1358-1번지" }, "geometry": { "type": "Point", "coordinates": [ 127.164660606200002, 37.436001728900003 ] } },
{ "type": "Feature", "properties": { "안전시설명": "한국야쿠르트 성남중원점", "안전시설전화번호": "031-734-5831", "소재지도로명주소": null, "소재지지번주소": "경기도 성남시 중원구 상대원동 1463번지 강남빌리지" }, "geometry": { "type": "Point", "coordinates": [ 127.164589686900001, 37.436695584399999 ] } },
{ "type": "Feature", "properties": { "안전시설명": "예꿈작은도서관", "안전시설전화번호": "070-4102-0675", "소재지도로명주소": "경기도 성남시 중원구 둔촌대로413번길 42-1", "소재지지번주소": "경기도 성남시 중원구 상대원동 1487-3번지" }, "geometry": { "type": "Point", "coordinates": [ 127.163039617500004, 37.437015669700003 ] } },
{ "type": "Feature", "properties": { "안전시설명": "낙원세탁소", "안전시설전화번호": "031-745-7010", "소재지도로명주소": "경기도 성남시 중원구 박석로25번길 43-1", "소재지지번주소": "경기도 성남시 중원구 상대원동 1922-2번지" }, "geometry": { "type": "Point", "coordinates": [ 127.161070801, 37.434936884400003 ] } },
{ "type": "Feature", "properties": { "안전시설명": "수진하나약국", "안전시설전화번호": "031-753-0510", "소재지도로명주소": null, "소재지지번주소": "경기도 성남시 중원구 성남동 2508번지 보미리전빌III" }, "geometry": { "type": "Point", "coordinates": [ 127.141363429099997, 37.436014462099998 ] } },
{ "type": "Feature", "properties": { "안전시설명": "뚜레쥬르 성남여수점", "안전시설전화번호": "031-754-0453", "소재지도로명주소": "경기도 성남시 중원구 여수울로15번길 4-6", "소재지지번주소": "경기도 성남시 중원구 여수동 405번지" }, "geometry": { "type": "Point", "coordinates": [ 127.1313301932, 37.418956661300001 ] } },
{ "type": "Feature", "properties": { "안전시설명": "gs25 성남연꽃점", "안전시설전화번호": "031-755-7298", "소재지도로명주소": null, "소재지지번주소": "경기도 성남시 중원구 여수동 601번지 연꽃마을아파트" }, "geometry": { "type": "Point", "coordinates": [ 127.135812263399998, 37.417555396 ] } },
{ "type": "Feature", "properties": { "안전시설명": "은행주공 관리사무소", "안전시설전화번호": "031-747-4326", "소재지도로명주소": null, "소재지지번주소": "경기도 성남시 중원구 은행동 550번지 은행주공아파트" }, "geometry": { "type": "Point", "coordinates": [ 127.166912555099998, 37.458389131700002 ] } },
{ "type": "Feature", "properties": { "안전시설명": "벧엘참조은약국", "안전시설전화번호": "031-751-4061", "소재지도로명주소": "경기도 성남시 중원구 둔촌대로 277", "소재지지번주소": "경기도 성남시 중원구 하대원동 131-18번지" }, "geometry": { "type": "Point", "coordinates": [ 127.148899145499996, 37.429592272800001 ] } },
{ "type": "Feature", "properties": { "안전시설명": "대하문구", "안전시설전화번호": "031-754-0946", "소재지도로명주소": "경기도 성남시 중원구 둔촌대로309번길 10", "소재지지번주소": "경기도 성남시 중원구 하대원동 138번지" }, "geometry": { "type": "Point", "coordinates": [ 127.1522267207, 37.431053319900002 ] } },
{ "type": "Feature", "properties": { "안전시설명": "하대원 현대아파트", "안전시설전화번호": "031-754-2320", "소재지도로명주소": null, "소재지지번주소": "경기도 성남시 중원구 하대원동 190번지 하대원동현대아파트" }, "geometry": { "type": "Point", "coordinates": [ 127.151892717400003, 37.432395382199999 ] } },
{ "type": "Feature", "properties": { "안전시설명": "시대약국", "안전시설전화번호": "031-734-1426", "소재지도로명주소": null, "소재지지번주소": "경기도 성남시 중원구 상대원동 179번지 궁전아파트" }, "geometry": { "type": "Point", "coordinates": [ 127.180229836899997, 37.440398502400001 ] } },
{ "type": "Feature", "properties": { "안전시설명": "(분당)하나약국", "안전시설전화번호": "031-716-3459", "소재지도로명주소": "경기도 성남시 분당구 미금일로 71", "소재지지번주소": "경기도 성남시 분당구 구미동 144-4번지" }, "geometry": { "type": "Point", "coordinates": [ 127.111818257099998, 37.3456210895 ] } },
{ "type": "Feature", "properties": { "안전시설명": "(분당)GS25 오리역점", "안전시설전화번호": "031-8022-6004", "소재지도로명주소": "경기도 성남시 분당구 성남대로43번길 10", "소재지지번주소": "경기도 성남시 분당구 구미동 158번지" }, "geometry": { "type": "Point", "coordinates": [ 127.107816736299995, 37.340028318100003 ] } },
{ "type": "Feature", "properties": { "안전시설명": "(분당)세븐일레븐 오리역점", "안전시설전화번호": "031-713-4774", "소재지도로명주소": "경기도 성남시 분당구 성남대로 38", "소재지지번주소": "경기도 성남시 분당구 구미동 185-1번지" }, "geometry": { "type": "Point", "coordinates": [ 127.109389667299993, 37.3393124133 ] } },
{ "type": "Feature", "properties": { "안전시설명": "(분당)세븐일레븐 분당성우점", "안전시설전화번호": "031-711-6994", "소재지도로명주소": "경기도 성남시 분당구 구미로 16", "소재지지번주소": "경기도 성남시 분당구 구미동 189-1번지 성우스타우스오피스텔 1층 103호" }, "geometry": { "type": "Point", "coordinates": [ 127.110989702500007, 37.337713218499999 ] } },
{ "type": "Feature", "properties": { "안전시설명": "(분당)기린약국", "안전시설전화번호": "031-711-4771", "소재지도로명주소": "경기도 성남시 분당구 미금로 48", "소재지지번주소": "경기도 성남시 분당구 구미동 205-1번지" }, "geometry": { "type": "Point", "coordinates": [ 127.116543905900002, 37.337713322900001 ] } },
{ "type": "Feature", "properties": { "안전시설명": "(분당)구미동우체국", "안전시설전화번호": "031-712-3004", "소재지도로명주소": "경기도 성남시 분당구 돌마로90번길 6-3", "소재지지번주소": "경기도 성남시 분당구 구미동 27번지" }, "geometry": { "type": "Point", "coordinates": [ 127.111550559400001, 37.3493699701 ] } },
{ "type": "Feature", "properties": { "안전시설명": "(분당)CU 미금먹자골목점", "안전시설전화번호": "031-711-7162", "소재지도로명주소": "경기도 성남시 분당구 미금일로86번길 9", "소재지지번주소": "경기도 성남시 분당구 구미동 54-12번지" }, "geometry": { "type": "Point", "coordinates": [ 127.110219980500005, 37.3468507312 ] } },
{ "type": "Feature", "properties": { "안전시설명": "(분당)미래팜대학약국", "안전시설전화번호": "031-717-7570", "소재지도로명주소": "경기도 성남시 분당구 돌마로 46", "소재지지번주소": "경기도 성남시 분당구 구미동 7-2번지" }, "geometry": { "type": "Point", "coordinates": [ 127.106998669600003, 37.3496974615 ] } },
{ "type": "Feature", "properties": { "안전시설명": "(분당)크린팜대학약국", "안전시설전화번호": "031-712-4168", "소재지도로명주소": null, "소재지지번주소": "경기도 성남시 분당구 금곡동 132번지 청솔마을" }, "geometry": { "type": "Point", "coordinates": [ 127.115710572799998, 37.352817830200003 ] } },
{ "type": "Feature", "properties": { "안전시설명": "(분당)GS25 분당성원점", "안전시설전화번호": "031-717-6395", "소재지도로명주소": "경기도 성남시 분당구 성남대로 170", "소재지지번주소": "경기도 성남시 분당구 금곡동 159번지" }, "geometry": { "type": "Point", "coordinates": [ 127.109520161500001, 37.351175067299998 ] } },
{ "type": "Feature", "properties": { "안전시설명": "(분당)GS25 미금씨티밸리점", "안전시설전화번호": null, "소재지도로명주소": "경기도 성남시 분당구 성남대로171번길 17", "소재지지번주소": "경기도 성남시 분당구 금곡동 172번지" }, "geometry": { "type": "Point", "coordinates": [ 127.106810592299993, 37.351121023099999 ] } },
{ "type": "Feature", "properties": { "안전시설명": "(분당)GS25 분당대덕점", "안전시설전화번호": "031-711-6070", "소재지도로명주소": "경기도 성남시 분당구 정자일로 25", "소재지지번주소": "경기도 성남시 분당구 금곡동 206번지" }, "geometry": { "type": "Point", "coordinates": [ 127.1056747664, 37.352406221 ] } },
{ "type": "Feature", "properties": { "안전시설명": "(분당)파리바게트 판교대장점", "안전시설전화번호": "031-711-9969", "소재지도로명주소": "경기도 성남시 분당구 판교대장로 92", "소재지지번주소": "경기도 성남시 분당구 대장동 627-5번지 파리바게트 판교대장점" }, "geometry": { "type": "Point", "coordinates": [ 127.068442905200001, 37.367031863699999 ] } },
{ "type": "Feature", "properties": { "안전시설명": "우프테이블", "안전시설전화번호": null, "소재지도로명주소": "경기도 성남시 분당구 동판교로 61", "소재지지번주소": "경기도 성남시 분당구 백현동 550번지 1층" }, "geometry": { "type": "Point", "coordinates": [ 127.115393130300006, 37.388466419 ] } },
{ "type": "Feature", "properties": { "안전시설명": "(분당)나라부동산", "안전시설전화번호": "031-8016-6700", "소재지도로명주소": "경기도 성남시 분당구 동판교로52번길 5", "소재지지번주소": "경기도 성남시 분당구 백현동 604번지" }, "geometry": { "type": "Point", "coordinates": [ 127.114573242099993, 37.387535329899997 ] } },
{ "type": "Feature", "properties": { "안전시설명": "(분당)아름문구", "안전시설전화번호": "031-704-0450", "소재지도로명주소": "경기도 성남시 분당구 장안로52번길 3", "소재지지번주소": "경기도 성남시 분당구 분당동 118-1번지" }, "geometry": { "type": "Point", "coordinates": [ 127.144971481900001, 37.3709008768 ] } },
{ "type": "Feature", "properties": { "안전시설명": "(분당)라이프마트", "안전시설전화번호": "031-702-0724", "소재지도로명주소": null, "소재지지번주소": "경기도 성남시 분당구 분당동 34번지 샛별마을라이프아파트" }, "geometry": { "type": "Point", "coordinates": [ 127.130205530300003, 37.374154686300002 ] } },
{ "type": "Feature", "properties": { "안전시설명": "(분당)부연정육점", "안전시설전화번호": "031-702-4070", "소재지도로명주소": null, "소재지지번주소": "경기도 성남시 분당구 분당동 39번지 샛별마을삼부아파트" }, "geometry": { "type": "Point", "coordinates": [ 127.129783833900007, 37.370331510699998 ] } },
{ "type": "Feature", "properties": { "안전시설명": "(분당)GS25 분당샛별마을점", "안전시설전화번호": "031-705-0219", "소재지도로명주소": null, "소재지지번주소": "경기도 성남시 분당구 분당동 39번지 샛별마을삼부아파트" }, "geometry": { "type": "Point", "coordinates": [ 127.129783833900007, 37.370331510699998 ] } },
{ "type": "Feature", "properties": { "안전시설명": "(분당)분당우리약국", "안전시설전화번호": "031-703-5248", "소재지도로명주소": "경기도 성남시 분당구 장안로 27", "소재지지번주소": "경기도 성남시 분당구 분당동 90-6번지" }, "geometry": { "type": "Point", "coordinates": [ 127.142492352100007, 37.369730626500001 ] } },
{ "type": "Feature", "properties": { "안전시설명": "(분당)CU 판교월드마크점", "안전시설전화번호": "031-702-0135", "소재지도로명주소": "경기도 성남시 분당구 대왕판교로606번길 58", "소재지지번주소": "경기도 성남시 분당구 삼평동 741번지" }, "geometry": { "type": "Point", "coordinates": [ 127.113651516800005, 37.395446419400002 ] } },
{ "type": "Feature", "properties": { "안전시설명": "(분당)분당우체국", "안전시설전화번호": "031-725-8000", "소재지도로명주소": "경기도 성남시 분당구 황새울로 347", "소재지지번주소": "경기도 성남시 분당구 서현동 257번지" }, "geometry": { "type": "Point", "coordinates": [ 127.123229604800002, 37.3868871926 ] } },
{ "type": "Feature", "properties": { "안전시설명": "(분당)삼성스토어", "안전시설전화번호": "031-705-5544", "소재지도로명주소": "경기도 성남시 분당구 황새울로311번길 28", "소재지지번주소": "경기도 성남시 분당구 서현동 275번지" }, "geometry": { "type": "Point", "coordinates": [ 127.120601899799993, 37.3860224815 ] } },
{ "type": "Feature", "properties": { "안전시설명": "(분당)중앙약국", "안전시설전화번호": "031-703-7060", "소재지도로명주소": "경기도 성남시 분당구 돌마로 478", "소재지지번주소": "경기도 성남시 분당구 서현동 298-3번지" }, "geometry": { "type": "Point", "coordinates": [ 127.133455818100003, 37.37699514 ] } },
{ "type": "Feature", "properties": { "안전시설명": "(분당)엄마약국", "안전시설전화번호": "031-707-5440", "소재지도로명주소": "경기도 성남시 분당구 불정로 379", "소재지지번주소": "경기도 성남시 분당구 서현동 305-2번지" }, "geometry": { "type": "Point", "coordinates": [ 127.136416454300004, 37.3743722468 ] } },
{ "type": "Feature", "properties": { "안전시설명": "(분당)다원반찬", "안전시설전화번호": "031-707-6219", "소재지도로명주소": null, "소재지지번주소": "경기도 성남시 분당구 서현동 307번지 효자촌미래타운아파트" }, "geometry": { "type": "Point", "coordinates": [ 127.1378346204, 37.373051567600001 ] } },
{ "type": "Feature", "properties": { "안전시설명": "(분당)서현2동우체국", "안전시설전화번호": "031-701-0106", "소재지도로명주소": "경기도 성남시 분당구 분당로263번길 49", "소재지지번주소": "경기도 성남시 분당구 서현동 313번지" }, "geometry": { "type": "Point", "coordinates": [ 127.140954217300006, 37.3725563056 ] } },
{ "type": "Feature", "properties": { "안전시설명": "(분당)서현1동우체국", "안전시설전화번호": "031-701-0004", "소재지도로명주소": "경기도 성남시 분당구 중앙공원로39번길 31", "소재지지번주소": "경기도 성남시 분당구 서현동 89-2번지" }, "geometry": { "type": "Point", "coordinates": [ 127.126345436099996, 37.382732706900001 ] } },
{ "type": "Feature", "properties": { "안전시설명": "(분당)피자스쿨 분당서현점", "안전시설전화번호": "031-781-8295", "소재지도로명주소": "경기도 성남시 분당구 중앙공원로39번길 7", "소재지지번주소": "경기도 성남시 분당구 서현동 89-7번지" }, "geometry": { "type": "Point", "coordinates": [ 127.127978460199998, 37.381430854800001 ] } },
{ "type": "Feature", "properties": { "안전시설명": "(분당)올림픽스포츠센터", "안전시설전화번호": "02-3434-7906", "소재지도로명주소": "경기도 성남시 분당구 중앙공원로 35", "소재지지번주소": "경기도 성남시 분당구 서현동 90번지" }, "geometry": { "type": "Point", "coordinates": [ 127.128681486800005, 37.380883222599998 ] } },
{ "type": "Feature", "properties": { "안전시설명": "남건우 명품세탁소(현대세탁소)", "안전시설전화번호": "031-708-4950", "소재지도로명주소": null, "소재지지번주소": "경기도 성남시 분당구 서현동 92번지 현대아파트" }, "geometry": { "type": "Point", "coordinates": [ 127.130704185499994, 37.376112240700003 ] } },
{ "type": "Feature", "properties": { "안전시설명": "(분당)정문약국", "안전시설전화번호": "031-703-3119", "소재지도로명주소": "경기도 성남시 분당구 중앙공원로40번길 42", "소재지지번주소": "경기도 성남시 분당구 서현동 94-3번지" }, "geometry": { "type": "Point", "coordinates": [ 127.132377009300001, 37.378181613700001 ] } },
{ "type": "Feature", "properties": { "안전시설명": "(분당)안경박사 초림점", "안전시설전화번호": "031-711-8646", "소재지도로명주소": null, "소재지지번주소": "경기도 성남시 분당구 수내동 32번지 양지마을금호아파트" }, "geometry": { "type": "Point", "coordinates": [ 127.117117232599995, 37.375978896299998 ] } },
{ "type": "Feature", "properties": { "안전시설명": "(분당)세븐일레븐 초림점", "안전시설전화번호": "031-712-9165", "소재지도로명주소": "경기도 성남시 분당구 내정로165번길 50", "소재지지번주소": "경기도 성남시 분당구 수내동 33-1번지" }, "geometry": { "type": "Point", "coordinates": [ 127.115485015399997, 37.377109339900002 ] } },
{ "type": "Feature", "properties": { "안전시설명": "(분당)한솥도시락 분당수내역점", "안전시설전화번호": "031-711-7008", "소재지도로명주소": "경기도 성남시 분당구 내정로173번길 49", "소재지지번주소": "경기도 성남시 분당구 수내동 33-2번지" }, "geometry": { "type": "Point", "coordinates": [ 127.115845114199999, 37.377371910299999 ] } },
{ "type": "Feature", "properties": { "안전시설명": "(분당)금호세탁소", "안전시설전화번호": "031-712-2530", "소재지도로명주소": null, "소재지지번주소": "경기도 성남시 분당구 수내동 34번지 양지마을" }, "geometry": { "type": "Point", "coordinates": [ 127.117670935099994, 37.3781530137 ] } },
{ "type": "Feature", "properties": { "안전시설명": "(분당)경신바이크", "안전시설전화번호": "031-718-3091", "소재지도로명주소": null, "소재지지번주소": "경기도 성남시 분당구 수내동 56번지 파크타운대림아파트" }, "geometry": { "type": "Point", "coordinates": [ 127.120418536700001, 37.373096106299997 ] } },
{ "type": "Feature", "properties": { "안전시설명": "(분당)수내동우체국", "안전시설전화번호": "031-711-0004", "소재지도로명주소": "경기도 성남시 분당구 내정로166번길 27", "소재지지번주소": "경기도 성남시 분당구 수내동 61번지" }, "geometry": { "type": "Point", "coordinates": [ 127.121611893199997, 37.371612651699998 ] } },
{ "type": "Feature", "properties": { "안전시설명": "CU서판교중앙점", "안전시설전화번호": null, "소재지도로명주소": "경기도 성남시 분당구 운중로126번길 5", "소재지지번주소": "경기도 성남시 분당구 운중동 933번지" }, "geometry": { "type": "Point", "coordinates": [ 127.077388257400003, 37.391013795100001 ] } },
{ "type": "Feature", "properties": { "안전시설명": "(분당)운중동우체국", "안전시설전화번호": "031-701-8302", "소재지도로명주소": "경기도 성남시 분당구 운중로138번길 7-1", "소재지지번주소": "경기도 성남시 분당구 운중동 937번지" }, "geometry": { "type": "Point", "coordinates": [ 127.078688144, 37.390883227099998 ] } },
{ "type": "Feature", "properties": { "안전시설명": "(분당)산운명품크리닝", "안전시설전화번호": "031-8017-7005", "소재지도로명주소": "경기도 성남시 분당구 운중로113번길 4-15", "소재지지번주소": "경기도 성남시 분당구 운중동 981-3번지" }, "geometry": { "type": "Point", "coordinates": [ 127.076653757100004, 37.393057292800002 ] } },
{ "type": "Feature", "properties": { "안전시설명": "CU이매진흥점", "안전시설전화번호": "031-778-6561", "소재지도로명주소": "경기도 성남시 분당구 양현로 138", "소재지지번주소": "경기도 성남시 분당구 이매동 111번지 근린상가 103 106호" }, "geometry": { "type": "Point", "coordinates": [ 127.127789668800006, 37.396771724300002 ] } },
{ "type": "Feature", "properties": { "안전시설명": "도우미공인중개사", "안전시설전화번호": "031-701-3456", "소재지도로명주소": "경기도 성남시 분당구 양현로94번길 7", "소재지지번주소": "경기도 성남시 분당구 이매동 120-1번지 1층" }, "geometry": { "type": "Point", "coordinates": [ 127.125419045300006, 37.391842715899998 ] } },
{ "type": "Feature", "properties": { "안전시설명": "예지현 아뜰리에 미술교습소", "안전시설전화번호": null, "소재지도로명주소": "경기도 성남시 분당구 내정로 54", "소재지지번주소": "경기도 성남시 분당구 정자동 117번지 한솔마을 상가" }, "geometry": { "type": "Point", "coordinates": [ 127.116521336700004, 37.364349148800002 ] } },
{ "type": "Feature", "properties": { "안전시설명": "(분당)하늘미용실", "안전시설전화번호": "031-721-4999", "소재지도로명주소": "경기도 성남시 분당구 내정로 55", "소재지지번주소": "경기도 성남시 분당구 정자동 121번지 상록마을 분산상가 103호" }, "geometry": { "type": "Point", "coordinates": [ 127.112740553799995, 37.3638861397 ] } },
{ "type": "Feature", "properties": { "안전시설명": "(분당)CU 분당정자점", "안전시설전화번호": "031-786-1956", "소재지도로명주소": "경기도 성남시 분당구 내정로17번길 3", "소재지지번주소": "경기도 성남시 분당구 정자동 133-1번지" }, "geometry": { "type": "Point", "coordinates": [ 127.114164148200004, 37.361547198300002 ] } },
{ "type": "Feature", "properties": { "안전시설명": "(분당)CU 폴라리스점", "안전시설전화번호": "031-716-2258", "소재지도로명주소": "경기도 성남시 분당구 성남대로 381", "소재지지번주소": "경기도 성남시 분당구 정자동 15-3번지" }, "geometry": { "type": "Point", "coordinates": [ 127.107512503600006, 37.370277728700003 ] } },
{ "type": "Feature", "properties": { "안전시설명": "(분당)뜨락꽃집", "안전시설전화번호": "031-712-6473", "소재지도로명주소": "경기도 성남시 분당구 내정로 24", "소재지지번주소": "경기도 성남시 분당구 정자동 191번지" }, "geometry": { "type": "Point", "coordinates": [ 127.116494706099999, 37.362924878699999 ] } },
{ "type": "Feature", "properties": { "안전시설명": "(분당)24시공인중개사", "안전시설전화번호": "031-712-5700", "소재지도로명주소": null, "소재지지번주소": "경기도 성남시 분당구 정자동 197번지 정든마을" }, "geometry": { "type": "Point", "coordinates": [ 127.119915007900005, 37.363206333500003 ] } },
{ "type": "Feature", "properties": { "안전시설명": "(분당)정자동우체국", "안전시설전화번호": "031-714-9004", "소재지도로명주소": "경기도 성남시 분당구 정자일로198번길 6", "소재지지번주소": "경기도 성남시 분당구 정자동 20번지" }, "geometry": { "type": "Point", "coordinates": [ 127.106419139799996, 37.367705159400003 ] } },
{ "type": "Feature", "properties": { "안전시설명": "(분당)백현공인중개사", "안전시설전화번호": "031-717-7050", "소재지도로명주소": "경기도 성남시 분당구 백현로144번길 24", "소재지지번주소": "경기도 성남시 분당구 정자동 37-8번지" }, "geometry": { "type": "Point", "coordinates": [ 127.112235246, 37.372105082200001 ] } },
{ "type": "Feature", "properties": { "안전시설명": "(분당)GS25 정자으뜸점", "안전시설전화번호": null, "소재지도로명주소": "경기도 성남시 분당구 백현로144번길 7-6", "소재지지번주소": "경기도 성남시 분당구 정자동 44-3번지" }, "geometry": { "type": "Point", "coordinates": [ 127.114051039299994, 37.3726067809 ] } },
{ "type": "Feature", "properties": { "안전시설명": "(분당)CU 정자플라워점", "안전시설전화번호": "031-716-7297", "소재지도로명주소": "경기도 성남시 분당구 내정로119번길 11-1", "소재지지번주소": "경기도 성남시 분당구 정자동 53-1번지" }, "geometry": { "type": "Point", "coordinates": [ 127.1142486695, 37.371507741099997 ] } },
{ "type": "Feature", "properties": { "안전시설명": "(분당)연세부동산", "안전시설전화번호": "031-703-8924", "소재지도로명주소": "경기도 성남시 분당구 느티로 65", "소재지지번주소": "경기도 성남시 분당구 정자동 65-1번지 구미빌딩 1층" }, "geometry": { "type": "Point", "coordinates": [ 127.111845845299996, 37.368768695299998 ] } },
{ "type": "Feature", "properties": { "안전시설명": "(분당)참시루", "안전시설전화번호": "031-714-5033", "소재지도로명주소": "경기도 성남시 분당구 느티로77번길 3", "소재지지번주소": "경기도 성남시 분당구 정자동 65-6번지 101호 정자동 65-6" }, "geometry": { "type": "Point", "coordinates": [ 127.112975148399997, 37.3687814098 ] } },
{ "type": "Feature", "properties": { "안전시설명": "(분당)GS25 분당느티점", "안전시설전화번호": "031-715-3185", "소재지도로명주소": "경기도 성남시 분당구 느티로69번길 5", "소재지지번주소": "경기도 성남시 분당구 정자동 66-13번지" }, "geometry": { "type": "Point", "coordinates": [ 127.112250787500003, 37.369085506899999 ] } },
{ "type": "Feature", "properties": { "안전시설명": "(분당)GS25 파빌리온점", "안전시설전화번호": "031-785-4025", "소재지도로명주소": "경기도 성남시 분당구 성남대로 393", "소재지지번주소": "경기도 성남시 분당구 정자동 7번지" }, "geometry": { "type": "Point", "coordinates": [ 127.107166689300001, 37.371619638 ] } },
{ "type": "Feature", "properties": { "안전시설명": "(분당)꿈꾸는 약국", "안전시설전화번호": "031-8017-2700", "소재지도로명주소": "경기도 성남시 분당구 서판교로 36", "소재지지번주소": "경기도 성남시 분당구 판교동 577-3번지 1층" }, "geometry": { "type": "Point", "coordinates": [ 127.097886623799994, 37.389967568700001 ] } },
{ "type": "Feature", "properties": { "안전시설명": "(분당)모닝글로리 판교1호점", "안전시설전화번호": "031-8016-0737", "소재지도로명주소": "경기도 성남시 분당구 운중로 253", "소재지지번주소": "경기도 성남시 분당구 판교동 591번지" }, "geometry": { "type": "Point", "coordinates": [ 127.091189964, 37.389529973599998 ] } },
{ "type": "Feature", "properties": { "안전시설명": "(분당)럭키공인중개사", "안전시설전화번호": "031-8016-7777", "소재지도로명주소": null, "소재지지번주소": "경기도 성남시 분당구 판교동 629번지 판교원마을3단지아파트" }, "geometry": { "type": "Point", "coordinates": [ 127.086232252499997, 37.387187176399998 ] } },
{ "type": "Feature", "properties": { "안전시설명": "(분당)판교원약국", "안전시설전화번호": "031-709-7577", "소재지도로명주소": null, "소재지지번주소": "경기도 성남시 분당구 판교동 634번지 판교원마을5단지아파트" }, "geometry": { "type": "Point", "coordinates": [ 127.087651034700002, 37.388021399599999 ] } },
{ "type": "Feature", "properties": { "안전시설명": "(분당)모아분식", "안전시설전화번호": "031-8016-5090", "소재지도로명주소": null, "소재지지번주소": "경기도 성남시 분당구 판교동 637번지 판교원마을7단지아파트" }, "geometry": { "type": "Point", "coordinates": [ 127.091728381699994, 37.388152726 ] } }
]
}
