{
"type": "FeatureCollection",
"name": "subway",
"crs": { "type": "name", "properties": { "name": "urn:ogc:def:crs:OGC:1.3:CRS84" } },
"features": [
{ "type": "Feature", "properties": { "역번호": "0821", "역사명": "남위례", "노선번호": "S1108", "노선명": "8호선", "영문역사명": "Namwirye ", "한자역사명": "南慰禮", "환승역구분": "일반역", "환승노선번호": null, "환승노선명": null, "역위도": 37.462839, "역경도": 127.139047, "운영기관명": "서울교통공사", "역사도로명주소": "경기도 성남시 수정구 공원로 601(복정동)", "역사전화번호": "02-6311-8211", "데이터기준일자": "2024-12-31", "field_16": null }, "geometry": { "type": "Point", "coordinates": [ 127.139047, 37.462839 ] } },
{ "type": "Feature", "properties": { "역번호": "0822", "역사명": "산성", "노선번호": "S1108", "노선명": "8호선", "영문역사명": "Sanseong", "한자역사명": "山城", "환승역구분": "일반역", "환승노선번호": null, "환승노선명": null, "역위도": 37.456886, "역경도": 127.149927, "운영기관명": "서울교통공사", "역사도로명주소": "경기도 성남시 수정구 수정로 지하365(신흥동)", "역사전화번호": "02-6311-8221", "데이터기준일자": "2024-12-31", "field_16": null }, "geometry": { "type": "Point", "coordinates": [ 127.149927, 37.456886 ] } },
{ "type": "Feature", "properties": { "역번호": "0823", "역사명": "남한산성입구(성남법원·검찰청)", "노선번호": "S1108", "노선명": "8호선", "영문역사명": "Namhansanseong(Seongnam Court & Public Prosecutor's Office)", "한자역사명": "南漢山城入口(城南法院檢察廳)?", "환승역구분": "일반역", "환승노선번호": null, "환승노선명": null, "역위도": 37.451568, "역경도": 127.159845, "운영기관명": "서울교통공사", "역사도로명주소": "경기도 성남시 수정구 산성대로 지하445(단대동)", "역사전화번호": "02-6311-8231", "데이터기준일자": "2024-12-31", "field_16": null }, "geometry": { "type": "Point", "coordinates": [ 127.159845, 37.451568 ] } },
{ "type": "Feature", "properties": { "역번호": "0824", "역사명": "단대오거리", "노선번호": "S1108", "노선명": "8호선", "영문역사명": "Dandaeogeori", "한자역사명": "丹垈오거리", "환승역구분": "일반역", "환승노선번호": null, "환승노선명": null, "역위도": 37.445057, "역경도": 127.156735, "운영기관명": "서울교통공사", "역사도로명주소": "경기도 성남시 수정구 산성대로 지하365(신흥동)", "역사전화번호": "02-6311-8241", "데이터기준일자": "2024-12-31", "field_16": null }, "geometry": { "type": "Point", "coordinates": [ 127.156735, 37.445057 ] } },
{ "type": "Feature", "properties": { "역번호": "0825", "역사명": "신흥", "노선번호": "S1108", "노선명": "8호선", "영문역사명": "Sinheung", "한자역사명": "新興", "환승역구분": "일반역", "환승노선번호": null, "환승노선명": null, "역위도": 37.440952, "역경도": 127.14759, "운영기관명": "서울교통공사", "역사도로명주소": "경기도 성남시 수정구 산성대로 지하280(신흥동)", "역사전화번호": "02-6311-8251", "데이터기준일자": "2024-12-31", "field_16": null }, "geometry": { "type": "Point", "coordinates": [ 127.14759, 37.440952 ] } },
{ "type": "Feature", "properties": { "역번호": "0826", "역사명": "수진", "노선번호": "S1108", "노선명": "8호선", "영문역사명": "Sujin", "한자역사명": "壽進", "환승역구분": "일반역", "환승노선번호": null, "환승노선명": null, "역위도": 37.437575, "역경도": 127.140936, "운영기관명": "서울교통공사", "역사도로명주소": "경기도 성남시 수정구 산성대로 지하200(수진동)", "역사전화번호": "02-6311-8261", "데이터기준일자": "2024-12-31", "field_16": null }, "geometry": { "type": "Point", "coordinates": [ 127.140936, 37.437575 ] } },
{ "type": "Feature", "properties": { "역번호": "0827", "역사명": "모란", "노선번호": "S1108", "노선명": "8호선", "영문역사명": "Moran", "한자역사명": "牡丹", "환승역구분": "환승역", "환승노선번호": "I41K1", "환승노선명": "수도권  광역철도 분당", "역위도": 37.433988, "역경도": 127.129921, "운영기관명": "서울교통공사", "역사도로명주소": "경기도 성남시 수정구 산성대로 지하100(수진동)", "역사전화번호": "02-6311-8271", "데이터기준일자": "2024-12-31", "field_16": null }, "geometry": { "type": "Point", "coordinates": [ 127.129921, 37.433988 ] } },
{ "type": "Feature", "properties": { "역번호": "1851", "역사명": "가천대역", "노선번호": "I4105", "노선명": "분당선", "영문역사명": "Gachon Univ.", "한자역사명": "嘉泉大", "환승역구분": "일반역", "환승노선번호": null, "환승노선명": null, "역위도": 37.448784, "역경도": 127.126677, "운영기관명": "한국철도공사", "역사도로명주소": "경기도 성남시 수정구 성남대로 1332", "역사전화번호": "1588-7788", "데이터기준일자": "2025-04-08", "field_16": null }, "geometry": { "type": "Point", "coordinates": [ 127.126677, 37.448784 ] } },
{ "type": "Feature", "properties": { "역번호": "1852", "역사명": "태평역", "노선번호": "I4105", "노선명": "분당선", "영문역사명": "Taepyeong", "한자역사명": "太 平", "환승역구분": "일반역", "환승노선번호": null, "환승노선명": null, "역위도": 37.439842, "역경도": 127.127746, "운영기관명": "한국철도공사", "역사도로명주소": "경기도 성남시 수정구 성남대로 지하 1229번지", "역사전화번호": "1588-7788", "데이터기준일자": "2025-04-08", "field_16": null }, "geometry": { "type": "Point", "coordinates": [ 127.127746, 37.439842 ] } },
{ "type": "Feature", "properties": { "역번호": "1853", "역사명": "모란역", "노선번호": "I4105", "노선명": "분당선", "영문역사명": "Moran", "한자역사명": "牡 丹", "환승역구분": "환승역", "환승노선번호": "S1108", "환승노선명": "수도권 도시철도 8호선", "역위도": 37.432124, "역경도": 127.129064, "운영기관명": "한국철도공사", "역사도로명주소": "경기도 성남시 중원구 성남대로 지하 1147(성남동 1575)", "역사전화번호": "1588-7788", "데이터기준일자": "2025-04-08", "field_16": null }, "geometry": { "type": "Point", "coordinates": [ 127.129064, 37.432124 ] } },
{ "type": "Feature", "properties": { "역번호": "1854", "역사명": "야탑역", "노선번호": "I4105", "노선명": "분당선", "영문역사명": "Yatap", "한자역사명": "野 塔", "환승역구분": "일반역", "환승노선번호": null, "환승노선명": null, "역위도": 37.41132, "역경도": 127.128661, "운영기관명": "한국철도공사", "역사도로명주소": "경기도 성남시 성남대로 지하 903(야탑동 688-1)", "역사전화번호": "1588-7788", "데이터기준일자": "2025-04-08", "field_16": null }, "geometry": { "type": "Point", "coordinates": [ 127.128661, 37.41132 ] } },
{ "type": "Feature", "properties": { "역번호": "1501", "역사명": "판교역", "노선번호": "I41K5", "노선명": "경강선", "영문역사명": "Pangyo", "한자역사명": "板橋", "환승역구분": "환승역", "환승노선번호": "I11D1", "환승노선명": "신분당선", "역위도": 37.394798, "역경도": 127.111135, "운영기관명": "한국철도공사", "역사도로명주소": "경기도 성남시 분당구 판교역로 160", "역사전화번호": "1588-7788", "데이터기준일자": "2025-04-08", "field_16": null }, "geometry": { "type": "Point", "coordinates": [ 127.111135, 37.394798 ] } },
{ "type": "Feature", "properties": { "역번호": "1502", "역사명": "이매역", "노선번호": "I41K5", "노선명": "경강선", "영문역사명": "Imae", "한자역사명": "二梅", "환승역구분": "환승역", "환승노선번호": "I4105", "환승노선명": "분당선", "역위도": 37.394736, "역경도": 127.127048, "운영기관명": "한국철도공사", "역사도로명주소": "경기도 성남시 분당구 성남대로 738", "역사전화번호": "1588-7788", "데이터기준일자": "2025-04-08", "field_16": null }, "geometry": { "type": "Point", "coordinates": [ 127.127048, 37.394736 ] } },
{ "type": "Feature", "properties": { "역번호": "1512", "역사명": "성남역", "노선번호": "I41K5", "노선명": "경강선", "영문역사명": "Seongnam", "한자역사명": "城南", "환승역구분": "환승역", "환승노선번호": null, "환승노선명": "GTX-A", "역위도": 37.394709, "역경도": 127.11949, "운영기관명": "한국철도공사", "역사도로명주소": "경기도 성남시 분당구 백현동 545-1", "역사전화번호": "1588-7788", "데이터기준일자": "2025-04-08", "field_16": null }, "geometry": { "type": "Point", "coordinates": [ 127.11949, 37.394709 ] } },
{ "type": "Feature", "properties": { "역번호": "1855", "역사명": "서현역", "노선번호": "I4105", "노선명": "분당선", "영문역사명": "Seohyeon", "한자역사명": "書 峴", "환승역구분": "일반역", "환승노선번호": null, "환승노선명": null, "역위도": 37.384931, "역경도": 127.123249, "운영기관명": "한국철도공사", "역사도로명주소": "경기도 성남시 분당구 성남대로 지하 601", "역사전화번호": "1588-7788", "데이터기준일자": "2025-04-08", "field_16": null }, "geometry": { "type": "Point", "coordinates": [ 127.123249, 37.384931 ] } },
{ "type": "Feature", "properties": { "역번호": "1856", "역사명": "수내역", "노선번호": "I4105", "노선명": "분당선", "영문역사명": "Sunae", "한자역사명": "藪 內", "환승역구분": "일반역", "환승노선번호": null, "환승노선명": null, "역위도": 37.378435, "역경도": 127.114216, "운영기관명": "한국철도공사", "역사도로명주소": "경기도 성남시 분당구 성남대로 지하 491(수내동)", "역사전화번호": "1588-7788", "데이터기준일자": "2025-04-08", "field_16": null }, "geometry": { "type": "Point", "coordinates": [ 127.114216, 37.378435 ] } },
{ "type": "Feature", "properties": { "역번호": "1857", "역사명": "정자역", "노선번호": "I4105", "노선명": "분당선", "영문역사명": "Jeongja", "한자역사명": "亭 子", "환승역구분": "환승역", "환승노선번호": "I11D1", "환승노선명": "신분당선", "역위도": 37.366037, "역경도": 127.108091, "운영기관명": "한국철도공사", "역사도로명주소": "경기도 성남시 분당구 성남대로 지하 333(정자동)", "역사전화번호": "1588-7788", "데이터기준일자": "2025-04-08", "field_16": null }, "geometry": { "type": "Point", "coordinates": [ 127.108091, 37.366037 ] } },
{ "type": "Feature", "properties": { "역번호": "1858", "역사명": "미금역", "노선번호": "I4105", "노선명": "분당선", "영문역사명": "Migeum", "한자역사명": "美 金", "환승역구분": "환승역", "환승노선번호": "I11D1", "환승노선명": "신분당선", "역위도": 37.350078, "역경도": 127.108952, "운영기관명": "한국철도공사", "역사도로명주소": "경기도 성남시 수정구 성남대로 지하 156", "역사전화번호": "1588-7788", "데이터기준일자": "2025-04-08", "field_16": null }, "geometry": { "type": "Point", "coordinates": [ 127.108952, 37.350078 ] } },
{ "type": "Feature", "properties": { "역번호": "1859", "역사명": "오리역", "노선번호": "I4105", "노선명": "분당선", "영문역사명": "Ori", "한자역사명": "梧 里", "환승역구분": "일반역", "환승노선번호": null, "환승노선명": null, "역위도": 37.339832, "역경도": 127.108985, "운영기관명": "한국철도공사", "역사도로명주소": "경기도 성남시 분당구 성남대로 지하 55(구미동 795)", "역사전화번호": "1588-7788", "데이터기준일자": "2025-04-08", "field_16": null }, "geometry": { "type": "Point", "coordinates": [ 127.108985, 37.339832 ] } },
{ "type": "Feature", "properties": { "역번호": "1860", "역사명": "이매역", "노선번호": "I4105", "노선명": "분당선", "영문역사명": "Imae", "한자역사명": "二 梅", "환승역구분": "환승역", "환승노선번호": "I41K5", "환승노선명": "경강선", "역위도": 37.395846, "역경도": 127.128272, "운영기관명": "한국철도공사", "역사도로명주소": "경기도 성남시 성남대로 지하 738", "역사전화번호": "1588-7788", "데이터기준일자": "2025-04-08", "field_16": null }, "geometry": { "type": "Point", "coordinates": [ 127.128272, 37.395846 ] } },
{ "type": "Feature", "properties": { "역번호": "D011", "역사명": "판교", "노선번호": "I11D1", "노선명": "신분당선", "영문역사명": "Pangyo(Pangyo Techno Valley)", "한자역사명": "板橋(板橋테크노밸리)", "환승역구분": "환승역", "환승노선번호": "I11D1", "환승노선명": "수도권 광역철도 신분당선", "역위도": 37.39501475, "역경도": 127.1112107, "운영기관명": "경기도 신분당선", "역사도로명주소": "경기도 성남시 분당구 판교역로 지하 160", "역사전화번호": "031)8018-7750", "데이터기준일자": "2025-09-30", "field_16": null }, "geometry": { "type": "Point", "coordinates": [ 127.1112107, 37.39501475 ] } },
{ "type": "Feature", "properties": { "역번호": "D012", "역사명": "정자", "노선번호": "I11D1", "노선명": "신분당선", "영문역사명": "Jeongja", "한자역사명": "亭子", "환승역구분": "환승역", "환승노선번호": "I11D1", "환승노선명": "수도권 광역철도 신분당선", "역위도": 37.36750101, "역경도": 127.1084859, "운영기관명": "경기도 신분당선", "역사도로명주소": "경기도 성남시 분당구 성남대로 지하 333 ", "역사전화번호": "031)8018-7760", "데이터기준일자": "2025-09-30", "field_16": null }, "geometry": { "type": "Point", "coordinates": [ 127.1084859, 37.36750101 ] } },
{ "type": "Feature", "properties": { "역번호": "D013", "역사명": "미금", "노선번호": "I11D1", "노선명": "신분당선", "영문역사명": "Migeum", "한자역사명": "美金", "환승역구분": "환승역", "환승노선번호": "I11D1", "환승노선명": "수도권 광역철도 신분당선", "역위도": 37.35058332, "역경도": 127.1088028, "운영기관명": "경기도 신분당선", "역사도로명주소": "경기도 성남시 성남대로 지하 163 (금곡동)", "역사전화번호": "031)8018-7770", "데이터기준일자": "2025-09-30", "field_16": null }, "geometry": { "type": "Point", "coordinates": [ 127.1088028, 37.35058332 ] } }
]
}
